{
  "version": 0.6,
  "generator": "Overpass API 0.7.62.7 375dc00a",
  "osm3s": {
    "timestamp_osm_base": "2025-08-02T09:52:15Z",
    "copyright": "The data included in this document is from www.openstreetmap.org. The data is made available under ODbL."
  },
  "elements": [

{
  "type": "node",
  "id": 282201908,
  "lat": 47.5325660,
  "lon": 13.9300677,
  "tags": {
    "amenity": "drinking_water",
    "name": "Heilquelle Bad Heilbrunn"
  }
},
{
  "type": "node",
  "id": 282232896,
  "lat": 47.5624123,
  "lon": 13.6492111,
  "tags": {
    "amenity": "drinking_water",
    "check_date": "2023-07-10",
    "fountain": "drinking",
    "name": "Dorfbrunnen",
    "source": "geoimage"
  }
},
{
  "type": "node",
  "id": 282967371,
  "lat": 47.2674323,
  "lon": 13.3584482,
  "tags": {
    "amenity": "drinking_water"
  }
},
{
  "type": "node",
  "id": 282967745,
  "lat": 47.2670900,
  "lon": 13.3480928,
  "tags": {
    "drinking_water": "yes",
    "name": "S' Senninbründl",
    "natural": "spring"
  }
},
{
  "type": "node",
  "id": 300794964,
  "lat": 47.5548675,
  "lon": 13.7255700,
  "tags": {
    "drinking_water": "yes",
    "name": "Bühlerbachursprung",
    "natural": "spring"
  }
},
{
  "type": "node",
  "id": 364290561,
  "lat": 47.5487944,
  "lon": 13.9705491,
  "tags": {
    "amenity": "drinking_water",
    "name": "Ortsbrunnen"
  }
},
{
  "type": "node",
  "id": 425112127,
  "lat": 47.4063026,
  "lon": 13.1106485,
  "tags": {
    "amenity": "drinking_water",
    "check_date": "2021-10-29",
    "fountain": "drinking"
  }
},
{
  "type": "node",
  "id": 425112154,
  "lat": 47.4051286,
  "lon": 13.0921227,
  "tags": {
    "amenity": "drinking_water"
  }
},
{
  "type": "node",
  "id": 425112164,
  "lat": 47.4048153,
  "lon": 13.0916777,
  "tags": {
    "amenity": "drinking_water"
  }
},
{
  "type": "node",
  "id": 425112167,
  "lat": 47.4049574,
  "lon": 13.0895922,
  "tags": {
    "amenity": "drinking_water"
  }
},
{
  "type": "node",
  "id": 425112171,
  "lat": 47.4050347,
  "lon": 13.0891770,
  "tags": {
    "amenity": "drinking_water"
  }
},
{
  "type": "node",
  "id": 444956370,
  "lat": 47.4269326,
  "lon": 13.9050897,
  "tags": {
    "amenity": "drinking_water"
  }
},
{
  "type": "node",
  "id": 451758972,
  "lat": 47.8535874,
  "lon": 13.9514999,
  "tags": {
    "amenity": "drinking_water",
    "fee": "no",
    "man_made": "water_tap"
  }
},
{
  "type": "node",
  "id": 460355329,
  "lat": 47.3131012,
  "lon": 13.8132502,
  "tags": {
    "addr:city": "Schladming",
    "addr:housename": "Preintalerhütte",
    "addr:housenumber": "67",
    "addr:postcode": "8971",
    "addr:street": "Untertalstraße",
    "capacity": "144",
    "drinking_water": "yes",
    "ele": "1657",
    "internet_access": "no",
    "name": "Preintalerhütte",
    "opening_hours": "Jun-Sep",
    "operator": "Alpine Gesellschaft Preintaler",
    "reservation": "yes",
    "shower": "yes",
    "toilets": "yes",
    "tourism": "alpine_hut",
    "website": "http://www.preintaler.at/agp/index.php/unsere-huetten/preintalerhuette",
    "wheelchair": "no",
    "wikidata": "Q1410481",
    "wikipedia": "de:Preintalerhütte"
  }
},
{
  "type": "node",
  "id": 475289539,
  "lat": 47.4948851,
  "lon": 13.0064874,
  "tags": {
    "amenity": "drinking_water",
    "check_date": "2022-07-18"
  }
},
{
  "type": "node",
  "id": 569713115,
  "lat": 47.4743614,
  "lon": 13.7787407,
  "tags": {
    "amenity": "drinking_water",
    "natural": "spring"
  }
},
{
  "type": "node",
  "id": 588385086,
  "lat": 47.5438468,
  "lon": 13.9271765,
  "tags": {
    "amenity": "drinking_water",
    "name": "Heilquelle Grimmingtherme"
  }
},
{
  "type": "node",
  "id": 668477489,
  "lat": 47.4262916,
  "lon": 13.9055639,
  "tags": {
    "amenity": "drinking_water",
    "name": "Gemeindebrunnen"
  }
},
{
  "type": "node",
  "id": 759962422,
  "lat": 47.5511511,
  "lon": 13.6376800,
  "tags": {
    "amenity": "drinking_water"
  }
},
{
  "type": "node",
  "id": 773224299,
  "lat": 47.6685674,
  "lon": 13.8235265,
  "tags": {
    "amenity": "drinking_water",
    "intermittent": "yes",
    "name": "Nosnbä Bründl",
    "natural": "spring",
    "toilets:wheelchair": "no",
    "wheelchair": "no"
  }
},
{
  "type": "node",
  "id": 785285794,
  "lat": 47.5781941,
  "lon": 13.5933935,
  "tags": {
    "amenity": "watering_place",
    "drinking_water": "yes"
  }
},
{
  "type": "node",
  "id": 830488729,
  "lat": 47.7384583,
  "lon": 13.1343324,
  "tags": {
    "amenity": "drinking_water",
    "check_date": "2022-03-05",
    "description": "water",
    "fixme": "resurvey"
  }
},
{
  "type": "node",
  "id": 833026333,
  "lat": 47.4000614,
  "lon": 13.0402566,
  "tags": {
    "amenity": "drinking_water",
    "check_date": "2024-08-22",
    "fountain": "bubbler"
  }
},
{
  "type": "node",
  "id": 845228909,
  "lat": 47.4610303,
  "lon": 13.2604793,
  "tags": {
    "amenity": "drinking_water",
    "source": "survey"
  }
},
{
  "type": "node",
  "id": 857585080,
  "lat": 47.8867375,
  "lon": 13.8480903,
  "tags": {
    "alt_name": "Siebenbründl",
    "amenity": "fountain",
    "drinking_water": "yes",
    "ele": "920",
    "name": "Sieben Brünnlein"
  }
},
{
  "type": "node",
  "id": 891547626,
  "lat": 47.1718203,
  "lon": 13.1055145,
  "tags": {
    "amenity": "drinking_water",
    "fountain": "drinking",
    "name": "Thermalwasser-Trinkbrunnen",
    "start_date": "1928",
    "temperature": "41°C"
  }
},
{
  "type": "node",
  "id": 891547726,
  "lat": 47.1708502,
  "lon": 13.1040312,
  "tags": {
    "amenity": "drinking_water",
    "check_date": "2023-04-16",
    "fountain": "drinking",
    "name": "Thermalwassertrinkbrunnen"
  }
},
{
  "type": "node",
  "id": 904303292,
  "lat": 47.8860115,
  "lon": 13.8889337,
  "tags": {
    "amenity": "drinking_water",
    "check_date": "2022-09-28",
    "ele": "1049",
    "fountain": "drinking"
  }
},
{
  "type": "node",
  "id": 907251580,
  "lat": 47.7959240,
  "lon": 13.4338487,
  "tags": {
    "amenity": "drinking_water"
  }
},
{
  "type": "node",
  "id": 910641614,
  "lat": 47.5194865,
  "lon": 13.7472008,
  "tags": {
    "amenity": "drinking_water",
    "description": "Hatte bislang immer Wasser",
    "name": "Quelle",
    "natural": "spring"
  }
},
{
  "type": "node",
  "id": 916174560,
  "lat": 47.8416013,
  "lon": 13.2536923,
  "tags": {
    "amenity": "fountain",
    "drinking_water": "yes"
  }
},
{
  "type": "node",
  "id": 928068738,
  "lat": 47.5349190,
  "lon": 13.7406746,
  "tags": {
    "amenity": "drinking_water",
    "description": "suchen",
    "name": "Quelle",
    "natural": "spring"
  }
},
{
  "type": "node",
  "id": 928075472,
  "lat": 47.5335141,
  "lon": 13.7205232,
  "tags": {
    "amenity": "drinking_water",
    "description": "wasser",
    "name": "Quelle",
    "natural": "spring",
    "wheelchair": "no"
  }
},
{
  "type": "node",
  "id": 930036297,
  "lat": 47.5360634,
  "lon": 13.6983232,
  "tags": {
    "drinking_water": "yes",
    "natural": "spring"
  }
},
{
  "type": "node",
  "id": 939083109,
  "lat": 47.7311296,
  "lon": 13.8450281,
  "tags": {
    "amenity": "drinking_water",
    "description": "errichtet 1997 von Hans und Sigi",
    "drinking_water": "yes",
    "ele": "1180",
    "name": "Rinnerboden Bründl",
    "natural": "spring"
  }
},
{
  "type": "node",
  "id": 939083110,
  "lat": 47.7352671,
  "lon": 13.8467801,
  "tags": {
    "amenity": "drinking_water",
    "name": "Moosbründl",
    "natural": "spring"
  }
},
{
  "type": "node",
  "id": 939172018,
  "lat": 47.6587925,
  "lon": 13.9847737,
  "tags": {
    "amenity": "drinking_water",
    "name": "Quelle",
    "natural": "spring"
  }
},
{
  "type": "node",
  "id": 939214985,
  "lat": 47.6576061,
  "lon": 13.9292980,
  "tags": {
    "amenity": "drinking_water",
    "name": "Quelle",
    "natural": "spring"
  }
},
{
  "type": "node",
  "id": 939343424,
  "lat": 47.6567179,
  "lon": 13.8802238,
  "tags": {
    "amenity": "drinking_water",
    "natural": "spring"
  }
},
{
  "type": "node",
  "id": 950492770,
  "lat": 47.6819549,
  "lon": 13.9093739,
  "tags": {
    "amenity": "drinking_water",
    "name": "Quelle",
    "natural": "spring"
  }
},
{
  "type": "node",
  "id": 954150397,
  "lat": 47.5233026,
  "lon": 13.5141547,
  "tags": {
    "amenity": "drinking_water",
    "check_date": "2023-10-02",
    "drinking_water": "yes"
  }
},
{
  "type": "node",
  "id": 961517798,
  "lat": 47.2381372,
  "lon": 13.3305890,
  "tags": {
    "amenity": "drinking_water",
    "check_date": "2021-08-09"
  }
},
{
  "type": "node",
  "id": 991276096,
  "lat": 47.5482608,
  "lon": 13.7053080,
  "tags": {
    "access": "yes",
    "drinking_water": "yes",
    "man_made": "water_tap",
    "operator": "Dachstein Krippenstein-Seilbahn"
  }
},
{
  "type": "node",
  "id": 997716612,
  "lat": 47.9092815,
  "lon": 13.7209075,
  "tags": {
    "access": "private",
    "amenity": "fountain",
    "drinking_water": "yes"
  }
},
{
  "type": "node",
  "id": 1022404494,
  "lat": 47.8343020,
  "lon": 13.6175987,
  "tags": {
    "drinking_water": "yes",
    "name": "St. Georgs Bründl",
    "natural": "spring"
  }
},
{
  "type": "node",
  "id": 1022463926,
  "lat": 47.8373084,
  "lon": 13.6181425,
  "tags": {
    "alt_name": "Aurachursprung",
    "drinking_water": "yes",
    "name": "Aurach Ursprung",
    "natural": "spring"
  }
},
{
  "type": "node",
  "id": 1108043708,
  "lat": 47.7870641,
  "lon": 13.7343032,
  "tags": {
    "drinking_water": "yes",
    "fee": "no",
    "intermittent": "no",
    "name": "Miesenbach-Ursprung",
    "natural": "spring",
    "ref": "1567/33"
  }
},
{
  "type": "node",
  "id": 1108044027,
  "lat": 47.7862728,
  "lon": 13.7310757,
  "tags": {
    "drinking_water": "yes",
    "intermittent": "no",
    "name": "Miesenbach-Ursprung",
    "natural": "spring",
    "ref": "1567/33"
  }
},
{
  "type": "node",
  "id": 1165250375,
  "lat": 47.8114938,
  "lon": 13.8103260,
  "tags": {
    "drinking_water": "yes",
    "name": "Quelle Aloisbrünndl",
    "natural": "spring"
  }
},
{
  "type": "node",
  "id": 1203672715,
  "lat": 47.5608630,
  "lon": 13.1112189,
  "tags": {
    "drinking_water": "yes",
    "ele": "878",
    "intermittent": "no",
    "name": "Beim kalten Wasser",
    "natural": "spring",
    "source_ref": "http://www.flickr.com/photos/kogo59/5527625312/"
  }
},
{
  "type": "node",
  "id": 1214993800,
  "lat": 47.8995260,
  "lon": 13.1673579,
  "tags": {
    "addr:city": "Henndorf am Wallersee",
    "addr:housenumber": "120",
    "addr:place": "Fenning",
    "addr:postcode": "5302",
    "capacity:pitches": "200",
    "caravans": "yes",
    "dog": "yes",
    "drinking_water": "yes",
    "fee": "yes",
    "name": "Camping Fenninger Spitz",
    "payment:cash": "yes",
    "payment:mastercard": "yes",
    "payment:visa": "yes",
    "phone": "+43 6644555705",
    "power_supply": "yes",
    "shower": "hot",
    "static_caravans": "yes",
    "tents": "yes",
    "toilets": "yes",
    "tourism": "camp_site",
    "washing_machine": "yes",
    "website": "https://www.camping-fenningerspitz.at/"
  }
},
{
  "type": "node",
  "id": 1246416855,
  "lat": 47.1674568,
  "lon": 13.1109637,
  "tags": {
    "amenity": "drinking_water",
    "check_date": "2022-12-27",
    "fountain": "drinking",
    "name": "Thermalwassertrinkbrunnen"
  }
},
{
  "type": "node",
  "id": 1251651342,
  "lat": 47.9678928,
  "lon": 13.0798099,
  "tags": {
    "access": "yes",
    "amenity": "toilets",
    "drinking_water": "yes",
    "fee": "no",
    "toilets:disposal": "flush"
  }
},
{
  "type": "node",
  "id": 1277520572,
  "lat": 47.7259745,
  "lon": 13.0124192,
  "tags": {
    "amenity": "drinking_water"
  }
},
{
  "type": "node",
  "id": 1299472290,
  "lat": 47.4006891,
  "lon": 13.9056479,
  "tags": {
    "amenity": "drinking_water"
  }
},
{
  "type": "node",
  "id": 1308881437,
  "lat": 47.7437550,
  "lon": 13.8732694,
  "tags": {
    "amenity": "drinking_water"
  }
},
{
  "type": "node",
  "id": 1315986562,
  "lat": 47.7983808,
  "lon": 13.5403866,
  "tags": {
    "access": "private",
    "amenity": "drinking_water"
  }
},
{
  "type": "node",
  "id": 1315986652,
  "lat": 47.8183839,
  "lon": 13.6206018,
  "tags": {
    "drinking_water": "yes",
    "ele": "1380",
    "name": "Pfaffengraben-Quelle",
    "natural": "spring"
  }
},
{
  "type": "node",
  "id": 1324537670,
  "lat": 47.7684330,
  "lon": 13.4169608,
  "tags": {
    "amenity": "drinking_water",
    "man_made": "water_well"
  }
},
{
  "type": "node",
  "id": 1324537744,
  "lat": 47.7690146,
  "lon": 13.4186630,
  "tags": {
    "amenity": "drinking_water",
    "man_made": "water_well"
  }
},
{
  "type": "node",
  "id": 1332778857,
  "lat": 47.8026411,
  "lon": 13.0536892,
  "tags": {
    "amenity": "drinking_water",
    "check_date": "2022-08-15",
    "drinking_water": "yes",
    "name": "Holztrog-Brunnen Kapuzinerberg",
    "natural": "spring"
  }
},
{
  "type": "node",
  "id": 1364163266,
  "lat": 47.6738196,
  "lon": 13.7459493,
  "tags": {
    "amenity": "drinking_water"
  }
},
{
  "type": "node",
  "id": 1364170807,
  "lat": 47.5593641,
  "lon": 13.8593971,
  "tags": {
    "amenity": "drinking_water"
  }
},
{
  "type": "node",
  "id": 1372261718,
  "lat": 47.3054247,
  "lon": 13.4729190,
  "tags": {
    "amenity": "drinking_water",
    "name": "Adi's Brünnerle"
  }
},
{
  "type": "node",
  "id": 1373566911,
  "lat": 47.7942980,
  "lon": 13.0407654,
  "tags": {
    "amenity": "drinking_water",
    "artwork_type": "fountain",
    "fountain": "drinking",
    "material": "marble",
    "name": "Löwenkopf-Brunnen",
    "source": "Salzburg AG",
    "start_date": "1926",
    "wheelchair": "yes"
  }
},
{
  "type": "node",
  "id": 1378938944,
  "lat": 47.9927161,
  "lon": 13.1027406,
  "tags": {
    "drinking_water": "yes",
    "name": "Gnadenbrünndl",
    "natural": "spring"
  }
},
{
  "type": "node",
  "id": 1384373402,
  "lat": 47.9063253,
  "lon": 13.2951406,
  "tags": {
    "access": "permissive",
    "amenity": "drinking_water"
  }
},
{
  "type": "node",
  "id": 1395952462,
  "lat": 47.6160953,
  "lon": 13.0903769,
  "tags": {
    "amenity": "drinking_water"
  }
},
{
  "type": "node",
  "id": 1396348721,
  "lat": 47.8457576,
  "lon": 13.7906219,
  "tags": {
    "access": "yes",
    "amenity": "toilets",
    "bottle": "yes",
    "drinking_water": "yes",
    "fee": "no",
    "female": "yes",
    "male": "yes",
    "toilets:position": "seated;urinal",
    "wheelchair": "yes"
  }
},
{
  "type": "node",
  "id": 1398298269,
  "lat": 47.7141811,
  "lon": 13.8510213,
  "tags": {
    "amenity": "drinking_water",
    "drinking_water": "yes",
    "name": "Jungfrauenbründl",
    "natural": "spring"
  }
},
{
  "type": "node",
  "id": 1414405895,
  "lat": 47.5698788,
  "lon": 13.0749460,
  "tags": {
    "amenity": "drinking_water",
    "check_date": "2024-10-06"
  }
},
{
  "type": "node",
  "id": 1414595891,
  "lat": 47.5738411,
  "lon": 13.0616887,
  "tags": {
    "amenity": "drinking_water"
  }
},
{
  "type": "node",
  "id": 1415235995,
  "lat": 47.5464220,
  "lon": 13.0196285,
  "tags": {
    "amenity": "drinking_water"
  }
},
{
  "type": "node",
  "id": 1427746983,
  "lat": 47.5462417,
  "lon": 13.6099608,
  "tags": {
    "drinking_water": "yes",
    "natural": "spring"
  }
},
{
  "type": "node",
  "id": 1428428311,
  "lat": 47.3785851,
  "lon": 13.1083456,
  "tags": {
    "bottle": "yes",
    "drinking_water": "yes",
    "natural": "spring"
  }
},
{
  "type": "node",
  "id": 1428448082,
  "lat": 47.4062828,
  "lon": 13.1628749,
  "tags": {
    "amenity": "drinking_water",
    "name": "Kaltes Bründl"
  }
},
{
  "type": "node",
  "id": 1429379134,
  "lat": 47.6298714,
  "lon": 13.7983810,
  "tags": {
    "amenity": "drinking_water",
    "toilets:wheelchair": "no",
    "wheelchair": "no"
  }
},
{
  "type": "node",
  "id": 1489452593,
  "lat": 47.6607102,
  "lon": 13.4639171,
  "tags": {
    "amenity": "drinking_water"
  }
},
{
  "type": "node",
  "id": 1489587427,
  "lat": 47.5619453,
  "lon": 13.6493848,
  "tags": {
    "amenity": "drinking_water",
    "check_date": "2023-07-10",
    "fountain": "drinking",
    "wheelchair": "limited"
  }
},
{
  "type": "node",
  "id": 1562046969,
  "lat": 47.8659178,
  "lon": 13.1205936,
  "tags": {
    "amenity": "drinking_water",
    "check_date": "2023-07-04",
    "man_made": "water_tap",
    "source": "survey"
  }
},
{
  "type": "node",
  "id": 1568322902,
  "lat": 47.1704056,
  "lon": 13.1060393,
  "tags": {
    "amenity": "drinking_water",
    "artist_name": "Sepp Viehauser",
    "fountain": "drinking",
    "material": "metal",
    "name": "Weitmoserin"
  }
},
{
  "type": "node",
  "id": 1589502743,
  "lat": 47.9165327,
  "lon": 13.8046488,
  "tags": {
    "amenity": "drinking_water",
    "check_date": "2022-10-24",
    "fountain": "drinking"
  }
},
{
  "type": "node",
  "id": 1589502781,
  "lat": 47.9182638,
  "lon": 13.8067009,
  "tags": {
    "amenity": "drinking_water",
    "check_date": "2022-08-19",
    "fountain": "drinking",
    "name": "Heiliges Bründl"
  }
},
{
  "type": "node",
  "id": 1589527557,
  "lat": 47.6423039,
  "lon": 13.6174300,
  "tags": {
    "amenity": "drinking_water"
  }
},
{
  "type": "node",
  "id": 1600876252,
  "lat": 47.9832303,
  "lon": 13.8229735,
  "tags": {
    "access": "yes",
    "amenity": "toilets",
    "changing_table": "yes",
    "drinking_water": "yes",
    "fee": "no",
    "female": "yes",
    "male": "yes",
    "opening_hours": "Mo-Su 07:00-20:00",
    "toilets:disposal": "flush",
    "toilets:position": "seated;urinal",
    "toilets:wheelchair": "yes",
    "wheelchair": "yes"
  }
},
{
  "type": "node",
  "id": 1718108904,
  "lat": 47.3221059,
  "lon": 13.1619023,
  "tags": {
    "amenity": "drinking_water",
    "covered": "no",
    "fee": "no",
    "fountain": "drinking",
    "indoor": "no"
  }
},
{
  "type": "node",
  "id": 1751139318,
  "lat": 47.4617896,
  "lon": 13.0478098,
  "tags": {
    "amenity": "drinking_water"
  }
},
{
  "type": "node",
  "id": 1764339764,
  "lat": 47.8150926,
  "lon": 13.0349150,
  "tags": {
    "amenity": "drinking_water",
    "check_date": "2025-03-23"
  }
},
{
  "type": "node",
  "id": 1764344612,
  "lat": 47.8062182,
  "lon": 13.0434344,
  "tags": {
    "amenity": "drinking_water",
    "artwork_type": "sculpture",
    "fountain": "drinking",
    "name": "Marktfrau-Brunnen",
    "name:ru": "Фонтан Marktfrau",
    "source": "Salzburg AG",
    "toilets:wheelchair": "no",
    "tourism": "artwork",
    "wheelchair": "yes",
    "wikimedia_commons": "Category:Marktfrauenbrunnen (Salzburg)"
  }
},
{
  "type": "node",
  "id": 1768853610,
  "lat": 47.3492026,
  "lon": 13.2027092,
  "tags": {
    "amenity": "drinking_water",
    "check_date": "2023-04-19",
    "fountain": "bubbler"
  }
},
{
  "type": "node",
  "id": 1779743664,
  "lat": 47.8332302,
  "lon": 13.6567906,
  "tags": {
    "check_date": "2024-07-23",
    "drinking_water": "no",
    "fountain": "drinking",
    "man_made": "water_tap",
    "name": "Brunnen"
  }
},
{
  "type": "node",
  "id": 1796162930,
  "lat": 47.6584912,
  "lon": 13.2985179,
  "tags": {
    "amenity": "drinking_water"
  }
},
{
  "type": "node",
  "id": 1800405149,
  "lat": 47.6834783,
  "lon": 13.0933041,
  "tags": {
    "amenity": "drinking_water",
    "check_date": "2021-08-02",
    "fountain": "drinking",
    "wheelchair": "no"
  }
},
{
  "type": "node",
  "id": 1800533388,
  "lat": 47.6824506,
  "lon": 13.0952069,
  "tags": {
    "amenity": "drinking_water",
    "check_date": "2021-08-02",
    "fountain": "drinking",
    "name": "marmorbrunnen",
    "name:en": "small marble fountain",
    "wheelchair": "yes"
  }
},
{
  "type": "node",
  "id": 1803917225,
  "lat": 47.3778891,
  "lon": 13.2658048,
  "tags": {
    "amenity": "drinking_water",
    "name": "Gründeck Bründl"
  }
},
{
  "type": "node",
  "id": 1805222249,
  "lat": 47.3440528,
  "lon": 13.2212029,
  "tags": {
    "amenity": "drinking_water"
  }
},
{
  "type": "node",
  "id": 1805222485,
  "lat": 47.3456593,
  "lon": 13.2191988,
  "tags": {
    "amenity": "drinking_water"
  }
},
{
  "type": "node",
  "id": 1822743067,
  "lat": 47.4170250,
  "lon": 13.5992511,
  "tags": {
    "amenity": "drinking_water",
    "covered": "no",
    "fee": "no",
    "indoor": "no",
    "lit": "no",
    "natural": "spring",
    "operator": "Sonnenalm"
  }
},
{
  "type": "node",
  "id": 1826807074,
  "lat": 47.4659545,
  "lon": 13.1510658,
  "tags": {
    "amenity": "drinking_water",
    "name": "Goldbrünnl"
  }
},
{
  "type": "node",
  "id": 1829094905,
  "lat": 47.2375467,
  "lon": 13.1084005,
  "tags": {
    "amenity": "drinking_water",
    "fountain": "bubbler"
  }
},
{
  "type": "node",
  "id": 1845736600,
  "lat": 47.2910634,
  "lon": 13.2646197,
  "tags": {
    "amenity": "drinking_water"
  }
},
{
  "type": "node",
  "id": 1848139805,
  "lat": 47.6354223,
  "lon": 13.7865592,
  "tags": {
    "amenity": "drinking_water",
    "natural": "spring",
    "source": "GPS",
    "toilets:wheelchair": "no",
    "wheelchair": "no"
  }
},
{
  "type": "node",
  "id": 1848806080,
  "lat": 47.2564223,
  "lon": 13.2460180,
  "tags": {
    "amenity": "drinking_water"
  }
},
{
  "type": "node",
  "id": 1860489542,
  "lat": 47.3351076,
  "lon": 13.0357706,
  "tags": {
    "amenity": "drinking_water"
  }
},
{
  "type": "node",
  "id": 1868435653,
  "lat": 47.4131300,
  "lon": 13.6064210,
  "tags": {
    "amenity": "drinking_water",
    "name": "Quelle"
  }
},
{
  "type": "node",
  "id": 1868895694,
  "lat": 47.2623793,
  "lon": 13.1176127,
  "tags": {
    "amenity": "drinking_water"
  }
},
{
  "type": "node",
  "id": 1877581776,
  "lat": 47.1706380,
  "lon": 13.1017521,
  "tags": {
    "amenity": "drinking_water",
    "fountain": "bubbler"
  }
},
{
  "type": "node",
  "id": 1877884945,
  "lat": 47.1693841,
  "lon": 13.1124165,
  "tags": {
    "amenity": "drinking_water"
  }
},
{
  "type": "node",
  "id": 1883580871,
  "lat": 47.5385244,
  "lon": 13.1169504,
  "tags": {
    "amenity": "drinking_water"
  }
},
{
  "type": "node",
  "id": 1885665192,
  "lat": 47.3584806,
  "lon": 13.1138693,
  "tags": {
    "amenity": "drinking_water"
  }
},
{
  "type": "node",
  "id": 1894672331,
  "lat": 47.0387034,
  "lon": 13.5494605,
  "tags": {
    "amenity": "drinking_water",
    "check_date": "2022-08-02"
  }
},
{
  "type": "node",
  "id": 1940109422,
  "lat": 47.4237342,
  "lon": 13.1624905,
  "tags": {
    "amenity": "drinking_water"
  }
},
{
  "type": "node",
  "id": 1981960917,
  "lat": 47.9760330,
  "lon": 13.8167059,
  "tags": {
    "addr:country": "AT",
    "addr:postcode": "4663",
    "addr:street": "Reintalstraße",
    "amenity": "drinking_water"
  }
},
{
  "type": "node",
  "id": 2020207975,
  "lat": 47.7001229,
  "lon": 13.2452814,
  "tags": {
    "amenity": "drinking_water",
    "description": "brunnen bei jagdhuette"
  }
},
{
  "type": "node",
  "id": 2082167500,
  "lat": 47.3487266,
  "lon": 13.0753003,
  "tags": {
    "amenity": "drinking_water"
  }
},
{
  "type": "node",
  "id": 2085652799,
  "lat": 47.3213777,
  "lon": 13.1507788,
  "tags": {
    "access": "yes",
    "drinking_water": "yes",
    "man_made": "water_well",
    "name": "Marktbrunnen",
    "pump": "powered"
  }
},
{
  "type": "node",
  "id": 2153792247,
  "lat": 47.1472142,
  "lon": 13.6555115,
  "tags": {
    "amenity": "drinking_water"
  }
},
{
  "type": "node",
  "id": 2269746000,
  "lat": 47.8672312,
  "lon": 13.1224529,
  "tags": {
    "amenity": "drinking_water",
    "check_date": "2021-08-25"
  }
},
{
  "type": "node",
  "id": 2313067778,
  "lat": 47.4354287,
  "lon": 13.6845192,
  "tags": {
    "amenity": "drinking_water"
  }
},
{
  "type": "node",
  "id": 2315240443,
  "lat": 47.6290592,
  "lon": 13.7740556,
  "tags": {
    "amenity": "drinking_water",
    "toilets:wheelchair": "no",
    "wheelchair": "no"
  }
},
{
  "type": "node",
  "id": 2315240465,
  "lat": 47.6417448,
  "lon": 13.7690876,
  "tags": {
    "amenity": "drinking_water",
    "name": "Brunnen",
    "wheelchair": "limited"
  }
},
{
  "type": "node",
  "id": 2357643215,
  "lat": 47.8011137,
  "lon": 13.0363310,
  "tags": {
    "amenity": "drinking_water",
    "check_date": "2022-08-15",
    "man_made": "water_tap",
    "name": "Hohenweg-Brunnen",
    "source": "Stadt-Salzburg"
  }
},
{
  "type": "node",
  "id": 2357643218,
  "lat": 47.8045734,
  "lon": 13.0352611,
  "tags": {
    "amenity": "drinking_water",
    "check_date": "2022-08-05",
    "description": "Trinkwasserbrunnen",
    "fountain": "drinking",
    "name": "Monikapforte-Brunnen"
  }
},
{
  "type": "node",
  "id": 2377499299,
  "lat": 47.7995343,
  "lon": 13.0428364,
  "tags": {
    "access": "yes",
    "amenity": "drinking_water",
    "fee": "no",
    "fountain": "drinking",
    "name": "Marktbrunnen Universitätsplatz",
    "source": "Salzburg AG",
    "start_date": "1940",
    "wheelchair": "yes"
  }
},
{
  "type": "node",
  "id": 2377548981,
  "lat": 47.7964088,
  "lon": 13.0533558,
  "tags": {
    "amenity": "drinking_water",
    "fountain": "drinking",
    "name": "Entenbrunnen",
    "name:ru": "Питьевой фонтан Entenbrunnen",
    "source": "Stadt-Salzburg",
    "website": "https://de.wikipedia.org/wiki/Datei:Salzburg_-_Altstadt_-_Schanzlpark_Entenbrunnen_-_2019_08_14-1.jpg",
    "wikidata": "Q113496668"
  }
},
{
  "type": "node",
  "id": 2384464808,
  "lat": 47.5474396,
  "lon": 13.5157292,
  "tags": {
    "drinking_water": "yes",
    "natural": "spring"
  }
},
{
  "type": "node",
  "id": 2384618020,
  "lat": 47.7986691,
  "lon": 13.0762557,
  "tags": {
    "amenity": "drinking_water",
    "man_made": "water_tap"
  }
},
{
  "type": "node",
  "id": 2385548619,
  "lat": 47.2259291,
  "lon": 13.0867980,
  "tags": {
    "amenity": "drinking_water",
    "indoor": "no"
  }
},
{
  "type": "node",
  "id": 2385548863,
  "lat": 47.2458403,
  "lon": 13.0871773,
  "tags": {
    "amenity": "drinking_water",
    "indoor": "no"
  }
},
{
  "type": "node",
  "id": 2390892198,
  "lat": 47.2701087,
  "lon": 13.0417915,
  "tags": {
    "amenity": "drinking_water"
  }
},
{
  "type": "node",
  "id": 2390892207,
  "lat": 47.2702501,
  "lon": 13.0417899,
  "tags": {
    "amenity": "drinking_water"
  }
},
{
  "type": "node",
  "id": 2391255034,
  "lat": 47.2817327,
  "lon": 13.0557805,
  "tags": {
    "amenity": "drinking_water"
  }
},
{
  "type": "node",
  "id": 2393322485,
  "lat": 47.1986032,
  "lon": 13.6994284,
  "tags": {
    "amenity": "drinking_water",
    "source": "basemap.at ortophoto"
  }
},
{
  "type": "node",
  "id": 2405555492,
  "lat": 47.2434303,
  "lon": 13.0079040,
  "tags": {
    "amenity": "drinking_water"
  }
},
{
  "type": "node",
  "id": 2405807884,
  "lat": 47.2671884,
  "lon": 13.3582350,
  "tags": {
    "amenity": "drinking_water"
  }
},
{
  "type": "node",
  "id": 2405861750,
  "lat": 47.2753565,
  "lon": 13.3360318,
  "tags": {
    "amenity": "drinking_water"
  }
},
{
  "type": "node",
  "id": 2406369183,
  "lat": 47.2349253,
  "lon": 13.0064216,
  "tags": {
    "amenity": "drinking_water",
    "fountain": "drinking",
    "name": "Moosquell"
  }
},
{
  "type": "node",
  "id": 2412047476,
  "lat": 47.1429936,
  "lon": 13.0922918,
  "tags": {
    "amenity": "drinking_water",
    "indoor": "no"
  }
},
{
  "type": "node",
  "id": 2412544868,
  "lat": 47.4817126,
  "lon": 13.2368018,
  "tags": {
    "amenity": "drinking_water"
  }
},
{
  "type": "node",
  "id": 2415124915,
  "lat": 47.5696538,
  "lon": 13.8841949,
  "tags": {
    "amenity": "drinking_water"
  }
},
{
  "type": "node",
  "id": 2416065269,
  "lat": 47.5550154,
  "lon": 13.9312272,
  "tags": {
    "amenity": "fountain",
    "drinking_water": "yes",
    "heritage": "2",
    "heritage:operator": "bda",
    "historic": "memorial",
    "memorial": "war_memorial",
    "name": "Dorfbrunnen",
    "ref:at:bda": "103220",
    "wikidata": "Q37726980"
  }
},
{
  "type": "node",
  "id": 2417795920,
  "lat": 47.4459366,
  "lon": 13.6090356,
  "tags": {
    "amenity": "drinking_water"
  }
},
{
  "type": "node",
  "id": 2424555284,
  "lat": 47.2158155,
  "lon": 13.1922865,
  "tags": {
    "amenity": "drinking_water"
  }
},
{
  "type": "node",
  "id": 2424555292,
  "lat": 47.2143287,
  "lon": 13.1896580,
  "tags": {
    "amenity": "drinking_water"
  }
},
{
  "type": "node",
  "id": 2424555300,
  "lat": 47.2152268,
  "lon": 13.1895373,
  "tags": {
    "amenity": "drinking_water"
  }
},
{
  "type": "node",
  "id": 2427049490,
  "lat": 47.1841379,
  "lon": 13.2196217,
  "tags": {
    "amenity": "drinking_water"
  }
},
{
  "type": "node",
  "id": 2427179773,
  "lat": 47.2158991,
  "lon": 13.1778697,
  "tags": {
    "amenity": "drinking_water"
  }
},
{
  "type": "node",
  "id": 2430205513,
  "lat": 47.7446102,
  "lon": 13.3167224,
  "tags": {
    "amenity": "drinking_water",
    "source": "GPS"
  }
},
{
  "type": "node",
  "id": 2452029227,
  "lat": 47.8819300,
  "lon": 13.9835569,
  "tags": {
    "amenity": "drinking_water"
  }
},
{
  "type": "node",
  "id": 2456047978,
  "lat": 47.8035667,
  "lon": 13.0201757,
  "tags": {
    "access": "yes",
    "amenity": "toilets",
    "changing_table": "yes",
    "drinking_water": "yes",
    "fee": "no",
    "indoor": "yes",
    "unisex": "yes",
    "wheelchair": "yes"
  }
},
{
  "type": "node",
  "id": 2522147151,
  "lat": 47.8026826,
  "lon": 13.0387390,
  "tags": {
    "amenity": "fountain",
    "drinking_water": "yes",
    "drinking_water:legal": "yes"
  }
},
{
  "type": "node",
  "id": 2530008089,
  "lat": 47.8003340,
  "lon": 13.0400822,
  "tags": {
    "amenity": "drinking_water",
    "check_date": "2022-01-09",
    "fountain": "drinking",
    "name": "Blasius-Brunnen"
  }
},
{
  "type": "node",
  "id": 2533552224,
  "lat": 47.7951477,
  "lon": 13.0514023,
  "tags": {
    "amenity": "drinking_water",
    "check_date": "2023-08-25",
    "fountain": "drinking",
    "name": "Erhard-Brunnen",
    "source": "Stadt-Salzburg"
  }
},
{
  "type": "node",
  "id": 2533552227,
  "lat": 47.7965247,
  "lon": 13.0462276,
  "tags": {
    "amenity": "drinking_water",
    "check_date": "2022-02-05",
    "fountain": "drinking",
    "name": "Festungsgasse-Brunnen",
    "source": "Salzburg AG",
    "wheelchair": "yes"
  }
},
{
  "type": "node",
  "id": 2533552234,
  "lat": 47.8009547,
  "lon": 13.0425051,
  "tags": {
    "amenity": "drinking_water",
    "artwork_type": "fountain",
    "fotodato": "https://www.flickr.com/x/t/0092009/photos/114007113@N07/31136433285/",
    "fountain": "drinking",
    "material": "stone",
    "name": "Löwenkopf-Brunnen",
    "source": "survey",
    "tourism": "artwork",
    "website": "http://www.salzburg.com/wiki/index.php/L%C3%B6wenkopf-Brunnen_(Ferdinand-Hanusch-Platz)",
    "wheelchair": "yes"
  }
},
{
  "type": "node",
  "id": 2533555825,
  "lat": 47.8071070,
  "lon": 13.0456703,
  "tags": {
    "amenity": "drinking_water",
    "check_date": "2022-08-10",
    "fountain": "drinking",
    "name": "Marktbrunnen Grünmarkt",
    "source": "Salzburg AG"
  }
},
{
  "type": "node",
  "id": 2669846864,
  "lat": 47.8520730,
  "lon": 13.3523681,
  "tags": {
    "amenity": "drinking_water"
  }
},
{
  "type": "node",
  "id": 2685089976,
  "lat": 47.9857882,
  "lon": 13.4234424,
  "tags": {
    "amenity": "drinking_water",
    "bottle": "yes"
  }
},
{
  "type": "node",
  "id": 2706925091,
  "lat": 47.6535031,
  "lon": 13.8549459,
  "tags": {
    "drinking_water": "yes",
    "natural": "spring"
  }
},
{
  "type": "node",
  "id": 2771189495,
  "lat": 47.8788533,
  "lon": 13.0124376,
  "tags": {
    "amenity": "drinking_water"
  }
},
{
  "type": "node",
  "id": 2803139595,
  "lat": 47.3404283,
  "lon": 13.1368390,
  "tags": {
    "amenity": "drinking_water"
  }
},
{
  "type": "node",
  "id": 2878999293,
  "lat": 47.6336261,
  "lon": 13.0030336,
  "tags": {
    "amenity": "drinking_water",
    "check_date": "2023-05-26",
    "fountain": "drinking"
  }
},
{
  "type": "node",
  "id": 2878999417,
  "lat": 47.6334508,
  "lon": 13.0029105,
  "tags": {
    "amenity": "drinking_water",
    "check_date": "2023-05-26",
    "fountain": "drinking"
  }
},
{
  "type": "node",
  "id": 2907777603,
  "lat": 47.7704894,
  "lon": 13.5407053,
  "tags": {
    "amenity": "drinking_water"
  }
},
{
  "type": "node",
  "id": 2908236551,
  "lat": 47.6943930,
  "lon": 13.0459880,
  "tags": {
    "amenity": "drinking_water"
  }
},
{
  "type": "node",
  "id": 2953100202,
  "lat": 47.7131980,
  "lon": 13.6220994,
  "tags": {
    "amenity": "drinking_water",
    "check_date": "2021-09-08",
    "fountain": "bubbler"
  }
},
{
  "type": "node",
  "id": 2953120311,
  "lat": 47.5728346,
  "lon": 13.8430036,
  "tags": {
    "amenity": "drinking_water"
  }
},
{
  "type": "node",
  "id": 2980096192,
  "lat": 47.3931733,
  "lon": 13.6888787,
  "tags": {
    "amenity": "drinking_water"
  }
},
{
  "type": "node",
  "id": 2988500248,
  "lat": 47.6742309,
  "lon": 13.8246539,
  "tags": {
    "amenity": "drinking_water",
    "natural": "spring"
  }
},
{
  "type": "node",
  "id": 2992720965,
  "lat": 47.1628799,
  "lon": 13.1774577,
  "tags": {
    "amenity": "drinking_water"
  }
},
{
  "type": "node",
  "id": 2992845269,
  "lat": 47.1987866,
  "lon": 13.2045227,
  "tags": {
    "amenity": "drinking_water"
  }
},
{
  "type": "node",
  "id": 3005707082,
  "lat": 47.6809787,
  "lon": 13.9092229,
  "tags": {
    "amenity": "drinking_water",
    "drinking_water": "yes",
    "natural": "spring"
  }
},
{
  "type": "node",
  "id": 3009248020,
  "lat": 47.8685150,
  "lon": 13.8339935,
  "tags": {
    "drinking_water": "yes",
    "natural": "spring"
  }
},
{
  "type": "node",
  "id": 3013007020,
  "lat": 47.5633399,
  "lon": 13.6486425,
  "tags": {
    "amenity": "drinking_water"
  }
},
{
  "type": "node",
  "id": 3015395564,
  "lat": 47.6363035,
  "lon": 13.9032318,
  "tags": {
    "amenity": "drinking_water"
  }
},
{
  "type": "node",
  "id": 3035614452,
  "lat": 47.1396177,
  "lon": 13.0871000,
  "tags": {
    "amenity": "drinking_water",
    "name": "Gseng-Bründl"
  }
},
{
  "type": "node",
  "id": 3035615339,
  "lat": 47.1312424,
  "lon": 13.0434821,
  "tags": {
    "amenity": "drinking_water"
  }
},
{
  "type": "node",
  "id": 3039045912,
  "lat": 47.2113939,
  "lon": 13.0847616,
  "tags": {
    "amenity": "drinking_water"
  }
},
{
  "type": "node",
  "id": 3039271206,
  "lat": 47.2071783,
  "lon": 13.0645765,
  "tags": {
    "amenity": "drinking_water"
  }
},
{
  "type": "node",
  "id": 3043442420,
  "lat": 47.5431129,
  "lon": 13.6072380,
  "tags": {
    "drinking_water": "yes",
    "natural": "spring"
  }
},
{
  "type": "node",
  "id": 3051060717,
  "lat": 47.4740966,
  "lon": 13.3296611,
  "tags": {
    "amenity": "drinking_water",
    "name": "Frommer Hochalm"
  }
},
{
  "type": "node",
  "id": 3051787337,
  "lat": 47.4567103,
  "lon": 13.3302947,
  "tags": {
    "amenity": "drinking_water",
    "man_made": "water_well",
    "source": "survey"
  }
},
{
  "type": "node",
  "id": 3071715135,
  "lat": 47.7005066,
  "lon": 13.2941334,
  "tags": {
    "amenity": "drinking_water"
  }
},
{
  "type": "node",
  "id": 3071744733,
  "lat": 47.7020876,
  "lon": 13.2448715,
  "tags": {
    "amenity": "drinking_water"
  }
},
{
  "type": "node",
  "id": 3072633245,
  "lat": 47.2442172,
  "lon": 13.7454933,
  "tags": {
    "amenity": "drinking_water",
    "source": "survey"
  }
},
{
  "type": "node",
  "id": 3088763249,
  "lat": 47.8666926,
  "lon": 13.9060271,
  "tags": {
    "amenity": "drinking_water",
    "bottle": "yes"
  }
},
{
  "type": "node",
  "id": 3089025835,
  "lat": 47.8622141,
  "lon": 13.8440688,
  "tags": {
    "amenity": "drinking_water",
    "fountain": "drinking",
    "watering_place": "yes"
  }
},
{
  "type": "node",
  "id": 3089025848,
  "lat": 47.8624208,
  "lon": 13.8443833,
  "tags": {
    "access": "customers",
    "amenity": "toilets",
    "drinking_water": "yes",
    "fee": "no",
    "toilets:disposal": "flush",
    "toilets:position": "seated;urinal",
    "wheelchair": "no"
  }
},
{
  "type": "node",
  "id": 3133645624,
  "lat": 47.7672087,
  "lon": 13.1053343,
  "tags": {
    "drinking_water": "yes",
    "name": "Lettenbachquelle",
    "natural": "spring",
    "tourism": "attraction"
  }
},
{
  "type": "node",
  "id": 3239071193,
  "lat": 47.9681598,
  "lon": 13.0784633,
  "tags": {
    "access": "yes",
    "amenity": "drinking_water",
    "fee": "no",
    "man_made": "water_tap"
  }
},
{
  "type": "node",
  "id": 3270481671,
  "lat": 47.2888444,
  "lon": 13.0940058,
  "tags": {
    "amenity": "drinking_water"
  }
},
{
  "type": "node",
  "id": 3297212978,
  "lat": 47.9593625,
  "lon": 13.0733447,
  "tags": {
    "amenity": "drinking_water"
  }
},
{
  "type": "node",
  "id": 3336440307,
  "lat": 47.9961881,
  "lon": 13.0620243,
  "tags": {
    "access": "yes",
    "amenity": "toilets",
    "drinking_water": "yes",
    "fee": "no",
    "name": "Öffentliches WC, barrierefrei",
    "wheelchair": "yes"
  }
},
{
  "type": "node",
  "id": 3361882026,
  "lat": 47.9368788,
  "lon": 13.0778218,
  "tags": {
    "amenity": "fountain",
    "drinking_water": "yes",
    "image": "https://ssl.bwhosting.eu/system/data/files/84/00000087O00033984_lo.jpg",
    "name": "Pilgerbrunnen",
    "start_date": "2004"
  }
},
{
  "type": "node",
  "id": 3443761847,
  "lat": 47.3168063,
  "lon": 13.1438300,
  "tags": {
    "amenity": "drinking_water",
    "fee": "no",
    "man_made": "water_tap"
  }
},
{
  "type": "node",
  "id": 3443761848,
  "lat": 47.3172586,
  "lon": 13.1443663,
  "tags": {
    "amenity": "drinking_water",
    "check_date": "2022-06-04",
    "man_made": "water_tap"
  }
},
{
  "type": "node",
  "id": 3443761851,
  "lat": 47.3223157,
  "lon": 13.1631009,
  "tags": {
    "access": "yes",
    "amenity": "drinking_water",
    "fee": "no"
  }
},
{
  "type": "node",
  "id": 3484450171,
  "lat": 47.9529107,
  "lon": 13.1046234,
  "tags": {
    "drinking_water": "yes",
    "name": "Singerbründl",
    "natural": "spring"
  }
},
{
  "type": "node",
  "id": 3574522003,
  "lat": 47.8041488,
  "lon": 13.4878203,
  "tags": {
    "amenity": "drinking_water",
    "check_date": "2023-04-09",
    "man_made": "water_tap"
  }
},
{
  "type": "node",
  "id": 3579215021,
  "lat": 47.5751590,
  "lon": 13.0588184,
  "tags": {
    "amenity": "drinking_water"
  }
},
{
  "type": "node",
  "id": 3579215022,
  "lat": 47.5751860,
  "lon": 13.0587421,
  "tags": {
    "amenity": "drinking_water"
  }
},
{
  "type": "node",
  "id": 3644951416,
  "lat": 47.1365257,
  "lon": 13.6785552,
  "tags": {
    "amenity": "drinking_water",
    "check_date": "2025-07-19",
    "fountain": "bubbler"
  }
},
{
  "type": "node",
  "id": 3645165109,
  "lat": 47.1374664,
  "lon": 13.6782954,
  "tags": {
    "amenity": "drinking_water"
  }
},
{
  "type": "node",
  "id": 3647423259,
  "lat": 47.9144499,
  "lon": 13.8060953,
  "tags": {
    "access": "yes",
    "amenity": "toilets",
    "drinking_water": "yes",
    "fee": "no",
    "toilets:disposal": "flush",
    "unisex": "yes"
  }
},
{
  "type": "node",
  "id": 3648064053,
  "lat": 47.9192673,
  "lon": 13.8000385,
  "tags": {
    "amenity": "drinking_water",
    "check_date": "2023-07-02",
    "man_made": "water_tap"
  }
},
{
  "type": "node",
  "id": 3648064055,
  "lat": 47.9193055,
  "lon": 13.8002081,
  "tags": {
    "amenity": "drinking_water",
    "seasonal": "yes"
  }
},
{
  "type": "node",
  "id": 3649124198,
  "lat": 47.3796545,
  "lon": 13.8741833,
  "tags": {
    "amenity": "drinking_water"
  }
},
{
  "type": "node",
  "id": 3657132691,
  "lat": 47.9135789,
  "lon": 13.8069752,
  "tags": {
    "amenity": "drinking_water",
    "seasonal": "summer"
  }
},
{
  "type": "node",
  "id": 3666168130,
  "lat": 47.2252613,
  "lon": 13.2748601,
  "tags": {
    "drinking_water": "yes",
    "natural": "spring"
  }
},
{
  "type": "node",
  "id": 3678833099,
  "lat": 47.3031617,
  "lon": 13.2640866,
  "tags": {
    "drinking_water": "yes",
    "natural": "spring"
  }
},
{
  "type": "node",
  "id": 3684635925,
  "lat": 47.2392208,
  "lon": 13.1605378,
  "tags": {
    "amenity": "drinking_water"
  }
},
{
  "type": "node",
  "id": 3717254234,
  "lat": 47.5393517,
  "lon": 13.0312936,
  "tags": {
    "amenity": "drinking_water",
    "fee": "no",
    "natural": "spring"
  }
},
{
  "type": "node",
  "id": 3721726109,
  "lat": 47.2411202,
  "lon": 13.1064483,
  "tags": {
    "amenity": "drinking_water",
    "man_made": "water_tap"
  }
},
{
  "type": "node",
  "id": 3727599239,
  "lat": 47.4283643,
  "lon": 13.2238753,
  "tags": {
    "amenity": "drinking_water",
    "fountain": "drinking"
  }
},
{
  "type": "node",
  "id": 3740458525,
  "lat": 47.4898028,
  "lon": 13.6861441,
  "tags": {
    "drinking_water": "yes",
    "name": "Futbrünnl",
    "natural": "spring"
  }
},
{
  "type": "node",
  "id": 3748275793,
  "lat": 47.3359467,
  "lon": 13.3932644,
  "tags": {
    "amenity": "drinking_water"
  }
},
{
  "type": "node",
  "id": 3748459374,
  "lat": 47.6786649,
  "lon": 13.1234065,
  "tags": {
    "amenity": "drinking_water"
  }
},
{
  "type": "node",
  "id": 3748666027,
  "lat": 47.8623196,
  "lon": 13.8449412,
  "tags": {
    "amenity": "drinking_water",
    "natural": "spring",
    "watering_place": "yes"
  }
},
{
  "type": "node",
  "id": 3748687261,
  "lat": 47.8688698,
  "lon": 13.8155193,
  "tags": {
    "amenity": "drinking_water",
    "bottle": "yes",
    "description": "Nur im Sommer nutzbar.",
    "fountain": "bubbler",
    "seasonal": "summer"
  }
},
{
  "type": "node",
  "id": 3751264331,
  "lat": 47.4238519,
  "lon": 13.7804174,
  "tags": {
    "amenity": "drinking_water",
    "check_date": "2023-07-20",
    "fountain": "drinking"
  }
},
{
  "type": "node",
  "id": 3751264332,
  "lat": 47.4242949,
  "lon": 13.7812792,
  "tags": {
    "amenity": "drinking_water",
    "check_date": "2023-07-20",
    "fountain": "drinking"
  }
},
{
  "type": "node",
  "id": 3755387327,
  "lat": 47.0966597,
  "lon": 13.5996836,
  "tags": {
    "amenity": "drinking_water",
    "man_made": "water_tap"
  }
},
{
  "type": "node",
  "id": 3784639434,
  "lat": 47.9410408,
  "lon": 13.0115997,
  "tags": {
    "amenity": "drinking_water"
  }
},
{
  "type": "node",
  "id": 3857461703,
  "lat": 47.9769535,
  "lon": 13.1221554,
  "tags": {
    "drinking_water": "yes",
    "name": "Ramoosquelle",
    "natural": "spring"
  }
},
{
  "type": "node",
  "id": 3860728960,
  "lat": 47.5147799,
  "lon": 13.8083491,
  "tags": {
    "amenity": "watering_place",
    "description": "gefasste Quelle mit Viehtränke",
    "drinking_water": "yes",
    "ele": "1653",
    "natural": "spring",
    "source": "Forschungsberichte der ANISA 1, 2007, ISBN 978-3-901071-19-9"
  }
},
{
  "type": "node",
  "id": 3890420212,
  "lat": 47.1314540,
  "lon": 13.0617005,
  "tags": {
    "amenity": "drinking_water",
    "name": "Franz Brunnen"
  }
},
{
  "type": "node",
  "id": 3896967868,
  "lat": 47.9632539,
  "lon": 13.1504348,
  "tags": {
    "drinking_water": "yes",
    "natural": "spring"
  }
},
{
  "type": "node",
  "id": 3896967885,
  "lat": 47.9635551,
  "lon": 13.1492211,
  "tags": {
    "drinking_water": "yes",
    "natural": "spring"
  }
},
{
  "type": "node",
  "id": 3896967890,
  "lat": 47.9635917,
  "lon": 13.1491293,
  "tags": {
    "drinking_water": "yes",
    "natural": "spring"
  }
},
{
  "type": "node",
  "id": 3896967901,
  "lat": 47.9636470,
  "lon": 13.1491097,
  "tags": {
    "drinking_water": "yes",
    "natural": "spring"
  }
},
{
  "type": "node",
  "id": 3896967902,
  "lat": 47.9636338,
  "lon": 13.1491737,
  "tags": {
    "drinking_water": "yes",
    "natural": "spring"
  }
},
{
  "type": "node",
  "id": 3896967905,
  "lat": 47.9636747,
  "lon": 13.1489759,
  "tags": {
    "drinking_water": "yes",
    "natural": "spring"
  }
},
{
  "type": "node",
  "id": 3896967906,
  "lat": 47.9636627,
  "lon": 13.1490337,
  "tags": {
    "drinking_water": "yes",
    "natural": "spring"
  }
},
{
  "type": "node",
  "id": 3896967910,
  "lat": 47.9636845,
  "lon": 13.1489284,
  "tags": {
    "drinking_water": "yes",
    "natural": "spring"
  }
},
{
  "type": "node",
  "id": 3897933512,
  "lat": 47.3391418,
  "lon": 13.2086197,
  "tags": {
    "amenity": "drinking_water",
    "check_date": "2024-07-08",
    "designation": "Kneipbrunnen",
    "natural": "spring",
    "source": "47.33895, 13.20855"
  }
},
{
  "type": "node",
  "id": 3912398083,
  "lat": 47.2422601,
  "lon": 13.0059288,
  "tags": {
    "amenity": "drinking_water",
    "check_date": "2024-01-15",
    "fountain": "drinking"
  }
},
{
  "type": "node",
  "id": 3920398114,
  "lat": 47.5331540,
  "lon": 13.3801171,
  "tags": {
    "drinking_water": "yes",
    "name": "Maxwassal",
    "natural": "spring",
    "since": "2011"
  }
},
{
  "type": "node",
  "id": 3995921828,
  "lat": 47.3228076,
  "lon": 13.0466027,
  "tags": {
    "amenity": "drinking_water"
  }
},
{
  "type": "node",
  "id": 4043345344,
  "lat": 47.6411071,
  "lon": 13.9062712,
  "tags": {
    "drinking_water": "yes",
    "drinking_water:legal": "yes",
    "man_made": "water_well"
  }
},
{
  "type": "node",
  "id": 4058563148,
  "lat": 47.9177525,
  "lon": 13.8036452,
  "tags": {
    "amenity": "drinking_water",
    "bottle": "yes",
    "description": "Trinkwasser aus dem hl. Bründl",
    "fountain": "drinking",
    "wheelchair": "yes"
  }
},
{
  "type": "node",
  "id": 4070470394,
  "lat": 47.4154707,
  "lon": 13.2430427,
  "tags": {
    "amenity": "drinking_water"
  }
},
{
  "type": "node",
  "id": 4093218253,
  "lat": 47.9462253,
  "lon": 13.1664538,
  "tags": {
    "drinking_water": "yes",
    "natural": "spring"
  }
},
{
  "type": "node",
  "id": 4143978574,
  "lat": 47.3017718,
  "lon": 13.1611956,
  "tags": {
    "amenity": "drinking_water"
  }
},
{
  "type": "node",
  "id": 4143979769,
  "lat": 47.9524948,
  "lon": 13.0177575,
  "tags": {
    "drinking_water": "yes",
    "natural": "spring"
  }
},
{
  "type": "node",
  "id": 4143979777,
  "lat": 47.9527140,
  "lon": 13.0176073,
  "tags": {
    "drinking_water": "yes",
    "natural": "spring"
  }
},
{
  "type": "node",
  "id": 4144439692,
  "lat": 47.5522087,
  "lon": 13.6487173,
  "tags": {
    "amenity": "drinking_water"
  }
},
{
  "type": "node",
  "id": 4165975691,
  "lat": 47.9809686,
  "lon": 13.0217821,
  "tags": {
    "drinking_water": "yes",
    "natural": "spring"
  }
},
{
  "type": "node",
  "id": 4165975704,
  "lat": 47.9859390,
  "lon": 13.0287639,
  "tags": {
    "drinking_water": "yes",
    "natural": "spring"
  }
},
{
  "type": "node",
  "id": 4171267093,
  "lat": 47.7871861,
  "lon": 13.4724062,
  "tags": {
    "amenity": "drinking_water"
  }
},
{
  "type": "node",
  "id": 4171884776,
  "lat": 47.7818742,
  "lon": 13.4883667,
  "tags": {
    "amenity": "drinking_water",
    "description": "1893",
    "name": "Magdalenenquelle",
    "natural": "spring"
  }
},
{
  "type": "node",
  "id": 4177054461,
  "lat": 47.5994839,
  "lon": 13.4232754,
  "tags": {
    "amenity": "drinking_water"
  }
},
{
  "type": "node",
  "id": 4199089733,
  "lat": 47.5974083,
  "lon": 13.1675282,
  "tags": {
    "amenity": "drinking_water"
  }
},
{
  "type": "node",
  "id": 4209354222,
  "lat": 47.4611403,
  "lon": 13.1294784,
  "tags": {
    "amenity": "drinking_water"
  }
},
{
  "type": "node",
  "id": 4244708776,
  "lat": 47.1778488,
  "lon": 13.7114459,
  "tags": {
    "amenity": "drinking_water",
    "check_date": "2023-07-24",
    "fountain": "drinking",
    "source": "survey"
  }
},
{
  "type": "node",
  "id": 4273131153,
  "lat": 47.4897927,
  "lon": 13.1883489,
  "tags": {
    "amenity": "drinking_water"
  }
},
{
  "type": "node",
  "id": 4283733046,
  "lat": 47.1986078,
  "lon": 13.7409091,
  "tags": {
    "amenity": "drinking_water",
    "source": "survey"
  }
},
{
  "type": "node",
  "id": 4309864182,
  "lat": 47.2236346,
  "lon": 13.7629139,
  "tags": {
    "access": "yes",
    "amenity": "drinking_water",
    "source": "survey"
  }
},
{
  "type": "node",
  "id": 4327222545,
  "lat": 47.6567855,
  "lon": 13.1459809,
  "tags": {
    "amenity": "drinking_water",
    "bottle": "yes",
    "fee": "no",
    "wheelchair": "no"
  }
},
{
  "type": "node",
  "id": 4356549322,
  "lat": 47.5986235,
  "lon": 13.1689789,
  "tags": {
    "amenity": "drinking_water"
  }
},
{
  "type": "node",
  "id": 4357884069,
  "lat": 47.3716140,
  "lon": 13.0793189,
  "tags": {
    "amenity": "drinking_water"
  }
},
{
  "type": "node",
  "id": 4357975102,
  "lat": 47.4215366,
  "lon": 13.1417064,
  "tags": {
    "amenity": "drinking_water",
    "check_date": "2023-10-23",
    "fountain": "drinking",
    "source": "survey"
  }
},
{
  "type": "node",
  "id": 4360277023,
  "lat": 47.2352353,
  "lon": 13.0264263,
  "tags": {
    "amenity": "drinking_water",
    "name": "Auskehr-Sonnseiten-Quelle"
  }
},
{
  "type": "node",
  "id": 4370027166,
  "lat": 47.6269236,
  "lon": 13.7592762,
  "tags": {
    "amenity": "drinking_water",
    "name": "Brunnen"
  }
},
{
  "type": "node",
  "id": 4370840907,
  "lat": 47.4581433,
  "lon": 13.2055153,
  "tags": {
    "amenity": "drinking_water"
  }
},
{
  "type": "node",
  "id": 4373634919,
  "lat": 47.6800986,
  "lon": 13.8667161,
  "tags": {
    "drinking_water": "yes",
    "natural": "spring"
  }
},
{
  "type": "node",
  "id": 4397945950,
  "lat": 47.1333258,
  "lon": 13.6774850,
  "tags": {
    "amenity": "drinking_water"
  }
},
{
  "type": "node",
  "id": 4405599965,
  "lat": 47.0959893,
  "lon": 13.6356226,
  "tags": {
    "amenity": "drinking_water",
    "check_date": "2023-06-03",
    "drinking_water": "yes",
    "fountain": "drinking"
  }
},
{
  "type": "node",
  "id": 4411499056,
  "lat": 47.5852612,
  "lon": 13.4534102,
  "tags": {
    "amenity": "drinking_water",
    "source": "survey"
  }
},
{
  "type": "node",
  "id": 4411499057,
  "lat": 47.5867753,
  "lon": 13.8316936,
  "tags": {
    "amenity": "drinking_water",
    "source": "survey"
  }
},
{
  "type": "node",
  "id": 4411499070,
  "lat": 47.8814723,
  "lon": 13.5228761,
  "tags": {
    "amenity": "drinking_water",
    "note": "not tested",
    "source": "survey"
  }
},
{
  "type": "node",
  "id": 4418843083,
  "lat": 47.6670783,
  "lon": 13.9158189,
  "tags": {
    "drinking_water": "yes",
    "natural": "spring"
  }
},
{
  "type": "node",
  "id": 4418843084,
  "lat": 47.6882674,
  "lon": 13.9404682,
  "tags": {
    "drinking_water": "yes",
    "natural": "spring"
  }
},
{
  "type": "node",
  "id": 4450905102,
  "lat": 47.6700524,
  "lon": 13.7413691,
  "tags": {
    "amenity": "drinking_water"
  }
},
{
  "type": "node",
  "id": 4482504640,
  "lat": 47.1865299,
  "lon": 13.8564645,
  "tags": {
    "amenity": "drinking_water",
    "image": "File:Prebersee Rupertusquelle.jpg",
    "name": "Rupertus-Quelle",
    "source": "https://www.marterl.at/index.php?id=54&no_cache=1&oid=19401"
  }
},
{
  "type": "node",
  "id": 4519382580,
  "lat": 47.7983048,
  "lon": 13.0483383,
  "tags": {
    "amenity": "drinking_water",
    "artwork_type": "fountain",
    "fountain": "drinking",
    "name": "Brunnen Kaigasse",
    "tourism": "artwork",
    "wheelchair": "limited"
  }
},
{
  "type": "node",
  "id": 4529280379,
  "lat": 47.6293911,
  "lon": 13.0012885,
  "tags": {
    "amenity": "fountain",
    "fountain": "drinking"
  }
},
{
  "type": "node",
  "id": 4571678316,
  "lat": 47.5641448,
  "lon": 13.3467869,
  "tags": {
    "amenity": "drinking_water",
    "drinking_water": "yes",
    "name": "Friedhofbrunnen"
  }
},
{
  "type": "node",
  "id": 4665317289,
  "lat": 47.9176749,
  "lon": 13.8040460,
  "tags": {
    "amenity": "fountain",
    "drinking_water": "yes",
    "name": "Sandsteinbrunnen am Klosterplatz",
    "name:de": "Sandsteinbrunnen am Klosterplatz"
  }
},
{
  "type": "node",
  "id": 4665747184,
  "lat": 47.9193956,
  "lon": 13.8090442,
  "tags": {
    "amenity": "drinking_water",
    "fountain": "drinking",
    "indoor": "no"
  }
},
{
  "type": "node",
  "id": 4692356617,
  "lat": 47.6767541,
  "lon": 13.1270578,
  "tags": {
    "amenity": "drinking_water"
  }
},
{
  "type": "node",
  "id": 4734312984,
  "lat": 47.7545235,
  "lon": 13.4897293,
  "tags": {
    "amenity": "drinking_water"
  }
},
{
  "type": "node",
  "id": 4926126422,
  "lat": 47.7931295,
  "lon": 13.8060266,
  "tags": {
    "bottle": "yes",
    "drinking_water": "yes",
    "natural": "spring"
  }
},
{
  "type": "node",
  "id": 4937491462,
  "lat": 47.7941704,
  "lon": 13.0878109,
  "tags": {
    "amenity": "drinking_water"
  }
},
{
  "type": "node",
  "id": 4946984998,
  "lat": 47.2316657,
  "lon": 13.0267454,
  "tags": {
    "amenity": "drinking_water"
  }
},
{
  "type": "node",
  "id": 4960257182,
  "lat": 47.1916163,
  "lon": 13.0092039,
  "tags": {
    "amenity": "drinking_water",
    "name": "Erlen-Quelle"
  }
},
{
  "type": "node",
  "id": 4960257767,
  "lat": 47.1961196,
  "lon": 13.0032312,
  "tags": {
    "amenity": "drinking_water",
    "name": "Klausbrunn"
  }
},
{
  "type": "node",
  "id": 4960479058,
  "lat": 47.1076632,
  "lon": 13.0002439,
  "tags": {
    "amenity": "drinking_water",
    "ele": "1398",
    "name": "Rauriser Urquell"
  }
},
{
  "type": "node",
  "id": 4964019746,
  "lat": 47.5664271,
  "lon": 13.6298321,
  "tags": {
    "amenity": "drinking_water"
  }
},
{
  "type": "node",
  "id": 4964021170,
  "lat": 47.5754598,
  "lon": 13.6241456,
  "tags": {
    "amenity": "drinking_water"
  }
},
{
  "type": "node",
  "id": 4964024761,
  "lat": 47.5686438,
  "lon": 13.6265857,
  "tags": {
    "amenity": "drinking_water"
  }
},
{
  "type": "node",
  "id": 4965561979,
  "lat": 47.7101604,
  "lon": 13.6735117,
  "tags": {
    "amenity": "drinking_water"
  }
},
{
  "type": "node",
  "id": 4967585322,
  "lat": 47.4321544,
  "lon": 13.7880735,
  "tags": {
    "amenity": "drinking_water"
  }
},
{
  "type": "node",
  "id": 4974986911,
  "lat": 47.6869811,
  "lon": 13.9665581,
  "tags": {
    "access": "yes",
    "amenity": "drinking_water",
    "bottle": "yes",
    "fee": "no",
    "wheelchair": "no"
  }
},
{
  "type": "node",
  "id": 5002138724,
  "lat": 47.8648643,
  "lon": 13.4415527,
  "tags": {
    "amenity": "drinking_water"
  }
},
{
  "type": "node",
  "id": 5002138821,
  "lat": 47.8699238,
  "lon": 13.4200843,
  "tags": {
    "amenity": "drinking_water"
  }
},
{
  "type": "node",
  "id": 5007764536,
  "lat": 47.6256717,
  "lon": 13.6186614,
  "tags": {
    "amenity": "drinking_water"
  }
},
{
  "type": "node",
  "id": 5007766821,
  "lat": 47.6416436,
  "lon": 13.6136164,
  "tags": {
    "access": "yes",
    "amenity": "toilets",
    "changing_table": "yes",
    "drinking_water": "yes",
    "fee": "no",
    "wheelchair": "yes"
  }
},
{
  "type": "node",
  "id": 5018746098,
  "lat": 47.1416705,
  "lon": 13.8054330,
  "tags": {
    "amenity": "drinking_water"
  }
},
{
  "type": "node",
  "id": 5023019171,
  "lat": 47.7131602,
  "lon": 13.6222720,
  "tags": {
    "amenity": "drinking_water"
  }
},
{
  "type": "node",
  "id": 5032911818,
  "lat": 47.8116761,
  "lon": 13.6557004,
  "tags": {
    "description": "Höllengebirgs-Quelle",
    "drinking_water": "yes",
    "ele": "1560",
    "natural": "spring"
  }
},
{
  "type": "node",
  "id": 5033066078,
  "lat": 47.6215988,
  "lon": 13.2670762,
  "tags": {
    "amenity": "drinking_water"
  }
},
{
  "type": "node",
  "id": 5035454883,
  "lat": 47.7780052,
  "lon": 13.2330417,
  "tags": {
    "amenity": "drinking_water"
  }
},
{
  "type": "node",
  "id": 5037527151,
  "lat": 47.3950393,
  "lon": 13.0146099,
  "tags": {
    "amenity": "drinking_water"
  }
},
{
  "type": "node",
  "id": 5056268217,
  "lat": 47.3149431,
  "lon": 13.1900927,
  "tags": {
    "amenity": "drinking_water",
    "fee": "no"
  }
},
{
  "type": "node",
  "id": 5064522722,
  "lat": 47.1180126,
  "lon": 13.5773069,
  "tags": {
    "amenity": "drinking_water",
    "check_date": "2024-06-08",
    "man_made": "water_tap"
  }
},
{
  "type": "node",
  "id": 5073330437,
  "lat": 47.5600069,
  "lon": 13.2918020,
  "tags": {
    "amenity": "drinking_water"
  }
},
{
  "type": "node",
  "id": 5083115296,
  "lat": 47.7116331,
  "lon": 13.7338002,
  "tags": {
    "access": "yes",
    "amenity": "drinking_water",
    "opening_hours": "24/7"
  }
},
{
  "type": "node",
  "id": 5100184813,
  "lat": 47.6277085,
  "lon": 13.6147548,
  "tags": {
    "amenity": "drinking_water"
  }
},
{
  "type": "node",
  "id": 5107559455,
  "lat": 47.0853401,
  "lon": 13.1080642,
  "tags": {
    "drinking_water": "yes",
    "name": "Evian",
    "natural": "spring"
  }
},
{
  "type": "node",
  "id": 5148276736,
  "lat": 47.9589465,
  "lon": 13.2094050,
  "tags": {
    "drinking_water": "yes",
    "inscription": "Gespendet vom Köstendorfer Seniorenbund und der Gemeinde Köstendorf;Segnung am 24.September 2007",
    "name": "Sankt Johanns Bründl",
    "natural": "spring"
  }
},
{
  "type": "node",
  "id": 5166051131,
  "lat": 47.4839665,
  "lon": 13.2908332,
  "tags": {
    "amenity": "drinking_water"
  }
},
{
  "type": "node",
  "id": 5167470375,
  "lat": 47.6976809,
  "lon": 13.4276191,
  "tags": {
    "amenity": "drinking_water"
  }
},
{
  "type": "node",
  "id": 5167470376,
  "lat": 47.6864546,
  "lon": 13.4433021,
  "tags": {
    "access": "private",
    "amenity": "drinking_water"
  }
},
{
  "type": "node",
  "id": 5167470377,
  "lat": 47.6894672,
  "lon": 13.4552077,
  "tags": {
    "amenity": "drinking_water"
  }
},
{
  "type": "node",
  "id": 5167470378,
  "lat": 47.6954054,
  "lon": 13.4585484,
  "tags": {
    "amenity": "drinking_water",
    "fountain": "drinking"
  }
},
{
  "type": "node",
  "id": 5176895098,
  "lat": 47.6666126,
  "lon": 13.7226554,
  "tags": {
    "amenity": "drinking_water"
  }
},
{
  "type": "node",
  "id": 5268222669,
  "lat": 47.8414030,
  "lon": 13.2529244,
  "tags": {
    "access": "yes",
    "amenity": "toilets",
    "drinking_water": "yes",
    "fee": "no",
    "female": "yes",
    "male": "yes",
    "toilets:disposal": "flush",
    "toilets:position": "seated;urinal",
    "wheelchair": "yes"
  }
},
{
  "type": "node",
  "id": 5375622339,
  "lat": 47.8123262,
  "lon": 13.0037662,
  "tags": {
    "amenity": "drinking_water",
    "check_date": "2024-07-15"
  }
},
{
  "type": "node",
  "id": 5572186700,
  "lat": 47.8375299,
  "lon": 13.0153235,
  "tags": {
    "amenity": "drinking_water",
    "fee": "no",
    "fountain": "bubbler"
  }
},
{
  "type": "node",
  "id": 5609846890,
  "lat": 47.7881680,
  "lon": 13.2233401,
  "tags": {
    "drinking_water": "yes",
    "natural": "spring"
  }
},
{
  "type": "node",
  "id": 5615768241,
  "lat": 47.3375906,
  "lon": 13.1987620,
  "tags": {
    "access": "yes",
    "amenity": "drinking_water",
    "bottle": "yes",
    "fee": "no",
    "fountain": "drinking"
  }
},
{
  "type": "node",
  "id": 5615778156,
  "lat": 47.6208321,
  "lon": 13.1430548,
  "tags": {
    "amenity": "drinking_water",
    "fountain": "drinking"
  }
},
{
  "type": "node",
  "id": 5679242504,
  "lat": 47.7167746,
  "lon": 13.3953535,
  "tags": {
    "amenity": "drinking_water"
  }
},
{
  "type": "node",
  "id": 5679242505,
  "lat": 47.7157222,
  "lon": 13.3922556,
  "tags": {
    "amenity": "drinking_water"
  }
},
{
  "type": "node",
  "id": 5679242506,
  "lat": 47.7154626,
  "lon": 13.3911981,
  "tags": {
    "amenity": "drinking_water"
  }
},
{
  "type": "node",
  "id": 5705160018,
  "lat": 47.7888866,
  "lon": 13.0430003,
  "tags": {
    "amenity": "drinking_water",
    "check_date": "2024-08-15",
    "man_made": "water_tap"
  }
},
{
  "type": "node",
  "id": 5711207117,
  "lat": 47.7793230,
  "lon": 13.6674251,
  "tags": {
    "drinking_water": "yes",
    "intermittent": "no",
    "natural": "spring"
  }
},
{
  "type": "node",
  "id": 5739026027,
  "lat": 47.1111003,
  "lon": 13.1505269,
  "tags": {
    "amenity": "drinking_water",
    "name": "Trinkwasser Graukogel Alm"
  }
},
{
  "type": "node",
  "id": 5740657269,
  "lat": 47.8054055,
  "lon": 13.0396143,
  "tags": {
    "amenity": "drinking_water",
    "check_date": "2022-02-05",
    "fountain": "drinking"
  }
},
{
  "type": "node",
  "id": 5743335423,
  "lat": 47.8134035,
  "lon": 13.0446846,
  "tags": {
    "amenity": "drinking_water",
    "fountain": "bubbler"
  }
},
{
  "type": "node",
  "id": 5825164779,
  "lat": 47.2672372,
  "lon": 13.2048292,
  "tags": {
    "amenity": "drinking_water"
  }
},
{
  "type": "node",
  "id": 5834093413,
  "lat": 47.7963388,
  "lon": 13.0459890,
  "tags": {
    "amenity": "drinking_water",
    "fountain": "bubbler",
    "layer": "-1"
  }
},
{
  "type": "node",
  "id": 5834093414,
  "lat": 47.7952430,
  "lon": 13.0478835,
  "tags": {
    "amenity": "drinking_water",
    "artwork_type": "stone",
    "check_date": "2024-10-30",
    "tourism": "artwork"
  }
},
{
  "type": "node",
  "id": 5858494825,
  "lat": 47.9504633,
  "lon": 13.0249164,
  "tags": {
    "amenity": "drinking_water"
  }
},
{
  "type": "node",
  "id": 5863766474,
  "lat": 47.4671640,
  "lon": 13.2641428,
  "tags": {
    "access": "yes",
    "amenity": "drinking_water",
    "fee": "no"
  }
},
{
  "type": "node",
  "id": 5875350688,
  "lat": 47.7977147,
  "lon": 13.6173163,
  "tags": {
    "amenity": "drinking_water",
    "name": "Leberbrunn",
    "natural": "spring"
  }
},
{
  "type": "node",
  "id": 5875351125,
  "lat": 47.7951390,
  "lon": 13.6162448,
  "tags": {
    "amenity": "drinking_water",
    "natural": "spring"
  }
},
{
  "type": "node",
  "id": 5876114920,
  "lat": 47.3782911,
  "lon": 13.5517680,
  "tags": {
    "amenity": "drinking_water",
    "fee": "no",
    "opening_hours": "24/7"
  }
},
{
  "type": "node",
  "id": 5893704226,
  "lat": 47.8820823,
  "lon": 13.0096841,
  "tags": {
    "amenity": "drinking_water"
  }
},
{
  "type": "node",
  "id": 5904514649,
  "lat": 47.7764502,
  "lon": 13.3862632,
  "tags": {
    "amenity": "drinking_water",
    "name": "Brunnen"
  }
},
{
  "type": "node",
  "id": 5916243134,
  "lat": 47.8560668,
  "lon": 13.3498762,
  "tags": {
    "amenity": "drinking_water"
  }
},
{
  "type": "node",
  "id": 5916289351,
  "lat": 47.8528299,
  "lon": 13.3485411,
  "tags": {
    "amenity": "drinking_water"
  }
},
{
  "type": "node",
  "id": 5964110433,
  "lat": 47.4945143,
  "lon": 13.0066989,
  "tags": {
    "amenity": "drinking_water",
    "check_date": "2022-07-18",
    "fountain": "drinking"
  }
},
{
  "type": "node",
  "id": 6008294349,
  "lat": 47.6912651,
  "lon": 13.6616146,
  "tags": {
    "amenity": "drinking_water"
  }
},
{
  "type": "node",
  "id": 6036987648,
  "lat": 47.8337971,
  "lon": 13.5133030,
  "tags": {
    "access": "private",
    "amenity": "drinking_water",
    "source": "survey 11.2018 and basemap orthfoto"
  }
},
{
  "type": "node",
  "id": 6089769143,
  "lat": 47.2749997,
  "lon": 13.2133050,
  "tags": {
    "amenity": "drinking_water"
  }
},
{
  "type": "node",
  "id": 6089769144,
  "lat": 47.2801666,
  "lon": 13.2193298,
  "tags": {
    "amenity": "drinking_water"
  }
},
{
  "type": "node",
  "id": 6089774838,
  "lat": 47.1677259,
  "lon": 13.2591904,
  "tags": {
    "amenity": "drinking_water",
    "fountain": "drinking"
  }
},
{
  "type": "node",
  "id": 6089774839,
  "lat": 47.1759280,
  "lon": 13.2346452,
  "tags": {
    "amenity": "drinking_water"
  }
},
{
  "type": "node",
  "id": 6089780408,
  "lat": 47.2377110,
  "lon": 13.2013599,
  "tags": {
    "amenity": "drinking_water"
  }
},
{
  "type": "node",
  "id": 6163250974,
  "lat": 47.2434315,
  "lon": 13.1993442,
  "tags": {
    "amenity": "drinking_water"
  }
},
{
  "type": "node",
  "id": 6163479327,
  "lat": 47.2416791,
  "lon": 13.1951934,
  "tags": {
    "amenity": "drinking_water"
  }
},
{
  "type": "node",
  "id": 6177186710,
  "lat": 47.6762336,
  "lon": 13.1277917,
  "tags": {
    "amenity": "drinking_water"
  }
},
{
  "type": "node",
  "id": 6203363101,
  "lat": 47.7629171,
  "lon": 13.5639310,
  "tags": {
    "drinking_water": "yes",
    "natural": "spring"
  }
},
{
  "type": "node",
  "id": 6230265731,
  "lat": 47.8139966,
  "lon": 13.5797989,
  "tags": {
    "drinking_water": "yes",
    "name": "Brunnen Bergrettungshütte",
    "natural": "spring"
  }
},
{
  "type": "node",
  "id": 6275156832,
  "lat": 47.1974226,
  "lon": 13.0777410,
  "tags": {
    "drinking_water": "yes",
    "name": "S' Woidbründl",
    "natural": "spring",
    "pump": "no"
  }
},
{
  "type": "node",
  "id": 6308208624,
  "lat": 47.6560939,
  "lon": 13.1273068,
  "tags": {
    "amenity": "drinking_water"
  }
},
{
  "type": "node",
  "id": 6314630162,
  "lat": 47.7943813,
  "lon": 13.5383736,
  "tags": {
    "amenity": "fountain",
    "drinking_water": "yes"
  }
},
{
  "type": "node",
  "id": 6428008489,
  "lat": 47.5538885,
  "lon": 13.8537919,
  "tags": {
    "amenity": "drinking_water"
  }
},
{
  "type": "node",
  "id": 6443531161,
  "lat": 47.9184757,
  "lon": 13.6064683,
  "tags": {
    "amenity": "drinking_water",
    "name": "Schobesberger Bründl"
  }
},
{
  "type": "node",
  "id": 6482434403,
  "lat": 47.6847002,
  "lon": 13.6470633,
  "tags": {
    "amenity": "drinking_water",
    "fee": "no"
  }
},
{
  "type": "node",
  "id": 6483573873,
  "lat": 47.2778782,
  "lon": 13.2144550,
  "tags": {
    "access": "yes",
    "amenity": "drinking_water",
    "fee": "no",
    "wheelchair": "no"
  }
},
{
  "type": "node",
  "id": 6511484385,
  "lat": 47.3684583,
  "lon": 13.2102069,
  "tags": {
    "amenity": "drinking_water"
  }
},
{
  "type": "node",
  "id": 6516344149,
  "lat": 47.8007035,
  "lon": 13.5433105,
  "tags": {
    "amenity": "drinking_water",
    "drinking_water": "yes",
    "name": "Wolterquelle",
    "natural": "spring",
    "note": "named after Charlotte Wolter (1834-1897), Burgschauspielerin",
    "source": "Franz Hauzenberger, Höllengebirge, 2.Aufl. 2005, atterwiki.at"
  }
},
{
  "type": "node",
  "id": 6520743328,
  "lat": 47.8270733,
  "lon": 13.9343038,
  "tags": {
    "amenity": "drinking_water",
    "fee": "no"
  }
},
{
  "type": "node",
  "id": 6625018160,
  "lat": 47.6427094,
  "lon": 13.7589658,
  "tags": {
    "amenity": "drinking_water",
    "source": "survey"
  }
},
{
  "type": "node",
  "id": 6625023439,
  "lat": 47.6366858,
  "lon": 13.7625459,
  "tags": {
    "amenity": "drinking_water",
    "description": "Brunnen vor Feuerwehr",
    "source": "survey"
  }
},
{
  "type": "node",
  "id": 6633152973,
  "lat": 47.7318479,
  "lon": 13.7954566,
  "tags": {
    "drinking_water": "yes",
    "fixme": "genaue Position",
    "name": "Eiblbründl",
    "natural": "spring",
    "wikidata": "Q21862525"
  }
},
{
  "type": "node",
  "id": 6633266265,
  "lat": 47.8824916,
  "lon": 13.4313552,
  "tags": {
    "amenity": "drinking_water",
    "man_made": "water_tap"
  }
},
{
  "type": "node",
  "id": 6651398486,
  "lat": 47.7111884,
  "lon": 13.0406811,
  "tags": {
    "amenity": "drinking_water"
  }
},
{
  "type": "node",
  "id": 6653488348,
  "lat": 47.6266487,
  "lon": 13.8386160,
  "tags": {
    "amenity": "drinking_water"
  }
},
{
  "type": "node",
  "id": 6654941869,
  "lat": 47.1927764,
  "lon": 13.7101503,
  "tags": {
    "amenity": "drinking_water",
    "natural": "spring"
  }
},
{
  "type": "node",
  "id": 6700671101,
  "lat": 47.6496263,
  "lon": 13.7551725,
  "tags": {
    "amenity": "drinking_water"
  }
},
{
  "type": "node",
  "id": 6719066895,
  "lat": 47.6284461,
  "lon": 13.7739691,
  "tags": {
    "access": "customers",
    "amenity": "drinking_water"
  }
},
{
  "type": "node",
  "id": 6719076905,
  "lat": 47.6286056,
  "lon": 13.7737685,
  "tags": {
    "access": "customers",
    "amenity": "toilets",
    "drinking_water": "yes",
    "female": "yes",
    "male": "yes",
    "toilets:disposal": "flush"
  }
},
{
  "type": "node",
  "id": 6733146763,
  "lat": 47.7189008,
  "lon": 13.4824003,
  "tags": {
    "amenity": "drinking_water",
    "fountain": "drinking"
  }
},
{
  "type": "node",
  "id": 6733151687,
  "lat": 47.7324293,
  "lon": 13.4640885,
  "tags": {
    "amenity": "drinking_water"
  }
},
{
  "type": "node",
  "id": 6738626836,
  "lat": 47.2710521,
  "lon": 13.7261892,
  "tags": {
    "amenity": "drinking_water"
  }
},
{
  "type": "node",
  "id": 6773918354,
  "lat": 47.8238042,
  "lon": 13.6524694,
  "tags": {
    "drinking_water": "yes",
    "intermittent": "yes",
    "natural": "spring"
  }
},
{
  "type": "node",
  "id": 6779230610,
  "lat": 47.5307036,
  "lon": 13.9954948,
  "tags": {
    "drinking_water": "yes",
    "natural": "spring"
  }
},
{
  "type": "node",
  "id": 6794757074,
  "lat": 47.6418124,
  "lon": 13.8880000,
  "tags": {
    "access": "yes",
    "amenity": "drinking_water",
    "fee": "no",
    "wheelchair": "no"
  }
},
{
  "type": "node",
  "id": 6795568307,
  "lat": 47.6165732,
  "lon": 13.0899938,
  "tags": {
    "amenity": "drinking_water"
  }
},
{
  "type": "node",
  "id": 6795568308,
  "lat": 47.6342764,
  "lon": 13.1032787,
  "tags": {
    "amenity": "drinking_water",
    "fountain": "drinking"
  }
},
{
  "type": "node",
  "id": 7076851358,
  "lat": 47.7106495,
  "lon": 13.0176723,
  "tags": {
    "drinking_water": "yes",
    "intermittent": "no",
    "natural": "spring"
  }
},
{
  "type": "node",
  "id": 7097768996,
  "lat": 47.9763391,
  "lon": 13.8006028,
  "tags": {
    "drinking_water": "yes",
    "name": "Lourdes Quelle",
    "natural": "spring"
  }
},
{
  "type": "node",
  "id": 7102065504,
  "lat": 47.7520341,
  "lon": 13.6519296,
  "tags": {
    "amenity": "drinking_water"
  }
},
{
  "type": "node",
  "id": 7142339107,
  "lat": 47.7922756,
  "lon": 13.4844628,
  "tags": {
    "amenity": "fountain",
    "drinking_water": "yes",
    "indoor": "yes",
    "name": "Kaiserbrunnen"
  }
},
{
  "type": "node",
  "id": 7142339119,
  "lat": 47.7912684,
  "lon": 13.4849145,
  "tags": {
    "description": "Quelle am unteren Rand der Felswand",
    "drinking_water": "yes",
    "natural": "spring"
  }
},
{
  "type": "node",
  "id": 7239041815,
  "lat": 47.9967678,
  "lon": 13.6084289,
  "tags": {
    "amenity": "drinking_water"
  }
},
{
  "type": "node",
  "id": 7255139463,
  "lat": 47.7277886,
  "lon": 13.7721670,
  "tags": {
    "drinking_water": "yes",
    "name": "Nestlerquelle",
    "natural": "spring",
    "source": "basemap.at"
  }
},
{
  "type": "node",
  "id": 7335242143,
  "lat": 47.7780487,
  "lon": 13.4878877,
  "tags": {
    "amenity": "drinking_water"
  }
},
{
  "type": "node",
  "id": 7342744869,
  "lat": 47.3287829,
  "lon": 13.1263018,
  "tags": {
    "amenity": "drinking_water"
  }
},
{
  "type": "node",
  "id": 7372573078,
  "lat": 47.9009004,
  "lon": 13.5693543,
  "tags": {
    "amenity": "drinking_water",
    "man_made": "water_tap"
  }
},
{
  "type": "node",
  "id": 7385847724,
  "lat": 47.8051744,
  "lon": 13.4888774,
  "tags": {
    "amenity": "drinking_water",
    "description": "Trog"
  }
},
{
  "type": "node",
  "id": 7406453719,
  "lat": 47.8058702,
  "lon": 13.1196693,
  "tags": {
    "amenity": "drinking_water",
    "description": "little water"
  }
},
{
  "type": "node",
  "id": 7415647387,
  "lat": 47.9373732,
  "lon": 13.7315566,
  "tags": {
    "amenity": "drinking_water"
  }
},
{
  "type": "node",
  "id": 7417351159,
  "lat": 47.8699946,
  "lon": 13.2502843,
  "tags": {
    "amenity": "drinking_water"
  }
},
{
  "type": "node",
  "id": 7417599892,
  "lat": 47.7421261,
  "lon": 13.0335191,
  "tags": {
    "access": "yes",
    "amenity": "drinking_water",
    "bottle": "yes",
    "drinking_water": "yes",
    "fee": "no",
    "wheelchair": "yes"
  }
},
{
  "type": "node",
  "id": 7417599893,
  "lat": 47.7274525,
  "lon": 13.0364186,
  "tags": {
    "amenity": "fountain",
    "drinking_water": "yes",
    "man_made": "water_tap"
  }
},
{
  "type": "node",
  "id": 7417926104,
  "lat": 47.2832860,
  "lon": 13.5655436,
  "tags": {
    "drinking_water": "yes",
    "natural": "spring"
  }
},
{
  "type": "node",
  "id": 7444968364,
  "lat": 47.3291003,
  "lon": 13.1537286,
  "tags": {
    "access": "yes",
    "amenity": "drinking_water",
    "drinking_water": "yes",
    "fee": "no",
    "lit": "no",
    "name": "Goldbründl",
    "wheelchair": "yes"
  }
},
{
  "type": "node",
  "id": 7553896054,
  "lat": 47.8034536,
  "lon": 13.0201287,
  "tags": {
    "amenity": "drinking_water",
    "fee": "no"
  }
},
{
  "type": "node",
  "id": 7555736984,
  "lat": 47.3285854,
  "lon": 13.0320652,
  "tags": {
    "amenity": "drinking_water"
  }
},
{
  "type": "node",
  "id": 7579842654,
  "lat": 47.1573386,
  "lon": 13.6679265,
  "tags": {
    "amenity": "drinking_water"
  }
},
{
  "type": "node",
  "id": 7579871569,
  "lat": 47.1507256,
  "lon": 13.6685924,
  "tags": {
    "amenity": "drinking_water"
  }
},
{
  "type": "node",
  "id": 7579904189,
  "lat": 47.1593212,
  "lon": 13.6658277,
  "tags": {
    "amenity": "drinking_water"
  }
},
{
  "type": "node",
  "id": 7617631165,
  "lat": 47.7315436,
  "lon": 13.1281035,
  "tags": {
    "access": "yes",
    "amenity": "drinking_water",
    "bottle": "yes",
    "fee": "no",
    "wheelchair": "limited"
  }
},
{
  "type": "node",
  "id": 7620499681,
  "lat": 47.4999798,
  "lon": 13.5524297,
  "tags": {
    "amenity": "drinking_water"
  }
},
{
  "type": "node",
  "id": 7649422024,
  "lat": 47.3028841,
  "lon": 13.7038457,
  "tags": {
    "drinking_water": "yes",
    "natural": "spring"
  }
},
{
  "type": "node",
  "id": 7679632362,
  "lat": 47.3513206,
  "lon": 13.2172568,
  "tags": {
    "amenity": "drinking_water",
    "source": "survey 07.2020 and basemap Ortphoto"
  }
},
{
  "type": "node",
  "id": 7681001970,
  "lat": 47.6927584,
  "lon": 13.9024727,
  "tags": {
    "drinking_water": "yes",
    "natural": "spring"
  }
},
{
  "type": "node",
  "id": 7692994170,
  "lat": 47.7962930,
  "lon": 13.3032730,
  "tags": {
    "access": "yes",
    "amenity": "drinking_water",
    "fee": "no",
    "fountain": "bubbler",
    "wheelchair": "yes"
  }
},
{
  "type": "node",
  "id": 7704749106,
  "lat": 47.8229011,
  "lon": 13.8425307,
  "tags": {
    "amenity": "drinking_water"
  }
},
{
  "type": "node",
  "id": 7728846199,
  "lat": 47.2326663,
  "lon": 13.0011034,
  "tags": {
    "amenity": "drinking_water",
    "drinking_water": "yes",
    "fountain": "drinking",
    "name": "Neudegg Quelle"
  }
},
{
  "type": "node",
  "id": 7733398620,
  "lat": 47.7150709,
  "lon": 13.0088081,
  "tags": {
    "amenity": "drinking_water",
    "fountain": "drinking"
  }
},
{
  "type": "node",
  "id": 7751936186,
  "lat": 47.7952819,
  "lon": 13.0478752,
  "tags": {
    "amenity": "drinking_water",
    "fountain": "bottle_refill"
  }
},
{
  "type": "node",
  "id": 7765349085,
  "lat": 47.8001823,
  "lon": 13.0436057,
  "tags": {
    "amenity": "drinking_water",
    "fountain": "bubbler"
  }
},
{
  "type": "node",
  "id": 7765498785,
  "lat": 47.8007834,
  "lon": 13.0423222,
  "tags": {
    "amenity": "drinking_water",
    "fountain": "bubbler"
  }
},
{
  "type": "node",
  "id": 7769033685,
  "lat": 47.9164389,
  "lon": 13.5391797,
  "tags": {
    "amenity": "toilets",
    "bottle": "yes",
    "drinking_water": "yes",
    "fee": "no",
    "toilets:access": "public",
    "toilets:disposal": "flush",
    "toilets:handwashing": "yes",
    "toilets:paper_supplied": "yes",
    "toilets:wheelchair": "limited"
  }
},
{
  "type": "node",
  "id": 7793750917,
  "lat": 47.9091847,
  "lon": 13.5116616,
  "tags": {
    "amenity": "drinking_water"
  }
},
{
  "type": "node",
  "id": 7817949416,
  "lat": 47.8368500,
  "lon": 13.5455913,
  "tags": {
    "access": "customers",
    "amenity": "drinking_water",
    "level": "0",
    "man_made": "water_tap"
  }
},
{
  "type": "node",
  "id": 7832544904,
  "lat": 47.4044193,
  "lon": 13.7247966,
  "tags": {
    "amenity": "drinking_water"
  }
},
{
  "type": "node",
  "id": 7840908668,
  "lat": 47.9486089,
  "lon": 13.5952022,
  "tags": {
    "access": "yes",
    "amenity": "toilets",
    "bottle": "yes",
    "changing_table": "no",
    "drinking_water": "yes",
    "fee": "no",
    "female": "yes",
    "male": "yes",
    "note": "nur geöffnet, wenn der Imbiss offen hat",
    "toilets:disposal": "flush",
    "toilets:handwashing": "yes",
    "toilets:position": "seated;urinal",
    "wheelchair": "yes"
  }
},
{
  "type": "node",
  "id": 7840908669,
  "lat": 47.9451540,
  "lon": 13.5943177,
  "tags": {
    "access": "yes",
    "amenity": "toilets",
    "changing_table": "yes",
    "drinking_water": "yes",
    "fee": "no",
    "toilets:disposal": "flush",
    "toilets:handwashing": "yes",
    "toilets:position": "seated;urinal",
    "toilets:wheelchair": "yes",
    "unisex": "yes",
    "wheelchair": "yes"
  }
},
{
  "type": "node",
  "id": 7851327845,
  "lat": 47.5526955,
  "lon": 13.6478198,
  "tags": {
    "access": "customers",
    "amenity": "toilets",
    "changing_table": "no",
    "drinking_water": "yes",
    "fee": "no",
    "female": "yes",
    "male": "yes",
    "opening_hours": "24/7",
    "toilets:disposal": "flush",
    "toilets:position": "seated;urinal",
    "wheelchair": "limited"
  }
},
{
  "type": "node",
  "id": 7857393022,
  "lat": 47.8805224,
  "lon": 13.9656889,
  "tags": {
    "amenity": "drinking_water",
    "wheelchair": "no"
  }
},
{
  "type": "node",
  "id": 7857459798,
  "lat": 47.5835698,
  "lon": 13.5295591,
  "tags": {
    "amenity": "drinking_water",
    "bottle": "yes",
    "drinking_water": "yes"
  }
},
{
  "type": "node",
  "id": 7858850983,
  "lat": 47.5581083,
  "lon": 13.5453030,
  "tags": {
    "amenity": "drinking_water",
    "bottle": "yes",
    "drinking_water": "yes"
  }
},
{
  "type": "node",
  "id": 7866515588,
  "lat": 47.6355060,
  "lon": 13.7187893,
  "tags": {
    "amenity": "drinking_water",
    "fee": "no"
  }
},
{
  "type": "node",
  "id": 7867519312,
  "lat": 47.1192244,
  "lon": 13.1130326,
  "tags": {
    "amenity": "drinking_water"
  }
},
{
  "type": "node",
  "id": 7867545690,
  "lat": 47.0784000,
  "lon": 13.1150833,
  "tags": {
    "amenity": "drinking_water"
  }
},
{
  "type": "node",
  "id": 7899376940,
  "lat": 47.7654401,
  "lon": 13.3678261,
  "tags": {
    "amenity": "drinking_water",
    "fountain": "drinking"
  }
},
{
  "type": "node",
  "id": 7904597138,
  "lat": 47.7675438,
  "lon": 13.3502854,
  "tags": {
    "access": "yes",
    "amenity": "drinking_water",
    "fee": "no",
    "name": "Annenquelle"
  }
},
{
  "type": "node",
  "id": 7925831008,
  "lat": 47.6784254,
  "lon": 13.0395760,
  "tags": {
    "amenity": "drinking_water",
    "bottle": "yes"
  }
},
{
  "type": "node",
  "id": 7977591823,
  "lat": 47.8093943,
  "lon": 13.4903486,
  "tags": {
    "amenity": "drinking_water",
    "bottle": "yes",
    "fountain": "drinking"
  }
},
{
  "type": "node",
  "id": 7977591824,
  "lat": 47.8096060,
  "lon": 13.4900951,
  "tags": {
    "amenity": "drinking_water",
    "bottle": "yes",
    "fountain": "drinking"
  }
},
{
  "type": "node",
  "id": 8039758583,
  "lat": 47.8214684,
  "lon": 13.5852103,
  "tags": {
    "destroyed:natural": "spring",
    "drinking_water": "yes",
    "name": "Gaisalmbründl",
    "note": "07/2021: I didn't find any water despite I was intensively searching in the scrubs. I am disabling the water source, please enable with corrected location on any info about placement."
  }
},
{
  "type": "node",
  "id": 8174462171,
  "lat": 47.4698472,
  "lon": 13.8496050,
  "tags": {
    "amenity": "drinking_water"
  }
},
{
  "type": "node",
  "id": 8180729671,
  "lat": 47.8764200,
  "lon": 13.5125720,
  "tags": {
    "amenity": "drinking_water",
    "bottle": "yes"
  }
},
{
  "type": "node",
  "id": 8198596181,
  "lat": 47.2425297,
  "lon": 13.0606294,
  "tags": {
    "amenity": "drinking_water",
    "man_made": "water_well"
  }
},
{
  "type": "node",
  "id": 8198649965,
  "lat": 47.6612267,
  "lon": 13.3024685,
  "tags": {
    "amenity": "drinking_water",
    "man_made": "water_well"
  }
},
{
  "type": "node",
  "id": 8199953325,
  "lat": 47.9603030,
  "lon": 13.1160289,
  "tags": {
    "amenity": "drinking_water",
    "name": "Gräbler Bründl",
    "natural": "spring"
  }
},
{
  "type": "node",
  "id": 8483634816,
  "lat": 47.4601592,
  "lon": 13.9919438,
  "tags": {
    "amenity": "drinking_water",
    "fountain": "drinking"
  }
},
{
  "type": "node",
  "id": 8734657193,
  "lat": 47.4033618,
  "lon": 13.0179333,
  "tags": {
    "amenity": "drinking_water",
    "bottle": "yes",
    "wheelchair": "no"
  }
},
{
  "type": "node",
  "id": 8736080040,
  "lat": 47.7464197,
  "lon": 13.5038278,
  "tags": {
    "amenity": "drinking_water"
  }
},
{
  "type": "node",
  "id": 8737347433,
  "lat": 47.5587542,
  "lon": 13.6468586,
  "tags": {
    "amenity": "drinking_water",
    "man_made": "water_tap"
  }
},
{
  "type": "node",
  "id": 8779246197,
  "lat": 47.8985548,
  "lon": 13.3917734,
  "tags": {
    "amenity": "drinking_water"
  }
},
{
  "type": "node",
  "id": 8794514643,
  "lat": 47.9966434,
  "lon": 13.3694829,
  "tags": {
    "amenity": "drinking_water"
  }
},
{
  "type": "node",
  "id": 8811945557,
  "lat": 47.7729119,
  "lon": 13.1861118,
  "tags": {
    "drinking_water": "yes",
    "image": "https://drive.google.com/drive/u/1/folders/1kE_lQnNE41OFauf538Hzw8IQ6dRaXvNz",
    "name": "Quelle Familie Ziller",
    "natural": "spring"
  }
},
{
  "type": "node",
  "id": 8812301475,
  "lat": 47.7193082,
  "lon": 13.8497432,
  "tags": {
    "drinking_water": "yes",
    "name": "Jägerbründl",
    "natural": "spring"
  }
},
{
  "type": "node",
  "id": 8831513492,
  "lat": 47.7977215,
  "lon": 13.5315775,
  "tags": {
    "access": "yes",
    "amenity": "toilets",
    "drinking_water": "yes",
    "fee": "no",
    "female": "yes",
    "male": "yes",
    "toilets:disposal": "flush",
    "toilets:position": "seated;urinal",
    "wheelchair": "yes"
  }
},
{
  "type": "node",
  "id": 8860545123,
  "lat": 47.8009848,
  "lon": 13.0394966,
  "tags": {
    "amenity": "drinking_water",
    "fee": "no"
  }
},
{
  "type": "node",
  "id": 8886993953,
  "lat": 47.3820798,
  "lon": 13.6506236,
  "tags": {
    "amenity": "drinking_water",
    "fee": "no"
  }
},
{
  "type": "node",
  "id": 8887468408,
  "lat": 47.4102694,
  "lon": 13.7663684,
  "tags": {
    "amenity": "fountain",
    "drinking_water": "yes"
  }
},
{
  "type": "node",
  "id": 8889690598,
  "lat": 47.9228178,
  "lon": 13.5129358,
  "tags": {
    "access": "yes",
    "amenity": "drinking_water",
    "bottle": "yes",
    "fee": "no",
    "wheelchair": "no"
  }
},
{
  "type": "node",
  "id": 8895041754,
  "lat": 47.9516028,
  "lon": 13.6720841,
  "tags": {
    "access": "yes",
    "amenity": "toilets",
    "changing_table": "no",
    "drinking_water": "yes",
    "fee": "no",
    "toilets:disposal": "flush",
    "toilets:handwashing": "yes",
    "toilets:position": "seated;urinal",
    "unisex": "yes",
    "wheelchair": "yes"
  }
},
{
  "type": "node",
  "id": 8895041756,
  "lat": 47.9518517,
  "lon": 13.6724144,
  "tags": {
    "amenity": "drinking_water",
    "bottle": "yes",
    "lit": "yes",
    "wheelchair": "limited"
  }
},
{
  "type": "node",
  "id": 8914075916,
  "lat": 47.4169352,
  "lon": 13.2080696,
  "tags": {
    "amenity": "drinking_water",
    "bottle": "yes"
  }
},
{
  "type": "node",
  "id": 8930323277,
  "lat": 47.1145274,
  "lon": 13.1353315,
  "tags": {
    "amenity": "drinking_water",
    "fountain": "bubbler",
    "indoor": "no",
    "operator": "VGW",
    "start_date": "1996"
  }
},
{
  "type": "node",
  "id": 8944001629,
  "lat": 47.0509875,
  "lon": 13.6034212,
  "tags": {
    "amenity": "drinking_water"
  }
},
{
  "type": "node",
  "id": 8944001630,
  "lat": 47.0539937,
  "lon": 13.6017019,
  "tags": {
    "amenity": "drinking_water",
    "name": "Marienbündl"
  }
},
{
  "type": "node",
  "id": 8946508747,
  "lat": 47.8309279,
  "lon": 13.5490474,
  "tags": {
    "drinking_water": "yes",
    "man_made": "water_tap"
  }
},
{
  "type": "node",
  "id": 8948659091,
  "lat": 47.5341360,
  "lon": 13.3493061,
  "tags": {
    "drinking_water": "yes",
    "natural": "spring"
  }
},
{
  "type": "node",
  "id": 8954121463,
  "lat": 47.9492285,
  "lon": 13.5626533,
  "tags": {
    "amenity": "drinking_water"
  }
},
{
  "type": "node",
  "id": 8969022831,
  "lat": 47.7898562,
  "lon": 13.4514131,
  "tags": {
    "amenity": "drinking_water"
  }
},
{
  "type": "node",
  "id": 8977838203,
  "lat": 47.6932796,
  "lon": 13.8703523,
  "tags": {
    "access": "unknown",
    "amenity": "drinking_water",
    "fee": "no"
  }
},
{
  "type": "node",
  "id": 8983070983,
  "lat": 47.5326141,
  "lon": 13.4972390,
  "tags": {
    "amenity": "drinking_water",
    "fountain": "drinking"
  }
},
{
  "type": "node",
  "id": 8983784740,
  "lat": 47.6091752,
  "lon": 13.7836424,
  "tags": {
    "amenity": "drinking_water",
    "man_made": "water_tap"
  }
},
{
  "type": "node",
  "id": 9006174605,
  "lat": 47.1484275,
  "lon": 13.3783299,
  "tags": {
    "amenity": "drinking_water"
  }
},
{
  "type": "node",
  "id": 9007025160,
  "lat": 47.0326384,
  "lon": 13.7509808,
  "tags": {
    "access": "yes",
    "amenity": "drinking_water",
    "bottle": "yes",
    "description": "Kleine Quelle mit kaltem Trinkwasser gleich neben der Straße.",
    "description:en": "Small spring with cold drinking water, right next to the road.",
    "drinking_water": "yes",
    "fee": "no",
    "opening_hours": "24/7",
    "watering_place": "yes",
    "wheelchair": "no"
  }
},
{
  "type": "node",
  "id": 9020241830,
  "lat": 47.5663434,
  "lon": 13.6501767,
  "tags": {
    "amenity": "drinking_water",
    "man_made": "water_tap"
  }
},
{
  "type": "node",
  "id": 9034552642,
  "lat": 47.5349075,
  "lon": 13.7154678,
  "tags": {
    "amenity": "drinking_water"
  }
},
{
  "type": "node",
  "id": 9038715681,
  "lat": 47.1345219,
  "lon": 13.1541262,
  "tags": {
    "amenity": "drinking_water"
  }
},
{
  "type": "node",
  "id": 9057087034,
  "lat": 47.0966540,
  "lon": 13.5996768,
  "tags": {
    "amenity": "fountain",
    "drinking_water": "yes",
    "name": "Radler-Brunnen"
  }
},
{
  "type": "node",
  "id": 9063711767,
  "lat": 47.5623828,
  "lon": 13.6970087,
  "tags": {
    "drinking_water": "yes",
    "natural": "spring"
  }
},
{
  "type": "node",
  "id": 9074459198,
  "lat": 47.8429110,
  "lon": 13.9275178,
  "tags": {
    "amenity": "drinking_water"
  }
},
{
  "type": "node",
  "id": 9076890315,
  "lat": 47.5705128,
  "lon": 13.8899474,
  "tags": {
    "amenity": "drinking_water",
    "bottle": "yes"
  }
},
{
  "type": "node",
  "id": 9076890316,
  "lat": 47.5680932,
  "lon": 13.8765251,
  "tags": {
    "amenity": "drinking_water",
    "bottle": "yes"
  }
},
{
  "type": "node",
  "id": 9101498705,
  "lat": 47.8762100,
  "lon": 13.8139518,
  "tags": {
    "amenity": "drinking_water",
    "bottle": "yes",
    "fountain": "drinking"
  }
},
{
  "type": "node",
  "id": 9114831180,
  "lat": 47.1020896,
  "lon": 13.7403788,
  "tags": {
    "amenity": "drinking_water"
  }
},
{
  "type": "node",
  "id": 9165418397,
  "lat": 47.8696683,
  "lon": 13.4030494,
  "tags": {
    "amenity": "drinking_water"
  }
},
{
  "type": "node",
  "id": 9178085075,
  "lat": 47.7966520,
  "lon": 13.0519556,
  "tags": {
    "access": "yes",
    "amenity": "drinking_water",
    "bottle": "yes",
    "covered": "no",
    "fee": "no",
    "fountain": "drinking",
    "indoor": "no",
    "level": "0",
    "lit": "no",
    "operator": "Stadt Salzburg",
    "water_source": "fresh water",
    "wheelchair": "yes"
  }
},
{
  "type": "node",
  "id": 9183929078,
  "lat": 47.4350257,
  "lon": 13.9376505,
  "tags": {
    "amenity": "drinking_water",
    "man_made": "water_tap"
  }
},
{
  "type": "node",
  "id": 9215837029,
  "lat": 47.6430941,
  "lon": 13.2041242,
  "tags": {
    "amenity": "fountain",
    "bottle": "yes",
    "drinking_water": "yes"
  }
},
{
  "type": "node",
  "id": 9257741625,
  "lat": 47.7676348,
  "lon": 13.7018468,
  "tags": {
    "amenity": "drinking_water",
    "bottle": "yes",
    "fee": "no"
  }
},
{
  "type": "node",
  "id": 9572807581,
  "lat": 47.7983331,
  "lon": 13.1314194,
  "tags": {
    "amenity": "drinking_water"
  }
},
{
  "type": "node",
  "id": 9576105233,
  "lat": 47.1825248,
  "lon": 13.4341602,
  "tags": {
    "amenity": "drinking_water",
    "fountain": "bubbler"
  }
},
{
  "type": "node",
  "id": 9620749860,
  "lat": 47.9237967,
  "lon": 13.6524855,
  "tags": {
    "amenity": "drinking_water",
    "name": "Almgraben Bründl"
  }
},
{
  "type": "node",
  "id": 9634255602,
  "lat": 47.5446085,
  "lon": 13.6197960,
  "tags": {
    "drinking_water": "yes",
    "intermittent": "yes",
    "natural": "spring"
  }
},
{
  "type": "node",
  "id": 9672042885,
  "lat": 47.7869101,
  "lon": 13.3397541,
  "tags": {
    "amenity": "drinking_water",
    "bottle": "no",
    "wheelchair": "no"
  }
},
{
  "type": "node",
  "id": 9690474623,
  "lat": 47.1326314,
  "lon": 13.6693184,
  "tags": {
    "amenity": "drinking_water"
  }
},
{
  "type": "node",
  "id": 9764779107,
  "lat": 47.9376031,
  "lon": 13.4102860,
  "tags": {
    "amenity": "drinking_water",
    "bottle": "yes"
  }
},
{
  "type": "node",
  "id": 9774913878,
  "lat": 47.8543105,
  "lon": 13.3524428,
  "tags": {
    "amenity": "drinking_water"
  }
},
{
  "type": "node",
  "id": 9797173141,
  "lat": 47.9207354,
  "lon": 13.5009949,
  "tags": {
    "amenity": "drinking_water",
    "fee": "no",
    "man_made": "water_tap",
    "wheelchair": "yes"
  }
},
{
  "type": "node",
  "id": 9816964830,
  "lat": 47.8910412,
  "lon": 13.6582765,
  "tags": {
    "drinking_water": "yes",
    "natural": "spring"
  }
},
{
  "type": "node",
  "id": 9830723152,
  "lat": 47.8335673,
  "lon": 13.0768562,
  "tags": {
    "amenity": "drinking_water",
    "fountain": "drinking"
  }
},
{
  "type": "node",
  "id": 9831418554,
  "lat": 47.3216169,
  "lon": 13.1603886,
  "tags": {
    "amenity": "drinking_water",
    "covered": "no",
    "fee": "no",
    "indoor": "no"
  }
},
{
  "type": "node",
  "id": 9893142034,
  "lat": 47.4145709,
  "lon": 13.2179622,
  "tags": {
    "amenity": "drinking_water",
    "name": "Maximilianbrunnen"
  }
},
{
  "type": "node",
  "id": 9894637278,
  "lat": 47.7992327,
  "lon": 13.4215942,
  "tags": {
    "amenity": "drinking_water"
  }
},
{
  "type": "node",
  "id": 9895058781,
  "lat": 47.5309772,
  "lon": 13.4818741,
  "tags": {
    "amenity": "drinking_water"
  }
},
{
  "type": "node",
  "id": 9909628476,
  "lat": 47.2846827,
  "lon": 13.3104367,
  "tags": {
    "amenity": "drinking_water"
  }
},
{
  "type": "node",
  "id": 9933980850,
  "lat": 47.5641310,
  "lon": 13.0291820,
  "tags": {
    "amenity": "drinking_water"
  }
},
{
  "type": "node",
  "id": 9933986162,
  "lat": 47.5725597,
  "lon": 13.0103158,
  "tags": {
    "amenity": "drinking_water"
  }
},
{
  "type": "node",
  "id": 9938740983,
  "lat": 47.6548315,
  "lon": 13.6338445,
  "tags": {
    "amenity": "drinking_water",
    "name": "Kohlbründl"
  }
},
{
  "type": "node",
  "id": 9954766536,
  "lat": 47.1972581,
  "lon": 13.8995833,
  "tags": {
    "amenity": "drinking_water"
  }
},
{
  "type": "node",
  "id": 9958944398,
  "lat": 47.4282017,
  "lon": 13.2212452,
  "tags": {
    "drinking_water": "yes",
    "man_made": "water_tap"
  }
},
{
  "type": "node",
  "id": 9963400630,
  "lat": 47.9524246,
  "lon": 13.6845580,
  "tags": {
    "amenity": "drinking_water"
  }
},
{
  "type": "node",
  "id": 9969568098,
  "lat": 47.9472533,
  "lon": 13.5937666,
  "tags": {
    "access": "yes",
    "amenity": "toilets",
    "bottle": "yes",
    "changing_table": "yes",
    "check_date": "2025-06-16",
    "drinking_water": "yes",
    "fee": "no",
    "female": "yes",
    "male": "yes",
    "note": "nur geöffnet, wenn der Imbiss offen hat",
    "toilets:disposal": "flush",
    "toilets:handwashing": "yes",
    "toilets:position": "seated;urinal",
    "wheelchair": "yes"
  }
},
{
  "type": "node",
  "id": 9985444634,
  "lat": 47.1613200,
  "lon": 13.6181720,
  "tags": {
    "amenity": "drinking_water"
  }
},
{
  "type": "node",
  "id": 9987876828,
  "lat": 47.2093286,
  "lon": 13.9962205,
  "tags": {
    "amenity": "drinking_water",
    "bottle": "yes",
    "wheelchair": "no"
  }
},
{
  "type": "node",
  "id": 9990079159,
  "lat": 47.1707264,
  "lon": 13.5988788,
  "tags": {
    "drinking_water": "yes",
    "natural": "spring"
  }
},
{
  "type": "node",
  "id": 9994815704,
  "lat": 47.1200422,
  "lon": 13.1409222,
  "tags": {
    "drinking_water": "yes",
    "intermittent": "no",
    "natural": "hot_spring"
  }
},
{
  "type": "node",
  "id": 10001077163,
  "lat": 47.1860497,
  "lon": 13.4012041,
  "tags": {
    "amenity": "drinking_water"
  }
},
{
  "type": "node",
  "id": 10006185295,
  "lat": 47.7274945,
  "lon": 13.8665968,
  "tags": {
    "amenity": "drinking_water",
    "drinking_water": "yes",
    "natural": "spring"
  }
},
{
  "type": "node",
  "id": 10008870523,
  "lat": 47.6814665,
  "lon": 13.0932491,
  "tags": {
    "access": "yes",
    "amenity": "drinking_water",
    "fee": "no",
    "fountain": "drinking"
  }
},
{
  "type": "node",
  "id": 10011556560,
  "lat": 47.0078324,
  "lon": 13.5113555,
  "tags": {
    "drinking_water": "yes",
    "intermittent": "no",
    "natural": "spring"
  }
},
{
  "type": "node",
  "id": 10016918207,
  "lat": 47.9820646,
  "lon": 13.0810055,
  "tags": {
    "access": "yes",
    "amenity": "drinking_water",
    "fee": "no",
    "man_made": "water_tap"
  }
},
{
  "type": "node",
  "id": 10047113693,
  "lat": 47.8223931,
  "lon": 13.4889479,
  "tags": {
    "amenity": "drinking_water"
  }
},
{
  "type": "node",
  "id": 10049304343,
  "lat": 47.6073198,
  "lon": 13.7678750,
  "tags": {
    "access": "yes",
    "amenity": "drinking_water",
    "bottle": "yes"
  }
},
{
  "type": "node",
  "id": 10143043258,
  "lat": 47.5556676,
  "lon": 13.6897999,
  "tags": {
    "access": "yes",
    "amenity": "drinking_water",
    "bottle": "yes",
    "fee": "no",
    "man_made": "water_tap",
    "wheelchair": "yes"
  }
},
{
  "type": "node",
  "id": 10147203613,
  "lat": 47.2192940,
  "lon": 13.0042245,
  "tags": {
    "drinking_water": "yes",
    "name": "Brünnlein-Quelle",
    "natural": "spring"
  }
},
{
  "type": "node",
  "id": 10191097684,
  "lat": 47.1152823,
  "lon": 13.1376958,
  "tags": {
    "amenity": "drinking_water",
    "fountain": "drinking"
  }
},
{
  "type": "node",
  "id": 10264494180,
  "lat": 47.5456242,
  "lon": 13.6207134,
  "tags": {
    "drinking_water": "yes",
    "natural": "spring"
  }
},
{
  "type": "node",
  "id": 10557292415,
  "lat": 47.9082393,
  "lon": 13.3176865,
  "tags": {
    "access": "yes",
    "amenity": "drinking_water",
    "fee": "no",
    "fountain": "drinking",
    "wheelchair": "yes"
  }
},
{
  "type": "node",
  "id": 10570839219,
  "lat": 47.2210838,
  "lon": 13.0266443,
  "tags": {
    "drinking_water": "yes",
    "name": "Kaltes Brunnl",
    "natural": "spring"
  }
},
{
  "type": "node",
  "id": 10727766892,
  "lat": 47.1713081,
  "lon": 13.1078439,
  "tags": {
    "amenity": "drinking_water",
    "man_made": "water_tap"
  }
},
{
  "type": "node",
  "id": 10816727019,
  "lat": 47.1704916,
  "lon": 13.1068016,
  "tags": {
    "amenity": "drinking_water",
    "fountain": "drinking",
    "name": "Johann Ladislaus Pyrker Brunnen"
  }
},
{
  "type": "node",
  "id": 10816775350,
  "lat": 47.1714798,
  "lon": 13.1062562,
  "tags": {
    "amenity": "drinking_water",
    "fountain": "bubbler",
    "name": "Franz Grillparzer Brunnen"
  }
},
{
  "type": "node",
  "id": 10858288045,
  "lat": 47.7661743,
  "lon": 13.2784363,
  "tags": {
    "amenity": "drinking_water",
    "bottle": "yes",
    "wheelchair": "yes"
  }
},
{
  "type": "node",
  "id": 10858303624,
  "lat": 47.8414384,
  "lon": 13.2537954,
  "tags": {
    "amenity": "drinking_water",
    "bottle": "yes",
    "wheelchair": "yes"
  }
},
{
  "type": "node",
  "id": 10858526827,
  "lat": 47.8058203,
  "lon": 13.4313496,
  "tags": {
    "amenity": "drinking_water",
    "name": "Brunnen",
    "name:en": "Water"
  }
},
{
  "type": "node",
  "id": 10858526918,
  "lat": 47.9461256,
  "lon": 13.6036860,
  "tags": {
    "amenity": "drinking_water",
    "name": "Brunnen",
    "name:en": "Water"
  }
},
{
  "type": "node",
  "id": 10870334031,
  "lat": 47.6252437,
  "lon": 13.8291398,
  "tags": {
    "amenity": "drinking_water"
  }
},
{
  "type": "node",
  "id": 10870604920,
  "lat": 47.6272719,
  "lon": 13.8374197,
  "tags": {
    "amenity": "drinking_water"
  }
},
{
  "type": "node",
  "id": 10899168327,
  "lat": 47.9146217,
  "lon": 13.1962578,
  "tags": {
    "amenity": "drinking_water",
    "fountain": "drinking"
  }
},
{
  "type": "node",
  "id": 10901617812,
  "lat": 47.6001081,
  "lon": 13.2979900,
  "tags": {
    "amenity": "drinking_water"
  }
},
{
  "type": "node",
  "id": 10913155875,
  "lat": 47.4725358,
  "lon": 13.9432573,
  "tags": {
    "amenity": "drinking_water",
    "fountain": "drinking"
  }
},
{
  "type": "node",
  "id": 10934934812,
  "lat": 47.3771663,
  "lon": 13.1226051,
  "tags": {
    "access": "yes",
    "amenity": "drinking_water",
    "bottle": "yes",
    "fee": "no"
  }
},
{
  "type": "node",
  "id": 10939854421,
  "lat": 47.8924520,
  "lon": 13.9657782,
  "tags": {
    "amenity": "drinking_water",
    "bottle": "no",
    "charge": "2 EUR",
    "fee": "yes",
    "payment:cash": "yes",
    "wheelchair": "yes"
  }
},
{
  "type": "node",
  "id": 10994251553,
  "lat": 47.8309561,
  "lon": 13.0258595,
  "tags": {
    "access": "yes",
    "amenity": "drinking_water",
    "bottle": "yes",
    "man_made": "water_tap"
  }
},
{
  "type": "node",
  "id": 10994322767,
  "lat": 47.8310599,
  "lon": 13.0258869,
  "tags": {
    "access": "yes",
    "amenity": "drinking_water",
    "fountain": "drinking"
  }
},
{
  "type": "node",
  "id": 11003541805,
  "lat": 47.0872662,
  "lon": 13.1136306,
  "tags": {
    "amenity": "drinking_water",
    "fountain": "drinking",
    "name": "Heilquelle"
  }
},
{
  "type": "node",
  "id": 11008036194,
  "lat": 47.9119691,
  "lon": 13.2121076,
  "tags": {
    "amenity": "fountain",
    "bottle": "yes",
    "drinking_water": "yes"
  }
},
{
  "type": "node",
  "id": 11014293379,
  "lat": 47.2634589,
  "lon": 13.7845313,
  "tags": {
    "drinking_water": "yes",
    "natural": "spring"
  }
},
{
  "type": "node",
  "id": 11019021183,
  "lat": 47.4331260,
  "lon": 13.5197081,
  "tags": {
    "amenity": "drinking_water"
  }
},
{
  "type": "node",
  "id": 11025253861,
  "lat": 47.1845995,
  "lon": 13.3154219,
  "tags": {
    "access": "private",
    "drinking_water": "yes",
    "man_made": "water_well",
    "operator": "Tappenkarseehütte"
  }
},
{
  "type": "node",
  "id": 11032961257,
  "lat": 47.2075615,
  "lon": 13.6411303,
  "tags": {
    "amenity": "drinking_water"
  }
},
{
  "type": "node",
  "id": 11037029466,
  "lat": 47.6560151,
  "lon": 13.8969688,
  "tags": {
    "amenity": "drinking_water"
  }
},
{
  "type": "node",
  "id": 11037717208,
  "lat": 47.1780845,
  "lon": 13.1027320,
  "tags": {
    "amenity": "drinking_water"
  }
},
{
  "type": "node",
  "id": 11039359210,
  "lat": 47.7111059,
  "lon": 13.6207574,
  "tags": {
    "access": "yes",
    "amenity": "drinking_water",
    "bottle": "yes",
    "fee": "no",
    "wheelchair": "yes"
  }
},
{
  "type": "node",
  "id": 11049081766,
  "lat": 47.1464632,
  "lon": 13.9045509,
  "tags": {
    "access": "yes",
    "amenity": "watering_place",
    "bottle": "yes",
    "drinking_water": "yes",
    "fee": "no",
    "opening_hours": "24/7",
    "wheelchair": "yes"
  }
},
{
  "type": "node",
  "id": 11083805612,
  "lat": 47.4275790,
  "lon": 13.7045909,
  "tags": {
    "amenity": "drinking_water"
  }
},
{
  "type": "node",
  "id": 11092359961,
  "lat": 47.8132892,
  "lon": 13.7723169,
  "tags": {
    "access": "yes",
    "drinking_water": "yes",
    "man_made": "water_tap"
  }
},
{
  "type": "node",
  "id": 11093720899,
  "lat": 47.5898035,
  "lon": 13.0217830,
  "tags": {
    "amenity": "drinking_water"
  }
},
{
  "type": "node",
  "id": 11093755638,
  "lat": 47.6153160,
  "lon": 13.0630029,
  "tags": {
    "amenity": "drinking_water"
  }
},
{
  "type": "node",
  "id": 11097089803,
  "lat": 47.1120970,
  "lon": 13.1924900,
  "tags": {
    "amenity": "watering_place",
    "drinking_water": "yes",
    "name": "Gerda und Herlmut Bründl"
  }
},
{
  "type": "node",
  "id": 11113337448,
  "lat": 47.7131052,
  "lon": 13.6213464,
  "tags": {
    "access": "yes",
    "amenity": "drinking_water",
    "bottle": "yes",
    "fee": "no",
    "man_made": "water_tap"
  }
},
{
  "type": "node",
  "id": 11115950455,
  "lat": 47.6416999,
  "lon": 13.6139134,
  "tags": {
    "amenity": "drinking_water"
  }
},
{
  "type": "node",
  "id": 11119892451,
  "lat": 47.7138501,
  "lon": 13.2868901,
  "tags": {
    "amenity": "drinking_water",
    "drinking_water": "yes",
    "fee": "no",
    "wheelchair": "yes"
  }
},
{
  "type": "node",
  "id": 11121853604,
  "lat": 47.3064685,
  "lon": 13.9507969,
  "tags": {
    "amenity": "water_point",
    "drinking_water": "yes"
  }
},
{
  "type": "node",
  "id": 11127759849,
  "lat": 47.3301590,
  "lon": 13.7838078,
  "tags": {
    "amenity": "drinking_water"
  }
},
{
  "type": "node",
  "id": 11136431222,
  "lat": 47.8132670,
  "lon": 13.7724501,
  "tags": {
    "amenity": "drinking_water",
    "name": "Fointana",
    "wheelchair": "no"
  }
},
{
  "type": "node",
  "id": 11140127889,
  "lat": 47.1957386,
  "lon": 13.2913443,
  "tags": {
    "amenity": "drinking_water"
  }
},
{
  "type": "node",
  "id": 11173768912,
  "lat": 47.3396236,
  "lon": 13.3942564,
  "tags": {
    "access": "yes",
    "amenity": "drinking_water",
    "bottle": "yes",
    "fee": "no",
    "wheelchair": "yes"
  }
},
{
  "type": "node",
  "id": 11173812856,
  "lat": 47.3377649,
  "lon": 13.3915566,
  "tags": {
    "access": "yes",
    "amenity": "drinking_water",
    "bottle": "yes",
    "fee": "no",
    "wheelchair": "yes"
  }
},
{
  "type": "node",
  "id": 11176277422,
  "lat": 47.3421648,
  "lon": 13.3888238,
  "tags": {
    "access": "permissive",
    "amenity": "drinking_water",
    "bottle": "yes",
    "fee": "no",
    "wheelchair": "yes"
  }
},
{
  "type": "node",
  "id": 11177524693,
  "lat": 47.8231740,
  "lon": 13.0222786,
  "tags": {
    "access": "yes",
    "amenity": "drinking_water",
    "bottle": "yes",
    "fee": "no",
    "fountain": "drinking",
    "wheelchair": "no"
  }
},
{
  "type": "node",
  "id": 11190915397,
  "lat": 47.5489491,
  "lon": 13.4776225,
  "tags": {
    "amenity": "drinking_water"
  }
},
{
  "type": "node",
  "id": 11190925032,
  "lat": 47.6765404,
  "lon": 13.4695886,
  "tags": {
    "amenity": "drinking_water"
  }
},
{
  "type": "node",
  "id": 11190928575,
  "lat": 47.7331089,
  "lon": 13.4059442,
  "tags": {
    "amenity": "fountain",
    "drinking_water": "yes"
  }
},
{
  "type": "node",
  "id": 11190933737,
  "lat": 47.5614991,
  "lon": 13.4427905,
  "tags": {
    "amenity": "drinking_water"
  }
},
{
  "type": "node",
  "id": 11193156018,
  "lat": 47.6795410,
  "lon": 13.9459459,
  "tags": {
    "drinking_water": "yes",
    "natural": "spring"
  }
},
{
  "type": "node",
  "id": 11244287878,
  "lat": 47.7960341,
  "lon": 13.3027997,
  "tags": {
    "amenity": "fountain",
    "covered": "no",
    "drinking_water": "no",
    "fountain": "bubbler",
    "lit": "yes"
  }
},
{
  "type": "node",
  "id": 11244547437,
  "lat": 47.6976241,
  "lon": 13.4273340,
  "tags": {
    "amenity": "drinking_water",
    "bottle": "yes",
    "fee": "no"
  }
},
{
  "type": "node",
  "id": 11300408351,
  "lat": 47.7509091,
  "lon": 13.5865030,
  "tags": {
    "amenity": "drinking_water",
    "bottle": "yes"
  }
},
{
  "type": "node",
  "id": 11305239937,
  "lat": 47.4031757,
  "lon": 13.1173405,
  "tags": {
    "amenity": "drinking_water"
  }
},
{
  "type": "node",
  "id": 11329314664,
  "lat": 47.1146607,
  "lon": 13.1378482,
  "tags": {
    "amenity": "drinking_water"
  }
},
{
  "type": "node",
  "id": 11347284578,
  "lat": 47.3944669,
  "lon": 13.1588430,
  "tags": {
    "amenity": "drinking_water"
  }
},
{
  "type": "node",
  "id": 11530648932,
  "lat": 47.6385563,
  "lon": 13.8837750,
  "tags": {
    "amenity": "drinking_water",
    "fountain": "drinking"
  }
},
{
  "type": "node",
  "id": 11672603925,
  "lat": 47.3317864,
  "lon": 13.1819735,
  "tags": {
    "amenity": "drinking_water"
  }
},
{
  "type": "node",
  "id": 11703933049,
  "lat": 47.9911114,
  "lon": 13.9408618,
  "tags": {
    "amenity": "drinking_water"
  }
},
{
  "type": "node",
  "id": 11743266844,
  "lat": 47.5755241,
  "lon": 13.1951628,
  "tags": {
    "description": "Brunnecker Bründl:\nMit mineralstoffhaltigen Heilwasser gegen Augenleiden. Marmorbrunnen 1972 angefertigt von Professor Josef Zenzmaier",
    "drinking_water": "yes",
    "intermittent": "no",
    "name": "Brunnecker Bründl",
    "natural": "spring"
  }
},
{
  "type": "node",
  "id": 11778514395,
  "lat": 47.1265967,
  "lon": 13.1413925,
  "tags": {
    "amenity": "drinking_water"
  }
},
{
  "type": "node",
  "id": 11799117862,
  "lat": 47.7632823,
  "lon": 13.0646932,
  "tags": {
    "access": "yes",
    "drinking_water": "yes",
    "fee": "no",
    "man_made": "water_tap"
  }
},
{
  "type": "node",
  "id": 11816992250,
  "lat": 47.6583060,
  "lon": 13.4808040,
  "tags": {
    "drinking_water": "yes",
    "natural": "spring"
  }
},
{
  "type": "node",
  "id": 11884836170,
  "lat": 47.7599403,
  "lon": 13.4012959,
  "tags": {
    "amenity": "drinking_water"
  }
},
{
  "type": "node",
  "id": 11891812908,
  "lat": 47.9964479,
  "lon": 13.0610401,
  "tags": {
    "access": "yes",
    "amenity": "drinking_water"
  }
},
{
  "type": "node",
  "id": 11898167736,
  "lat": 47.7763629,
  "lon": 13.0673015,
  "tags": {
    "amenity": "drinking_water"
  }
},
{
  "type": "node",
  "id": 11917471657,
  "lat": 47.0762304,
  "lon": 13.8436564,
  "tags": {
    "amenity": "drinking_water",
    "fee": "no"
  }
},
{
  "type": "node",
  "id": 11917471660,
  "lat": 47.0754711,
  "lon": 13.8434369,
  "tags": {
    "access": "yes",
    "amenity": "toilets",
    "changing_table": "no",
    "check_date": "2024-05-18",
    "drinking_water": "yes",
    "fee": "no",
    "opening_hours": "24/7",
    "toilets:disposal": "flush",
    "toilets:position": "seated;urinal",
    "unisex": "yes"
  }
},
{
  "type": "node",
  "id": 11917855080,
  "lat": 47.0733212,
  "lon": 13.8424659,
  "tags": {
    "amenity": "drinking_water",
    "man_made": "water_tap"
  }
},
{
  "type": "node",
  "id": 11923654472,
  "lat": 47.0733854,
  "lon": 13.8410501,
  "tags": {
    "amenity": "drinking_water",
    "man_made": "fountain"
  }
},
{
  "type": "node",
  "id": 11927936876,
  "lat": 47.8216774,
  "lon": 13.5857121,
  "tags": {
    "amenity": "drinking_water"
  }
},
{
  "type": "node",
  "id": 11932813040,
  "lat": 47.7948077,
  "lon": 13.0411983,
  "tags": {
    "access": "customers",
    "amenity": "drinking_water"
  }
},
{
  "type": "node",
  "id": 11952258327,
  "lat": 47.0684357,
  "lon": 13.8825578,
  "tags": {
    "amenity": "drinking_water"
  }
},
{
  "type": "node",
  "id": 11956481844,
  "lat": 47.6521171,
  "lon": 13.5510101,
  "tags": {
    "amenity": "drinking_water",
    "bottle": "yes",
    "drinking_water:legal": "no"
  }
},
{
  "type": "node",
  "id": 11971863191,
  "lat": 47.2413513,
  "lon": 13.1835704,
  "tags": {
    "amenity": "drinking_water"
  }
},
{
  "type": "node",
  "id": 11983500151,
  "lat": 47.1723710,
  "lon": 13.1473536,
  "tags": {
    "amenity": "drinking_water"
  }
},
{
  "type": "node",
  "id": 12007388728,
  "lat": 47.7522054,
  "lon": 13.7350854,
  "tags": {
    "amenity": "drinking_water",
    "bottle": "yes"
  }
},
{
  "type": "node",
  "id": 12009553161,
  "lat": 47.8064480,
  "lon": 13.9503872,
  "tags": {
    "access": "customers",
    "amenity": "toilets",
    "changing_table": "yes",
    "changing_table:location": "wheelchair_toilet",
    "drinking_water": "yes",
    "fee": "no",
    "female": "yes",
    "level": "0",
    "male": "yes",
    "toilets:disposal": "flush",
    "toilets:handwashing": "yes",
    "toilets:paper_supplied": "yes",
    "toilets:position": "seated;urinal",
    "wheelchair": "designated"
  }
},
{
  "type": "node",
  "id": 12013144797,
  "lat": 47.5445957,
  "lon": 13.4190179,
  "tags": {
    "amenity": "drinking_water"
  }
},
{
  "type": "node",
  "id": 12034047217,
  "lat": 47.3914101,
  "lon": 13.6881468,
  "tags": {
    "amenity": "drinking_water",
    "fountain": "drinking"
  }
},
{
  "type": "node",
  "id": 12035703764,
  "lat": 47.1070566,
  "lon": 13.0719994,
  "tags": {
    "amenity": "watering_place",
    "drinking_water": "yes"
  }
},
{
  "type": "node",
  "id": 12035893594,
  "lat": 47.8032534,
  "lon": 13.1100646,
  "tags": {
    "access": "yes",
    "amenity": "drinking_water",
    "fee": "no",
    "man_made": "water_tap"
  }
},
{
  "type": "node",
  "id": 12037658663,
  "lat": 47.9171476,
  "lon": 13.7972007,
  "tags": {
    "amenity": "drinking_water",
    "fountain": "drinking"
  }
},
{
  "type": "node",
  "id": 12055251641,
  "lat": 47.7078669,
  "lon": 13.6131529,
  "tags": {
    "access": "yes",
    "amenity": "drinking_water",
    "bottle": "yes",
    "fee": "no",
    "historic": "memorial",
    "indoor": "no",
    "inscription": "LEOPOLD VON HASNER REFORMATOR DER VOLKSSCHULE MDCCCVIII",
    "material": "stone",
    "memorial": "plaque",
    "subject": "Leopold von Hasner",
    "subject:wikidata": "Q78824",
    "wikimedia_commons": "File:Leopold_Hasner_monument_01,_Bad_Ischl.jpg"
  }
},
{
  "type": "node",
  "id": 12055253025,
  "lat": 47.9504796,
  "lon": 13.5907391,
  "tags": {
    "access": "yes",
    "amenity": "drinking_water",
    "drinking_water": "yes",
    "drinking_water:legal": "yes",
    "fee": "no",
    "fountain": "drinking",
    "man_made": "water_tap",
    "operator": "Wassergenossenschaft Seewalchen am Attersee"
  }
},
{
  "type": "node",
  "id": 12058877377,
  "lat": 47.4753958,
  "lon": 13.1857094,
  "tags": {
    "amenity": "drinking_water",
    "drinking_water:legal": "no"
  }
},
{
  "type": "node",
  "id": 12063001721,
  "lat": 47.6724719,
  "lon": 13.2163918,
  "tags": {
    "amenity": "drinking_water"
  }
},
{
  "type": "node",
  "id": 12063001722,
  "lat": 47.6796105,
  "lon": 13.2246074,
  "tags": {
    "amenity": "drinking_water"
  }
},
{
  "type": "node",
  "id": 12064799694,
  "lat": 47.8076015,
  "lon": 13.0748479,
  "tags": {
    "access": "yes",
    "amenity": "drinking_water",
    "description": "natürlicher Wasserlauf mit eingesetztem offenem Holzrohr"
  }
},
{
  "type": "node",
  "id": 12076597096,
  "lat": 47.6576492,
  "lon": 13.2936716,
  "tags": {
    "amenity": "drinking_water"
  }
},
{
  "type": "node",
  "id": 12093519273,
  "lat": 47.9021763,
  "lon": 13.7696668,
  "tags": {
    "amenity": "drinking_water",
    "indoor": "no"
  }
},
{
  "type": "node",
  "id": 12093519274,
  "lat": 47.9026134,
  "lon": 13.7704237,
  "tags": {
    "amenity": "drinking_water",
    "indoor": "no"
  }
},
{
  "type": "node",
  "id": 12093781043,
  "lat": 47.0611752,
  "lon": 13.0581312,
  "tags": {
    "amenity": "drinking_water",
    "name": "Wasserhahn in Toilette bei Information"
  }
},
{
  "type": "node",
  "id": 12101998132,
  "lat": 47.7751552,
  "lon": 13.3566526,
  "tags": {
    "amenity": "drinking_water"
  }
},
{
  "type": "node",
  "id": 12112187242,
  "lat": 47.7925287,
  "lon": 13.0544203,
  "tags": {
    "amenity": "drinking_water",
    "man_made": "water_tap"
  }
},
{
  "type": "node",
  "id": 12114087345,
  "lat": 47.1308805,
  "lon": 13.2911972,
  "tags": {
    "amenity": "watering_place",
    "drinking_water": "yes"
  }
},
{
  "type": "node",
  "id": 12116887875,
  "lat": 47.4667222,
  "lon": 13.8518018,
  "tags": {
    "amenity": "drinking_water"
  }
},
{
  "type": "node",
  "id": 12116888203,
  "lat": 47.4789963,
  "lon": 13.8410944,
  "tags": {
    "amenity": "drinking_water"
  }
},
{
  "type": "node",
  "id": 12138055422,
  "lat": 47.9380401,
  "lon": 13.0767241,
  "tags": {
    "amenity": "drinking_water"
  }
},
{
  "type": "node",
  "id": 12138487392,
  "lat": 47.8001067,
  "lon": 13.5394537,
  "tags": {
    "drinking_water": "yes",
    "man_made": "water_tap"
  }
},
{
  "type": "node",
  "id": 12142428616,
  "lat": 47.9855468,
  "lon": 13.4191065,
  "tags": {
    "amenity": "drinking_water"
  }
},
{
  "type": "node",
  "id": 12164550424,
  "lat": 47.9046883,
  "lon": 13.5670035,
  "tags": {
    "access": "yes",
    "amenity": "toilets",
    "capacity": "4",
    "drinking_water": "yes",
    "fee": "no",
    "female": "no",
    "male": "yes",
    "toilets:disposal": "flush",
    "toilets:position": "seated;urinal"
  }
},
{
  "type": "node",
  "id": 12164550425,
  "lat": 47.9046919,
  "lon": 13.5669096,
  "tags": {
    "access": "yes",
    "amenity": "toilets",
    "capacity": "1",
    "drinking_water": "yes",
    "fee": "no",
    "female": "no",
    "toilets:disposal": "flush",
    "toilets:position": "seated",
    "unisex": "yes",
    "wheelchair": "yes"
  }
},
{
  "type": "node",
  "id": 12164550426,
  "lat": 47.9047081,
  "lon": 13.5669163,
  "tags": {
    "access": "yes",
    "amenity": "toilets",
    "capacity": "4",
    "drinking_water": "yes",
    "fee": "no",
    "female": "yes",
    "toilets:disposal": "flush",
    "toilets:position": "seated"
  }
},
{
  "type": "node",
  "id": 12164550530,
  "lat": 47.9062301,
  "lon": 13.5683016,
  "tags": {
    "access": "yes",
    "amenity": "toilets",
    "changing_table:location": "female_toilet",
    "drinking_water": "yes",
    "fee": "no",
    "toilets:disposal": "flush",
    "toilets:position": "seated",
    "wheelchair": "yes"
  }
},
{
  "type": "node",
  "id": 12164550531,
  "lat": 47.9062607,
  "lon": 13.5682601,
  "tags": {
    "access": "yes",
    "amenity": "toilets",
    "changing_table:location": "female_toilet",
    "drinking_water": "yes",
    "fee": "no",
    "male": "yes",
    "toilets:disposal": "flush",
    "toilets:position": "seated;urinal",
    "wheelchair": "yes"
  }
},
{
  "type": "node",
  "id": 12164550532,
  "lat": 47.9062553,
  "lon": 13.5682949,
  "tags": {
    "access": "yes",
    "amenity": "toilets",
    "changing_table:location": "wheelchair_toilet",
    "drinking_water": "yes",
    "fee": "no",
    "toilets:disposal": "flush",
    "toilets:position": "seated",
    "unisex": "yes",
    "wheelchair": "designated"
  }
},
{
  "type": "node",
  "id": 12165356057,
  "lat": 47.7797802,
  "lon": 13.0912424,
  "tags": {
    "drinking_water": "yes",
    "man_made": "water_tap"
  }
},
{
  "type": "node",
  "id": 12174361495,
  "lat": 47.4931253,
  "lon": 13.8984740,
  "tags": {
    "amenity": "watering_place",
    "drinking_water": "yes"
  }
},
{
  "type": "node",
  "id": 12174474680,
  "lat": 47.9855998,
  "lon": 13.4202102,
  "tags": {
    "amenity": "drinking_water"
  }
},
{
  "type": "node",
  "id": 12174703976,
  "lat": 47.3960379,
  "lon": 13.4653679,
  "tags": {
    "amenity": "drinking_water"
  }
},
{
  "type": "node",
  "id": 12176958747,
  "lat": 47.9858289,
  "lon": 13.6933167,
  "tags": {
    "amenity": "toilets",
    "bottle": "yes",
    "drinking_water": "yes",
    "fee": "no",
    "indoor": "yes",
    "toilets:disposal": "flush",
    "toilets:position": "seated;urinal",
    "wheelchair": "no"
  }
},
{
  "type": "node",
  "id": 12178892541,
  "lat": 47.0575104,
  "lon": 13.0552246,
  "tags": {
    "amenity": "drinking_water"
  }
},
{
  "type": "node",
  "id": 12184820569,
  "lat": 47.3455414,
  "lon": 13.3913858,
  "tags": {
    "access": "yes",
    "amenity": "drinking_water",
    "fee": "no"
  }
},
{
  "type": "node",
  "id": 12189689769,
  "lat": 47.8141691,
  "lon": 13.0439620,
  "tags": {
    "access": "yes",
    "amenity": "toilets",
    "drinking_water": "yes",
    "female": "yes",
    "level": "1",
    "male": "yes",
    "toilets:disposal": "flush",
    "toilets:handwashing": "yes",
    "toilets:paper_supplied": "yes",
    "toilets:position": "seated;urinal"
  }
},
{
  "type": "node",
  "id": 12193322930,
  "lat": 47.2415448,
  "lon": 13.1263978,
  "tags": {
    "amenity": "drinking_water"
  }
},
{
  "type": "node",
  "id": 12278186858,
  "lat": 47.8322901,
  "lon": 13.5488851,
  "tags": {
    "amenity": "drinking_water",
    "fountain": "drinking"
  }
},
{
  "type": "node",
  "id": 12299058241,
  "lat": 47.1039645,
  "lon": 13.6618628,
  "tags": {
    "amenity": "drinking_water"
  }
},
{
  "type": "node",
  "id": 12302795541,
  "lat": 47.6755449,
  "lon": 13.3257488,
  "tags": {
    "amenity": "drinking_water",
    "ele": "1316"
  }
},
{
  "type": "node",
  "id": 12302795557,
  "lat": 47.6830618,
  "lon": 13.3179273,
  "tags": {
    "drinking_water": "yes",
    "ele": "1086",
    "natural": "spring"
  }
},
{
  "type": "node",
  "id": 12309256773,
  "lat": 47.8025188,
  "lon": 13.0457481,
  "tags": {
    "access": "yes",
    "amenity": "drinking_water",
    "fee": "no",
    "survey:date": "2024-11-03"
  }
},
{
  "type": "node",
  "id": 12314564081,
  "lat": 47.5344825,
  "lon": 13.9232390,
  "tags": {
    "amenity": "drinking_water"
  }
},
{
  "type": "node",
  "id": 12320207898,
  "lat": 47.1995578,
  "lon": 13.8628410,
  "tags": {
    "amenity": "drinking_water",
    "bottle": "yes",
    "fee": "no",
    "fountain": "drinking"
  }
},
{
  "type": "node",
  "id": 12350868521,
  "lat": 47.3388460,
  "lon": 13.1431757,
  "tags": {
    "access": "yes",
    "amenity": "drinking_water",
    "fee": "no",
    "operator": "Privat"
  }
},
{
  "type": "node",
  "id": 12375759077,
  "lat": 47.3284275,
  "lon": 13.1624397,
  "tags": {
    "access": "customers",
    "amenity": "drinking_water"
  }
},
{
  "type": "node",
  "id": 12400232318,
  "lat": 47.4274855,
  "lon": 13.3839578,
  "tags": {
    "access": "private",
    "amenity": "drinking_water",
    "fee": "no"
  }
},
{
  "type": "node",
  "id": 12495647766,
  "lat": 47.4100647,
  "lon": 13.0062984,
  "tags": {
    "amenity": "drinking_water",
    "description": "In einen Baumstamm",
    "dog": "designated"
  }
},
{
  "type": "node",
  "id": 12609895996,
  "lat": 47.7925024,
  "lon": 13.0543995,
  "tags": {
    "amenity": "drinking_water",
    "fee": "no"
  }
},
{
  "type": "node",
  "id": 12617895258,
  "lat": 47.2437341,
  "lon": 13.3966129,
  "tags": {
    "amenity": "watering_place",
    "drinking_water": "yes"
  }
},
{
  "type": "node",
  "id": 12797967428,
  "lat": 47.7982298,
  "lon": 13.1122059,
  "tags": {
    "amenity": "drinking_water",
    "man_made": "water_tap"
  }
},
{
  "type": "node",
  "id": 12804343254,
  "lat": 47.8907246,
  "lon": 13.1259920,
  "tags": {
    "access": "yes",
    "amenity": "drinking_water",
    "fee": "no",
    "fountain": "bubbler",
    "wheelchair": "yes"
  }
},
{
  "type": "node",
  "id": 12902296936,
  "lat": 47.7443479,
  "lon": 13.0818550,
  "tags": {
    "amenity": "drinking_water"
  }
},
{
  "type": "node",
  "id": 12911149988,
  "lat": 47.3454012,
  "lon": 13.1978933,
  "tags": {
    "amenity": "drinking_water",
    "name": "Trinkbrunnen"
  }
},
{
  "type": "node",
  "id": 12929987448,
  "lat": 47.6762159,
  "lon": 13.9708860,
  "tags": {
    "drinking_water": "yes",
    "intermittent": "no",
    "natural": "spring"
  }
},
{
  "type": "node",
  "id": 12943081800,
  "lat": 47.2674318,
  "lon": 13.3336656,
  "tags": {
    "drinking_water": "yes",
    "name": "Hochstoa Bründl",
    "natural": "spring"
  }
},
{
  "type": "node",
  "id": 12957077825,
  "lat": 47.1251125,
  "lon": 13.4823476,
  "tags": {
    "drinking_water": "yes",
    "ele": "2255",
    "natural": "spring"
  }
},
{
  "type": "node",
  "id": 12957077826,
  "lat": 47.1251522,
  "lon": 13.4839810,
  "tags": {
    "drinking_water": "yes",
    "ele": "2194",
    "natural": "spring"
  }
},
{
  "type": "node",
  "id": 12957082203,
  "lat": 47.1350103,
  "lon": 13.5029483,
  "tags": {
    "amenity": "drinking_water",
    "ele": "1670",
    "fountain": "drinking"
  }
},
{
  "type": "node",
  "id": 12957082327,
  "lat": 47.1417259,
  "lon": 13.5123776,
  "tags": {
    "amenity": "drinking_water",
    "ele": "1405",
    "fountain": "drinking"
  }
},
{
  "type": "node",
  "id": 12985192827,
  "lat": 47.7992217,
  "lon": 13.0467727,
  "tags": {
    "access": "yes",
    "amenity": "drinking_water",
    "artwork_type": "fountain",
    "fee": "no",
    "fountain": "drinking",
    "loc_name": "Brunnen Waagplatz \"Georg Trakl\"",
    "name": "Brunnen Waagplatz",
    "operator": "Magistrat Salzburg",
    "tourism": "artwork",
    "wheelchair": "yes"
  }
},
{
  "type": "node",
  "id": 13007260901,
  "lat": 47.6291741,
  "lon": 13.0013044,
  "tags": {
    "amenity": "drinking_water"
  }
},
{
  "type": "node",
  "id": 13011848119,
  "lat": 47.6100955,
  "lon": 13.9930502,
  "tags": {
    "amenity": "drinking_water",
    "name": "Drinking Water"
  }
},
{
  "type": "node",
  "id": 13012010863,
  "lat": 47.6161859,
  "lon": 13.9473013,
  "tags": {
    "amenity": "drinking_water",
    "name": "Drinking Water"
  }
},
{
  "type": "node",
  "id": 13021227828,
  "lat": 47.3922867,
  "lon": 13.6653973,
  "tags": {
    "access": "yes",
    "amenity": "drinking_water"
  }
},
{
  "type": "node",
  "id": 13029607001,
  "lat": 47.6324667,
  "lon": 13.0017382,
  "tags": {
    "amenity": "drinking_water"
  }
}

  ]
}
