{
  "version": 0.6,
  "generator": "Overpass API 0.7.62.7 375dc00a",
  "osm3s": {
    "timestamp_osm_base": "2025-08-02T09:55:15Z",
    "copyright": "The data included in this document is from www.openstreetmap.org. The data is made available under ODbL."
  },
  "elements": [

{
  "type": "node",
  "id": 45198301,
  "lat": 52.0893925,
  "lon": 5.1098210,
  "tags": {
    "alt_name": "Utrecht Centraal Station",
    "drinking_water": "yes",
    "drinking_water:refill:self_service": "yes",
    "name": "Utrecht Centraal",
    "old_name:-2000-05-29": "Utrecht CS",
    "public_transport": "station",
    "railway": "station",
    "railway:ref": "Ut",
    "start_date": "1843-12-18",
    "toilets:wheelchair": "yes",
    "train": "yes",
    "uic_ref": "8400621",
    "wheelchair": "yes",
    "wikidata": "Q575655",
    "wikipedia": "nl:Station Utrecht Centraal",
    "zone": "5000"
  }
},
{
  "type": "node",
  "id": 763659938,
  "lat": 52.1276595,
  "lon": 5.1355846,
  "tags": {
    "amenity": "drinking_water",
    "bottle": "yes",
    "cold_water": "yes",
    "operator": "Vitens/(Jointhepipe?)"
  }
},
{
  "type": "node",
  "id": 894788826,
  "lat": 52.1778674,
  "lon": 5.1831001,
  "tags": {
    "amenity": "drinking_water",
    "man_made": "water_tap",
    "operator": "Vitens"
  }
},
{
  "type": "node",
  "id": 946795908,
  "lat": 52.4034452,
  "lon": 5.3055024,
  "tags": {
    "amenity": "drinking_water"
  }
},
{
  "type": "node",
  "id": 1276048908,
  "lat": 52.3300745,
  "lon": 5.0716309,
  "tags": {
    "amenity": "drinking_water",
    "check_date": "2023-09-02",
    "man_made": "water_tap"
  }
},
{
  "type": "node",
  "id": 1407520814,
  "lat": 52.0993792,
  "lon": 5.2470163,
  "tags": {
    "amenity": "drinking_water",
    "man_made": "water_tap",
    "wheelchair": "yes"
  }
},
{
  "type": "node",
  "id": 1497888129,
  "lat": 52.0932681,
  "lon": 5.1224681,
  "tags": {
    "access": "yes",
    "amenity": "drinking_water",
    "bottle": "yes",
    "fee": "no",
    "man_made": "water_tap",
    "operator": "Vitens",
    "operator:wikidata": "Q1943963",
    "wheelchair": "yes"
  }
},
{
  "type": "node",
  "id": 1712794374,
  "lat": 52.5588591,
  "lon": 5.9171064,
  "tags": {
    "amenity": "drinking_water",
    "bottle": "yes",
    "check_date": "2021-09-24",
    "fountain": "bottle_refill",
    "panoramax": "1b3e2a59-03ed-4116-8701-edd5d4cb6787",
    "source": "http://join-the-pipe.org/"
  }
},
{
  "type": "node",
  "id": 1751860263,
  "lat": 52.3299786,
  "lon": 5.1444405,
  "tags": {
    "amenity": "drinking_water"
  }
},
{
  "type": "node",
  "id": 1761700308,
  "lat": 52.3333021,
  "lon": 5.1449813,
  "tags": {
    "amenity": "drinking_water"
  }
},
{
  "type": "node",
  "id": 1761780404,
  "lat": 52.3629315,
  "lon": 5.2352186,
  "tags": {
    "amenity": "drinking_water"
  }
},
{
  "type": "node",
  "id": 1763642764,
  "lat": 52.3348917,
  "lon": 5.1423771,
  "tags": {
    "amenity": "drinking_water"
  }
},
{
  "type": "node",
  "id": 1763642776,
  "lat": 52.3367419,
  "lon": 5.1394355,
  "tags": {
    "amenity": "drinking_water"
  }
},
{
  "type": "node",
  "id": 1770860746,
  "lat": 52.2654767,
  "lon": 5.5309491,
  "tags": {
    "amenity": "drinking_water",
    "check_date": "2024-10-04",
    "man_made": "water_tap"
  }
},
{
  "type": "node",
  "id": 1770860782,
  "lat": 52.3072357,
  "lon": 5.5577544,
  "tags": {
    "amenity": "drinking_water"
  }
},
{
  "type": "node",
  "id": 1770860818,
  "lat": 52.3262240,
  "lon": 5.5759760,
  "tags": {
    "amenity": "drinking_water",
    "check_date": "2024-07-30",
    "man_made": "water_tap"
  }
},
{
  "type": "node",
  "id": 1770860823,
  "lat": 52.3277019,
  "lon": 5.5785171,
  "tags": {
    "amenity": "drinking_water",
    "check_date": "2024-07-30",
    "man_made": "water_tap"
  }
},
{
  "type": "node",
  "id": 1783597716,
  "lat": 52.4501421,
  "lon": 5.8297578,
  "tags": {
    "amenity": "drinking_water"
  }
},
{
  "type": "node",
  "id": 1783845382,
  "lat": 52.3738974,
  "lon": 5.8169019,
  "tags": {
    "amenity": "drinking_water"
  }
},
{
  "type": "node",
  "id": 1803323961,
  "lat": 52.3039251,
  "lon": 5.5075778,
  "tags": {
    "amenity": "drinking_water"
  }
},
{
  "type": "node",
  "id": 1808801309,
  "lat": 52.3060794,
  "lon": 5.2582043,
  "tags": {
    "amenity": "drinking_water"
  }
},
{
  "type": "node",
  "id": 2198606860,
  "lat": 52.8154415,
  "lon": 5.9970994,
  "tags": {
    "caravans": "yes",
    "drinking_water": "yes",
    "name": "De Eikenhof",
    "power_supply": "yes",
    "shower": "yes",
    "tents": "yes",
    "toilets": "yes",
    "tourism": "camp_site",
    "website": "https://www.eikenhof.nl/"
  }
},
{
  "type": "node",
  "id": 2213443732,
  "lat": 52.6443685,
  "lon": 5.0539224,
  "tags": {
    "amenity": "drinking_water",
    "bottle": "yes",
    "fee": "no",
    "fountain": "bottle_refill",
    "opening_hours": "Dec-Feb off",
    "operator": "PWN",
    "operator:short": "PWN",
    "operator:wikidata": "Q1968432",
    "source": "gps",
    "wheelchair": "yes"
  }
},
{
  "type": "node",
  "id": 2312180271,
  "lat": 52.0864491,
  "lon": 5.6195872,
  "tags": {
    "amenity": "drinking_water"
  }
},
{
  "type": "node",
  "id": 2353079411,
  "lat": 52.0866957,
  "lon": 5.1406895,
  "tags": {
    "amenity": "drinking_water",
    "fountain": "drinking",
    "operator": "Vitens/(Jointhepipe?)",
    "wheelchair": "yes"
  }
},
{
  "type": "node",
  "id": 2536250498,
  "lat": 52.1534935,
  "lon": 5.3742392,
  "tags": {
    "amenity": "drinking_water",
    "man_made": "water_tap",
    "note": "Een watertappunt.",
    "source": "survey"
  }
},
{
  "type": "node",
  "id": 2552485589,
  "lat": 52.1014559,
  "lon": 5.1286785,
  "tags": {
    "amenity": "drinking_water",
    "operator": "Vitens/(Jointhepipe?)",
    "toilets:wheelchair": "yes",
    "wheelchair": "yes",
    "wheelchair:description": "Toilet 2,5 x 2,5 m."
  }
},
{
  "type": "node",
  "id": 2630041224,
  "lat": 52.3501023,
  "lon": 5.6182424,
  "tags": {
    "amenity": "drinking_water",
    "check_date": "2023-08-06",
    "man_made": "water_tap"
  }
},
{
  "type": "node",
  "id": 2715398535,
  "lat": 52.7883173,
  "lon": 5.7985210,
  "tags": {
    "addr:city": "Bant",
    "addr:housenumber": "21",
    "addr:postcode": "8314PX",
    "addr:street": "Hopweg",
    "caravans": "yes",
    "dog": "yes",
    "drinking_water": "yes",
    "fee": "yes",
    "name": "Natuurkampeerterrein De Veenkuil",
    "sanitary_dump_station": "yes",
    "shower": "yes",
    "source": "BAG",
    "source:date": "2014-02-11",
    "tents": "yes",
    "toilets": "yes",
    "tourism": "camp_site",
    "website": "https://www.logerenbijdeboswachter.nl/kamperen/de-veenkuil"
  }
},
{
  "type": "node",
  "id": 2764561313,
  "lat": 52.3385120,
  "lon": 5.0914797,
  "tags": {
    "amenity": "drinking_water",
    "check_date": "2023-09-02",
    "man_made": "water_tap"
  }
},
{
  "type": "node",
  "id": 2928753616,
  "lat": 52.9917643,
  "lon": 5.5444057,
  "tags": {
    "access": "customers",
    "amenity": "toilets",
    "drinking_water": "yes",
    "toilets:disposal": "flush"
  }
},
{
  "type": "node",
  "id": 3149545894,
  "lat": 52.2323107,
  "lon": 5.9266556,
  "tags": {
    "amenity": "drinking_water"
  }
},
{
  "type": "node",
  "id": 3587857399,
  "lat": 52.3072495,
  "lon": 5.0454932,
  "tags": {
    "amenity": "drinking_water",
    "bottle": "yes",
    "fee": "no",
    "operator": "PWN",
    "operator:short": "PWN",
    "operator:wikidata": "Q1968432",
    "source": "gps",
    "wheelchair": "yes"
  }
},
{
  "type": "node",
  "id": 3648853402,
  "lat": 52.3968739,
  "lon": 5.0010527,
  "tags": {
    "amenity": "drinking_water",
    "operator": "Waternet",
    "operator:wikidata": "Q2137469",
    "operator:wikipedia": "nl:Waternet (bedrijf)"
  }
},
{
  "type": "node",
  "id": 3709767975,
  "lat": 52.2143371,
  "lon": 5.9641419,
  "tags": {
    "access": "yes",
    "amenity": "drinking_water",
    "bottle": "yes",
    "fee": "no",
    "man_made": "water_tap",
    "survey:date": "2022-07-26"
  }
},
{
  "type": "node",
  "id": 3709783602,
  "lat": 52.2101697,
  "lon": 5.9680964,
  "tags": {
    "amenity": "drinking_water",
    "man_made": "water_tap",
    "note": "Doesn't function as of 2022-09-10, probably because of construction works, possible be reinstated later"
  }
},
{
  "type": "node",
  "id": 4117284815,
  "lat": 52.0911889,
  "lon": 5.0251795,
  "tags": {
    "amenity": "drinking_water",
    "bottle": "yes",
    "fee": "no",
    "man_made": "water_tap",
    "opening_hours": "24/7",
    "operator": "Vitens/Jointhepipe",
    "seasonal": "spring;summer;autumn"
  }
},
{
  "type": "node",
  "id": 4171936976,
  "lat": 52.4523369,
  "lon": 5.8276940,
  "tags": {
    "access": "yes",
    "amenity": "toilets",
    "drinking_water": "yes",
    "fee": "no",
    "female": "yes",
    "male": "yes",
    "toilets:disposal": "chemical",
    "toilets:position": "seated",
    "wheelchair": "yes"
  }
},
{
  "type": "node",
  "id": 4173398893,
  "lat": 52.0274801,
  "lon": 5.5582754,
  "tags": {
    "amenity": "drinking_water"
  }
},
{
  "type": "node",
  "id": 4189443989,
  "lat": 52.1014322,
  "lon": 5.0448112,
  "tags": {
    "amenity": "drinking_water",
    "bottle": "yes",
    "fee": "no",
    "man_made": "water_tap",
    "opening_hours": "24/7",
    "operator": "Vitens/(Jointhepipe?)",
    "seasonal": "spring;summer;autumn"
  }
},
{
  "type": "node",
  "id": 4204163601,
  "lat": 52.0643409,
  "lon": 5.3719421,
  "tags": {
    "access": "yes",
    "amenity": "drinking_water",
    "fee": "no",
    "wheelchair": "yes"
  }
},
{
  "type": "node",
  "id": 4258956390,
  "lat": 52.0259278,
  "lon": 5.5545080,
  "tags": {
    "amenity": "drinking_water"
  }
},
{
  "type": "node",
  "id": 4302905390,
  "lat": 52.0865162,
  "lon": 5.2393916,
  "tags": {
    "access": "yes",
    "amenity": "drinking_water",
    "bottle": "yes",
    "fountain": "drinking",
    "opening_hours": "24/7",
    "operator": "Vitens / Join the Pipe"
  }
},
{
  "type": "node",
  "id": 4302905490,
  "lat": 52.0825518,
  "lon": 5.2397340,
  "tags": {
    "access": "yes",
    "amenity": "drinking_water",
    "bottle": "yes",
    "man_made": "water_tap",
    "opening_hours": "24/7",
    "operator": "Vitens / Join the Pipe"
  }
},
{
  "type": "node",
  "id": 4306215358,
  "lat": 52.0896667,
  "lon": 5.0994201,
  "tags": {
    "access": "yes",
    "amenity": "drinking_water",
    "bottle": "yes",
    "check_date": "2022-12-11",
    "fee": "no",
    "man_made": "water_tap",
    "operator": "Vitens/Jointhepipe"
  }
},
{
  "type": "node",
  "id": 4328055598,
  "lat": 52.0824169,
  "lon": 5.0375820,
  "tags": {
    "amenity": "drinking_water",
    "operator": "Vitens/(Jointhepipe?)"
  }
},
{
  "type": "node",
  "id": 4371850639,
  "lat": 52.3311267,
  "lon": 5.5418125,
  "tags": {
    "amenity": "drinking_water"
  }
},
{
  "type": "node",
  "id": 4377153060,
  "lat": 52.1071367,
  "lon": 5.0116128,
  "tags": {
    "amenity": "drinking_water",
    "operator": "Vitens/Jointhepipe"
  }
},
{
  "type": "node",
  "id": 4382711133,
  "lat": 52.2917972,
  "lon": 5.0033454,
  "tags": {
    "amenity": "drinking_water",
    "operator": "Vitens/(Jointhepipe?)"
  }
},
{
  "type": "node",
  "id": 4460262435,
  "lat": 52.7088550,
  "lon": 5.2981466,
  "tags": {
    "amenity": "drinking_water",
    "check_date": "2023-10-05",
    "man_made": "water_tap"
  }
},
{
  "type": "node",
  "id": 4784330565,
  "lat": 52.0075599,
  "lon": 5.9011527,
  "tags": {
    "access": "customers",
    "amenity": "toilets",
    "changing_table": "yes",
    "drinking_water": "yes",
    "fee": "no",
    "female": "yes",
    "indoor": "yes",
    "male": "yes",
    "opening_hours": "Mo-Su 09:00-17:00",
    "operator": "Burgers' Zoo",
    "toilets:disposal": "flush",
    "toilets:position": "seated;urinal",
    "wheelchair": "yes"
  }
},
{
  "type": "node",
  "id": 4784330583,
  "lat": 52.0076176,
  "lon": 5.8983318,
  "tags": {
    "access": "customers",
    "amenity": "toilets",
    "changing_table": "yes",
    "drinking_water": "yes",
    "fee": "no",
    "female": "yes",
    "male": "yes",
    "opening_hours": "Mo-Su 09:00-17:00",
    "operator": "Brurgers Zoo",
    "toilets:disposal": "flush",
    "toilets:position": "seated;urinal",
    "wheelchair": "yes"
  }
},
{
  "type": "node",
  "id": 4885602164,
  "lat": 52.0765865,
  "lon": 5.1216709,
  "tags": {
    "amenity": "drinking_water",
    "bottle": "yes",
    "check_date": "2025-03-21",
    "man_made": "water_tap",
    "operator": "Kraanwater Graag",
    "url": "https://kraanwatergraag.nl"
  }
},
{
  "type": "node",
  "id": 4892628737,
  "lat": 52.3329730,
  "lon": 5.5950398,
  "tags": {
    "amenity": "drinking_water"
  }
},
{
  "type": "node",
  "id": 4892628738,
  "lat": 52.0123724,
  "lon": 5.4074065,
  "tags": {
    "amenity": "drinking_water"
  }
},
{
  "type": "node",
  "id": 4917327522,
  "lat": 52.0458885,
  "lon": 5.6711187,
  "tags": {
    "amenity": "drinking_water",
    "bottle": "yes",
    "disused": "yes",
    "man_made": "water_well",
    "note": "toen ik erop drukte kwam er geen water uit",
    "pump": "manual",
    "survey:date": "2022-12-03"
  }
},
{
  "type": "node",
  "id": 4929109235,
  "lat": 52.1380524,
  "lon": 5.9837502,
  "tags": {
    "amenity": "drinking_water"
  }
},
{
  "type": "node",
  "id": 4984942393,
  "lat": 52.0874597,
  "lon": 5.3383799,
  "tags": {
    "amenity": "drinking_water",
    "check_date": "2023-10-26",
    "man_made": "water_tap"
  }
},
{
  "type": "node",
  "id": 5026595036,
  "lat": 52.0946493,
  "lon": 5.0989420,
  "tags": {
    "amenity": "drinking_water",
    "man_made": "water_tap",
    "operator": "Vitens/(Jointhepipe?)"
  }
},
{
  "type": "node",
  "id": 5048120293,
  "lat": 52.1337220,
  "lon": 5.8980751,
  "tags": {
    "amenity": "drinking_water"
  }
},
{
  "type": "node",
  "id": 5083115280,
  "lat": 52.4566435,
  "lon": 5.1048687,
  "tags": {
    "amenity": "drinking_water",
    "bottle": "yes",
    "fee": "no",
    "fountain": "bottle_refill",
    "operator": "PWN",
    "operator:short": "PWN",
    "operator:wikidata": "Q1968432"
  }
},
{
  "type": "node",
  "id": 5296123525,
  "lat": 52.2978370,
  "lon": 5.2354098,
  "tags": {
    "amenity": "drinking_water"
  }
},
{
  "type": "node",
  "id": 5352807160,
  "lat": 52.3570327,
  "lon": 5.1537256,
  "tags": {
    "amenity": "toilets",
    "drinking_water": "yes"
  }
},
{
  "type": "node",
  "id": 5365209148,
  "lat": 52.0933696,
  "lon": 5.1306313,
  "tags": {
    "amenity": "drinking_water",
    "fountain": "drinking",
    "operator": "Vitens/(Jointhepipe?)",
    "wheelchair": "yes"
  }
},
{
  "type": "node",
  "id": 5440958634,
  "lat": 52.2854904,
  "lon": 5.2251663,
  "tags": {
    "amenity": "drinking_water"
  }
},
{
  "type": "node",
  "id": 5457166293,
  "lat": 52.3688704,
  "lon": 5.2098702,
  "tags": {
    "amenity": "drinking_water",
    "drinking_water": "yes",
    "man_made": "water_tap"
  }
},
{
  "type": "node",
  "id": 5520365524,
  "lat": 52.0778023,
  "lon": 5.1276557,
  "tags": {
    "amenity": "drinking_water",
    "bottle": "yes",
    "name": "Puble",
    "operator": "Vitens/(Jointhepipe?)",
    "wheelchair": "no"
  }
},
{
  "type": "node",
  "id": 5540717234,
  "lat": 52.0399605,
  "lon": 5.3464078,
  "tags": {
    "amenity": "drinking_water"
  }
},
{
  "type": "node",
  "id": 5540717235,
  "lat": 52.1045046,
  "lon": 5.1842467,
  "tags": {
    "amenity": "drinking_water",
    "wheelchair": "yes"
  }
},
{
  "type": "node",
  "id": 5578032112,
  "lat": 52.0872643,
  "lon": 5.0812452,
  "tags": {
    "amenity": "drinking_water",
    "operator": "Vitens/(Jointhepipe?)"
  }
},
{
  "type": "node",
  "id": 5590239691,
  "lat": 52.0086156,
  "lon": 5.9030355,
  "tags": {
    "access": "customers",
    "amenity": "toilets",
    "changing_table": "yes",
    "drinking_water": "yes",
    "female": "yes",
    "male": "yes",
    "wheelchair": "no"
  }
},
{
  "type": "node",
  "id": 5607262812,
  "lat": 52.0787618,
  "lon": 5.3143701,
  "tags": {
    "access": "yes",
    "amenity": "drinking_water",
    "bottle": "yes",
    "opening_hours": "24/7",
    "operator": "Vitens / Join the Pipe",
    "wheelchair": "yes"
  }
},
{
  "type": "node",
  "id": 5613324019,
  "lat": 52.2107813,
  "lon": 5.9669765,
  "tags": {
    "amenity": "drinking_water",
    "bottle": "yes",
    "check_date": "2025-02-21",
    "cold_water": "yes",
    "man_made": "water_tap"
  }
},
{
  "type": "node",
  "id": 5682367798,
  "lat": 52.0046790,
  "lon": 5.1276139,
  "tags": {
    "access": "yes",
    "amenity": "drinking_water",
    "fee": "no",
    "operator": "Vitens/(Jointhepipe?)",
    "wheelchair": "limited"
  }
},
{
  "type": "node",
  "id": 5693398379,
  "lat": 52.0838429,
  "lon": 5.1306742,
  "tags": {
    "amenity": "drinking_water",
    "description": "Join the Pipe",
    "operator": "Vitens/(Jointhepipe?)"
  }
},
{
  "type": "node",
  "id": 5732131277,
  "lat": 52.1861203,
  "lon": 5.2335102,
  "tags": {
    "amenity": "drinking_water"
  }
},
{
  "type": "node",
  "id": 5777487007,
  "lat": 52.7459694,
  "lon": 5.1861227,
  "tags": {
    "amenity": "drinking_water",
    "bottle": "yes",
    "fee": "no",
    "operator": "N.V. PWN Waterleidingbedrijf Noord-Holland",
    "operator:short": "PWN",
    "operator:wikidata": "Q1968432",
    "source": "gps",
    "wheelchair": "yes"
  }
},
{
  "type": "node",
  "id": 5789144754,
  "lat": 52.2550387,
  "lon": 5.4613705,
  "tags": {
    "amenity": "drinking_water"
  }
},
{
  "type": "node",
  "id": 5790384109,
  "lat": 52.6953172,
  "lon": 5.1778476,
  "tags": {
    "amenity": "drinking_water",
    "bottle": "yes",
    "fee": "no",
    "operator": "N.V. PWN Waterleidingbedrijf Noord-Holland",
    "operator:short": "PWN",
    "operator:wikidata": "Q1968432",
    "source": "gps",
    "wheelchair": "yes"
  }
},
{
  "type": "node",
  "id": 5796119273,
  "lat": 52.0403369,
  "lon": 5.4924642,
  "tags": {
    "access": "yes",
    "amenity": "drinking_water",
    "fee": "no",
    "wheelchair": "limited"
  }
},
{
  "type": "node",
  "id": 5796163857,
  "lat": 52.8737889,
  "lon": 5.8215170,
  "tags": {
    "amenity": "drinking_water"
  }
},
{
  "type": "node",
  "id": 5796265553,
  "lat": 52.8729816,
  "lon": 5.8236923,
  "tags": {
    "amenity": "drinking_water"
  }
},
{
  "type": "node",
  "id": 5796473466,
  "lat": 52.8739901,
  "lon": 5.8204260,
  "tags": {
    "amenity": "drinking_water"
  }
},
{
  "type": "node",
  "id": 5800810356,
  "lat": 52.8059042,
  "lon": 5.9255179,
  "tags": {
    "amenity": "drinking_water"
  }
},
{
  "type": "node",
  "id": 5804846354,
  "lat": 52.8913570,
  "lon": 5.6478985,
  "tags": {
    "amenity": "drinking_water"
  }
},
{
  "type": "node",
  "id": 5807151902,
  "lat": 52.2291570,
  "lon": 5.9419863,
  "tags": {
    "amenity": "drinking_water",
    "bottle": "yes",
    "cold_water": "no",
    "fee": "no",
    "fountain": "bottle_refill",
    "hot_water": "no",
    "iced_water": "no",
    "room_temperature_water": "yes",
    "warm_water": "no"
  }
},
{
  "type": "node",
  "id": 5808622868,
  "lat": 52.0376603,
  "lon": 5.0951713,
  "tags": {
    "access": "yes",
    "amenity": "drinking_water",
    "bottle": "yes",
    "fee": "no",
    "man_made": "water_tap",
    "operator": "Vitens",
    "operator:wikidata": "Q1943963"
  }
},
{
  "type": "node",
  "id": 5838696898,
  "lat": 52.1864307,
  "lon": 5.0716504,
  "tags": {
    "amenity": "drinking_water"
  }
},
{
  "type": "node",
  "id": 5952126502,
  "lat": 52.2757710,
  "lon": 5.1619858,
  "tags": {
    "amenity": "drinking_water",
    "bottle": "yes",
    "fee": "no",
    "fountain": "bottle_refill",
    "operator": "PWN",
    "operator:short": "PWN",
    "operator:wikidata": "Q1968432",
    "source": "gps",
    "wheelchair": "yes"
  }
},
{
  "type": "node",
  "id": 5990624703,
  "lat": 52.0290327,
  "lon": 5.5577228,
  "tags": {
    "amenity": "drinking_water",
    "man_made": "water_tap"
  }
},
{
  "type": "node",
  "id": 6082995694,
  "lat": 52.2130927,
  "lon": 5.9638956,
  "tags": {
    "amenity": "drinking_water",
    "man_made": "water_tap",
    "material": "steel",
    "wheelchair": "yes"
  }
},
{
  "type": "node",
  "id": 6131498878,
  "lat": 52.0876059,
  "lon": 5.0901426,
  "tags": {
    "access": "yes",
    "amenity": "drinking_water",
    "fee": "no",
    "operator": "Vitens/(Jointhepipe?)"
  }
},
{
  "type": "node",
  "id": 6225653519,
  "lat": 52.2255914,
  "lon": 5.1774533,
  "tags": {
    "amenity": "drinking_water",
    "bottle": "yes",
    "fee": "no",
    "fountain": "drinking",
    "operator": "Vitens",
    "wheelchair": "yes"
  }
},
{
  "type": "node",
  "id": 6292642998,
  "lat": 52.2383887,
  "lon": 5.1746880,
  "tags": {
    "amenity": "drinking_water"
  }
},
{
  "type": "node",
  "id": 6412335795,
  "lat": 52.0178494,
  "lon": 5.0409906,
  "tags": {
    "amenity": "drinking_water",
    "bottle": "yes",
    "operator": "Vitens/Jointhepipe"
  }
},
{
  "type": "node",
  "id": 6416217157,
  "lat": 52.0211068,
  "lon": 5.0824899,
  "tags": {
    "amenity": "drinking_water",
    "bottle": "yes",
    "operator": "Vitens/Jointhepipe"
  }
},
{
  "type": "node",
  "id": 6416275183,
  "lat": 52.0038384,
  "lon": 5.0967714,
  "tags": {
    "amenity": "drinking_water",
    "bottle": "yes",
    "operator": "Vitens",
    "operator:wikidata": "Q1943963"
  }
},
{
  "type": "node",
  "id": 6416341389,
  "lat": 52.0004188,
  "lon": 5.0894474,
  "tags": {
    "amenity": "drinking_water",
    "bottle": "yes",
    "operator": "Oasen",
    "operator:wikidata": "Q2594590",
    "seasonal": "yes"
  }
},
{
  "type": "node",
  "id": 6416514948,
  "lat": 52.0271771,
  "lon": 5.1623300,
  "tags": {
    "amenity": "drinking_water",
    "bottle": "yes",
    "man_made": "water_tap",
    "operator": "Vitens",
    "operator:wikidata": "Q1943963"
  }
},
{
  "type": "node",
  "id": 6416549744,
  "lat": 52.0290443,
  "lon": 5.1818927,
  "tags": {
    "amenity": "drinking_water",
    "bottle": "yes",
    "operator": "Vitens/Jointhepipe"
  }
},
{
  "type": "node",
  "id": 6416559351,
  "lat": 52.0221360,
  "lon": 5.1884172,
  "tags": {
    "amenity": "drinking_water",
    "bottle": "yes",
    "check_date": "2025-06-21",
    "man_made": "water_tap",
    "operator": "Vitens"
  }
},
{
  "type": "node",
  "id": 6416591585,
  "lat": 52.0165374,
  "lon": 5.1779559,
  "tags": {
    "amenity": "drinking_water",
    "bottle": "yes",
    "man_made": "water_tap",
    "operator": "Vitens"
  }
},
{
  "type": "node",
  "id": 6419195272,
  "lat": 52.0612809,
  "lon": 5.1353298,
  "tags": {
    "amenity": "drinking_water",
    "bottle": "yes",
    "man_made": "water_tap",
    "operator": "Vitens/Jointhepipe"
  }
},
{
  "type": "node",
  "id": 6419200698,
  "lat": 52.0658937,
  "lon": 5.1389665,
  "tags": {
    "amenity": "drinking_water",
    "bottle": "yes",
    "operator": "Hydron"
  }
},
{
  "type": "node",
  "id": 6419219167,
  "lat": 52.0601591,
  "lon": 5.1202737,
  "tags": {
    "amenity": "drinking_water",
    "bottle": "yes",
    "man_made": "water_tap",
    "operator": "Vitens/Jointhepipe"
  }
},
{
  "type": "node",
  "id": 6419257190,
  "lat": 52.0632614,
  "lon": 5.1163121,
  "tags": {
    "amenity": "drinking_water",
    "bottle": "yes",
    "man_made": "water_tap",
    "operator": "Vitens/Jointhepipe"
  }
},
{
  "type": "node",
  "id": 6419263632,
  "lat": 52.0690026,
  "lon": 5.1184532,
  "tags": {
    "amenity": "drinking_water",
    "bottle": "yes",
    "fountain": "bottle_refill",
    "operator": "Vitens/Jointhepipe"
  }
},
{
  "type": "node",
  "id": 6419274629,
  "lat": 52.0701756,
  "lon": 5.1164723,
  "tags": {
    "amenity": "drinking_water",
    "bottle": "yes",
    "man_made": "water_tap",
    "operator": "Vitens/Jointhepipe",
    "wheelchair": "yes"
  }
},
{
  "type": "node",
  "id": 6419288790,
  "lat": 52.0745444,
  "lon": 5.1107040,
  "tags": {
    "amenity": "drinking_water",
    "bottle": "yes",
    "check_date": "2025-06-21",
    "man_made": "water_tap",
    "operator": "Vitens",
    "operator:wikidata": "Q1943963"
  }
},
{
  "type": "node",
  "id": 6419299282,
  "lat": 52.0683371,
  "lon": 5.0979354,
  "tags": {
    "amenity": "drinking_water",
    "bottle": "yes",
    "operator": "Vitens/Jointhepipe",
    "toilets:wheelchair": "no",
    "wheelchair": "yes"
  }
},
{
  "type": "node",
  "id": 6419319951,
  "lat": 52.0764178,
  "lon": 5.0907772,
  "tags": {
    "amenity": "drinking_water",
    "bottle": "yes",
    "operator": "Vitens/Jointhepipe"
  }
},
{
  "type": "node",
  "id": 6419364986,
  "lat": 52.0776054,
  "lon": 5.1033950,
  "tags": {
    "amenity": "drinking_water",
    "bottle": "yes",
    "operator": "Vitens/Jointhepipe"
  }
},
{
  "type": "node",
  "id": 6419377213,
  "lat": 52.0831494,
  "lon": 5.1119682,
  "tags": {
    "amenity": "drinking_water",
    "bottle": "yes",
    "operator": "Vitens",
    "operator:wikidata": "Q1943963"
  }
},
{
  "type": "node",
  "id": 6419407566,
  "lat": 52.0954653,
  "lon": 5.0876091,
  "tags": {
    "amenity": "drinking_water",
    "bottle": "yes",
    "operator": "Vitens/Jointhepipe",
    "seasonal": "yes"
  }
},
{
  "type": "node",
  "id": 6419426274,
  "lat": 52.0916980,
  "lon": 5.1040407,
  "tags": {
    "amenity": "drinking_water",
    "bottle": "yes",
    "fee": "no",
    "fountain": "bottle_refill",
    "not:tourism:artwork": "yes",
    "opening_hours": "24/7",
    "operator": "Vitens/Jointhepipe",
    "panoramax": "a13b3bc5-ff53-4834-80ac-645114943338"
  }
},
{
  "type": "node",
  "id": 6419455032,
  "lat": 52.0896066,
  "lon": 5.1179884,
  "tags": {
    "drinking_water": "yes",
    "drinking_water:legal": "yes",
    "historic": "yes",
    "man_made": "water_well",
    "name": "Mariapomp",
    "name:en": "St Maria Pump",
    "tourism": "attraction"
  }
},
{
  "type": "node",
  "id": 6419463905,
  "lat": 52.0923054,
  "lon": 5.1196740,
  "tags": {
    "amenity": "drinking_water",
    "bottle": "yes",
    "man_made": "water_tap",
    "operator": "Vitens",
    "operator:wikidata": "Q1943963"
  }
},
{
  "type": "node",
  "id": 6419472110,
  "lat": 52.0892292,
  "lon": 5.1279277,
  "tags": {
    "amenity": "drinking_water",
    "bottle": "yes",
    "fee": "no",
    "man_made": "water_tap",
    "opening_hours": "24/7",
    "operator": "Vitens/Jointhepipe",
    "panoramax": "62d8ce7e-4c0b-4424-8fdd-558716a3102b",
    "wheelchair": "yes"
  }
},
{
  "type": "node",
  "id": 6419488533,
  "lat": 52.0963445,
  "lon": 5.1163710,
  "tags": {
    "amenity": "drinking_water",
    "bottle": "yes",
    "man_made": "water_tap",
    "operator": "Vitens",
    "operator:wikidata": "Q1943963"
  }
},
{
  "type": "node",
  "id": 6419508578,
  "lat": 52.0990275,
  "lon": 5.1276291,
  "tags": {
    "access": "yes",
    "amenity": "drinking_water",
    "bottle": "yes",
    "fee": "no",
    "operator": "Vitens/Jointhepipe",
    "wheelchair": "yes"
  }
},
{
  "type": "node",
  "id": 6425172854,
  "lat": 52.0849612,
  "lon": 5.1742694,
  "tags": {
    "amenity": "drinking_water",
    "bottle": "yes",
    "image": "https://images.mapillary.com/BX4akNk5EkfrkySs2fHM5I/thumb-2048.jpg",
    "man_made": "water_tap",
    "mapillary": "208063311145774",
    "operator": "Vitens/Jointhepipe"
  }
},
{
  "type": "node",
  "id": 6425240438,
  "lat": 52.1096110,
  "lon": 5.1296130,
  "tags": {
    "amenity": "drinking_water",
    "bottle": "yes",
    "operator": "Vitens/Jointhepipe"
  }
},
{
  "type": "node",
  "id": 6425285372,
  "lat": 52.1169320,
  "lon": 5.1291154,
  "tags": {
    "amenity": "drinking_water",
    "bottle": "yes",
    "operator": "Vitens/Jointhepipe"
  }
},
{
  "type": "node",
  "id": 6425318825,
  "lat": 52.1170011,
  "lon": 5.1243407,
  "tags": {
    "amenity": "drinking_water",
    "bottle": "yes",
    "operator": "Vitens/Jointhepipe"
  }
},
{
  "type": "node",
  "id": 6425328113,
  "lat": 52.1164574,
  "lon": 5.1190774,
  "tags": {
    "amenity": "drinking_water",
    "bottle": "yes",
    "man_made": "water_tap",
    "operator": "Vitens/Jointhepipe"
  }
},
{
  "type": "node",
  "id": 6425337322,
  "lat": 52.1134107,
  "lon": 5.1172993,
  "tags": {
    "amenity": "drinking_water",
    "bottle": "yes",
    "man_made": "water_tap",
    "operator": "Vitens/Jointhepipe"
  }
},
{
  "type": "node",
  "id": 6425351741,
  "lat": 52.1100893,
  "lon": 5.1190738,
  "tags": {
    "amenity": "drinking_water",
    "bottle": "yes",
    "operator": "Vitens/Jointhepipe"
  }
},
{
  "type": "node",
  "id": 6425442144,
  "lat": 52.1138889,
  "lon": 5.0947798,
  "tags": {
    "amenity": "drinking_water",
    "bottle": "yes",
    "operator": "Vitens/Jointhepipe"
  }
},
{
  "type": "node",
  "id": 6425467649,
  "lat": 52.1145151,
  "lon": 5.0862058,
  "tags": {
    "amenity": "drinking_water",
    "bottle": "yes",
    "fee": "no",
    "man_made": "water_tap",
    "operator": "Vitens/Jointhepipe"
  }
},
{
  "type": "node",
  "id": 6425485095,
  "lat": 52.1142083,
  "lon": 5.0801866,
  "tags": {
    "amenity": "drinking_water",
    "bottle": "yes",
    "operator": "Vitens/Jointhepipe"
  }
},
{
  "type": "node",
  "id": 6425604412,
  "lat": 52.1069579,
  "lon": 5.0865291,
  "tags": {
    "access": "yes",
    "amenity": "drinking_water",
    "bottle": "yes",
    "fee": "no",
    "man_made": "water_tap",
    "opening_hours": "24/7",
    "operator": "Vitens/Jointhepipe",
    "seasonal": "no",
    "wheelchair": "yes"
  }
},
{
  "type": "node",
  "id": 6425656758,
  "lat": 52.1070798,
  "lon": 5.0990823,
  "tags": {
    "amenity": "drinking_water",
    "bottle": "yes",
    "operator": "Vitens/Jointhepipe"
  }
},
{
  "type": "node",
  "id": 6425680330,
  "lat": 52.1039564,
  "lon": 5.1033900,
  "tags": {
    "amenity": "drinking_water",
    "bottle": "yes",
    "fountain": "drinking",
    "operator": "Vitens/Jointhepipe"
  }
},
{
  "type": "node",
  "id": 6425712482,
  "lat": 52.1026638,
  "lon": 5.1075374,
  "tags": {
    "amenity": "drinking_water",
    "bottle": "yes",
    "fee": "no",
    "man_made": "water_tap",
    "opening_hours": "24/7",
    "operator": "Vitens/Jointhepipe",
    "seasonal": "no"
  }
},
{
  "type": "node",
  "id": 6425741842,
  "lat": 52.1041219,
  "lon": 5.1096675,
  "tags": {
    "amenity": "drinking_water",
    "bottle": "yes",
    "operator": "Vitens/Jointhepipe"
  }
},
{
  "type": "node",
  "id": 6425823185,
  "lat": 52.1220932,
  "lon": 5.1049298,
  "tags": {
    "amenity": "drinking_water",
    "bottle": "yes",
    "operator": "Vitens/Jointhepipe"
  }
},
{
  "type": "node",
  "id": 6425905001,
  "lat": 52.1256541,
  "lon": 5.1011998,
  "tags": {
    "amenity": "drinking_water",
    "bottle": "yes",
    "operator": "Vitens/Jointhepipe"
  }
},
{
  "type": "node",
  "id": 6430466474,
  "lat": 52.0966783,
  "lon": 5.0224291,
  "tags": {
    "amenity": "drinking_water",
    "bottle": "yes",
    "operator": "Vitens",
    "wheelchair": "yes"
  }
},
{
  "type": "node",
  "id": 6430781312,
  "lat": 52.0959917,
  "lon": 5.0903374,
  "tags": {
    "amenity": "drinking_water",
    "bottle": "yes",
    "operator": "Vitens/Jointhepipe",
    "seasonal": "yes"
  }
},
{
  "type": "node",
  "id": 6430883085,
  "lat": 52.1270335,
  "lon": 5.0574525,
  "tags": {
    "amenity": "drinking_water",
    "bottle": "yes",
    "operator": "Vitens/Jointhepipe"
  }
},
{
  "type": "node",
  "id": 6430883086,
  "lat": 52.1275143,
  "lon": 5.0698917,
  "tags": {
    "amenity": "drinking_water",
    "bottle": "yes",
    "operator": "Vitens",
    "operator:wikidata": "Q1943963"
  }
},
{
  "type": "node",
  "id": 6430928855,
  "lat": 52.1404592,
  "lon": 5.0396449,
  "tags": {
    "amenity": "drinking_water",
    "bottle": "yes",
    "operator": "Vitens/Jointhepipe"
  }
},
{
  "type": "node",
  "id": 6430956126,
  "lat": 52.2231322,
  "lon": 5.9905491,
  "tags": {
    "amenity": "drinking_water",
    "bottle": "yes",
    "cold_water": "no",
    "fee": "no",
    "fountain": "bottle_refill",
    "hot_water": "no",
    "iced_water": "no",
    "opening_hours": "24/7",
    "panoramax": "ea918bbc-763d-49b3-b0d7-587446854a93",
    "room_temperature_water": "yes",
    "warm_water": "no"
  }
},
{
  "type": "node",
  "id": 6431137817,
  "lat": 52.2104682,
  "lon": 5.0278591,
  "tags": {
    "amenity": "drinking_water",
    "bottle": "yes",
    "operator": "Vitens"
  }
},
{
  "type": "node",
  "id": 6431654634,
  "lat": 52.0044253,
  "lon": 5.4621494,
  "tags": {
    "access": "yes",
    "amenity": "drinking_water",
    "fee": "no",
    "operator": "Join The Pipe",
    "wheelchair": "yes"
  }
},
{
  "type": "node",
  "id": 6436168218,
  "lat": 52.3071540,
  "lon": 5.0189581,
  "tags": {
    "amenity": "drinking_water",
    "bottle": "yes",
    "operator": "Waternet",
    "operator:wikidata": "Q2137469",
    "source": "survey"
  }
},
{
  "type": "node",
  "id": 6443549304,
  "lat": 52.3499018,
  "lon": 5.0074352,
  "tags": {
    "amenity": "drinking_water",
    "bottle": "yes",
    "operator": "Waternet",
    "operator:wikidata": "Q2137469",
    "operator:wikipedia": "nl:Waternet (bedrijf)",
    "source": "survey"
  }
},
{
  "type": "node",
  "id": 6443549305,
  "lat": 52.3550432,
  "lon": 5.0001349,
  "tags": {
    "amenity": "drinking_water",
    "bottle": "yes",
    "operator": "Waternet",
    "operator:wikidata": "Q2137469",
    "operator:wikipedia": "nl:Waternet (bedrijf)",
    "source": "survey"
  }
},
{
  "type": "node",
  "id": 6481614893,
  "lat": 52.3275961,
  "lon": 5.6468641,
  "tags": {
    "amenity": "drinking_water",
    "man_made": "water_tap"
  }
},
{
  "type": "node",
  "id": 6647200540,
  "lat": 52.4323704,
  "lon": 5.0328981,
  "tags": {
    "access": "yes",
    "amenity": "drinking_water",
    "bottle": "yes",
    "fee": "no",
    "operator": "N.V. PWN Waterleidingbedrijf Noord-Holland",
    "operator:short": "PWN",
    "operator:wikidata": "Q1968432",
    "source": "gps",
    "wheelchair": "yes"
  }
},
{
  "type": "node",
  "id": 6665422611,
  "lat": 52.6848906,
  "lon": 5.1329998,
  "tags": {
    "access": "yes",
    "amenity": "drinking_water",
    "bottle": "yes",
    "fee": "no",
    "operator": "PWN",
    "operator:short": "PWN",
    "operator:wikidata": "Q1968432",
    "source": "gps",
    "wheelchair": "yes"
  }
},
{
  "type": "node",
  "id": 6691088385,
  "lat": 52.9796316,
  "lon": 5.4433826,
  "tags": {
    "amenity": "drinking_water",
    "bottle": "yes",
    "drinking_water": "yes",
    "man_made": "water_tap",
    "panoramax": "4a53b061-9fd7-4af7-83b7-ba4e90121d17"
  }
},
{
  "type": "node",
  "id": 6699330214,
  "lat": 52.0143909,
  "lon": 5.1686322,
  "tags": {
    "amenity": "drinking_water",
    "operator": "Vitens/(Jointhepipe?)"
  }
},
{
  "type": "node",
  "id": 6715598585,
  "lat": 52.1209500,
  "lon": 5.2850660,
  "tags": {
    "amenity": "drinking_water"
  }
},
{
  "type": "node",
  "id": 6763717285,
  "lat": 52.9559110,
  "lon": 5.9370679,
  "tags": {
    "amenity": "drinking_water",
    "name": "Join the pipe"
  }
},
{
  "type": "node",
  "id": 6789361185,
  "lat": 52.0750625,
  "lon": 5.1236408,
  "tags": {
    "amenity": "drinking_water",
    "bottle": "yes",
    "fountain": "drinking"
  }
},
{
  "type": "node",
  "id": 6789361985,
  "lat": 52.0723886,
  "lon": 5.1249256,
  "tags": {
    "amenity": "drinking_water",
    "bottle": "yes",
    "fountain": "drinking",
    "name": "Kraanwater",
    "name:en": "Tap water"
  }
},
{
  "type": "node",
  "id": 6794583632,
  "lat": 52.0070739,
  "lon": 5.5368544,
  "tags": {
    "amenity": "drinking_water"
  }
},
{
  "type": "node",
  "id": 6795008864,
  "lat": 52.0124797,
  "lon": 5.9063162,
  "tags": {
    "access": "customers",
    "amenity": "drinking_water"
  }
},
{
  "type": "node",
  "id": 6795444521,
  "lat": 52.0105977,
  "lon": 5.9090707,
  "tags": {
    "access": "customers",
    "amenity": "drinking_water",
    "fountain": "drinking"
  }
},
{
  "type": "node",
  "id": 6807550064,
  "lat": 52.2145427,
  "lon": 5.9622640,
  "tags": {
    "amenity": "drinking_water",
    "man_made": "water_tap",
    "wheelchair": "yes"
  }
},
{
  "type": "node",
  "id": 6823621820,
  "lat": 52.2654247,
  "lon": 5.1627077,
  "tags": {
    "amenity": "drinking_water",
    "bottle": "yes",
    "fee": "no",
    "fountain": "bottle_refill",
    "operator": "PWN",
    "operator:short": "PWN",
    "operator:wikidata": "Q1968432",
    "source": "gps",
    "wheelchair": "yes"
  }
},
{
  "type": "node",
  "id": 6824714187,
  "lat": 52.3482785,
  "lon": 5.6263344,
  "tags": {
    "amenity": "drinking_water"
  }
},
{
  "type": "node",
  "id": 6831185227,
  "lat": 52.0679644,
  "lon": 5.2028282,
  "tags": {
    "access": "yes",
    "amenity": "drinking_water",
    "bottle": "yes",
    "man_made": "water_tap",
    "opening_hours": "24/7",
    "operator": "Vitens / Join the Pipe"
  }
},
{
  "type": "node",
  "id": 6833316824,
  "lat": 52.0550557,
  "lon": 5.2262913,
  "tags": {
    "access": "yes",
    "amenity": "drinking_water",
    "bottle": "yes",
    "man_made": "water_tap",
    "opening_hours": "24/7",
    "operator": "Vitens / Join the Pipe"
  }
},
{
  "type": "node",
  "id": 6833338438,
  "lat": 52.0700506,
  "lon": 5.1957954,
  "tags": {
    "access": "yes",
    "amenity": "drinking_water",
    "bottle": "yes",
    "fountain": "bubbler",
    "opening_hours": "24/7",
    "operator": "Vitens / Join the Pipe"
  }
},
{
  "type": "node",
  "id": 6838652219,
  "lat": 52.0634185,
  "lon": 5.1958566,
  "tags": {
    "access": "yes",
    "amenity": "drinking_water",
    "bottle": "yes",
    "fountain": "bubbler",
    "opening_hours": "24/7",
    "operator": "Vitens / Join the Pipe"
  }
},
{
  "type": "node",
  "id": 6900725888,
  "lat": 52.3377710,
  "lon": 5.6201045,
  "tags": {
    "amenity": "drinking_water",
    "fountain": "bottle_refill"
  }
},
{
  "type": "node",
  "id": 6900745855,
  "lat": 52.3516877,
  "lon": 5.6225163,
  "tags": {
    "amenity": "drinking_water"
  }
},
{
  "type": "node",
  "id": 6911640196,
  "lat": 52.2606137,
  "lon": 5.6075904,
  "tags": {
    "amenity": "drinking_water",
    "name": "Join the Pipe"
  }
},
{
  "type": "node",
  "id": 6911780247,
  "lat": 52.3007603,
  "lon": 5.6145154,
  "tags": {
    "amenity": "drinking_water",
    "bottle": "yes",
    "fountain": "bottle_refill",
    "operator": "NS"
  }
},
{
  "type": "node",
  "id": 6911839809,
  "lat": 52.2999622,
  "lon": 5.6180675,
  "tags": {
    "amenity": "drinking_water",
    "bottle": "yes",
    "fountain": "drinking",
    "name": "Join the Pipe"
  }
},
{
  "type": "node",
  "id": 6916895762,
  "lat": 52.7585207,
  "lon": 5.8343920,
  "tags": {
    "access": "customers",
    "amenity": "toilets",
    "changing_table": "yes",
    "drinking_water": "yes",
    "female": "yes",
    "male": "yes"
  }
},
{
  "type": "node",
  "id": 6916895770,
  "lat": 52.7592121,
  "lon": 5.8341640,
  "tags": {
    "access": "customers",
    "amenity": "toilets",
    "changing_table": "yes",
    "drinking_water": "yes",
    "female": "yes",
    "male": "yes",
    "toilets:position": "seated;urinal"
  }
},
{
  "type": "node",
  "id": 6916895777,
  "lat": 52.7592316,
  "lon": 5.8328953,
  "tags": {
    "access": "customers",
    "amenity": "toilets",
    "drinking_water": "yes",
    "female": "yes",
    "male": "yes"
  }
},
{
  "type": "node",
  "id": 6937400427,
  "lat": 52.3275142,
  "lon": 5.6032740,
  "tags": {
    "amenity": "drinking_water",
    "name": "Join the Pipe"
  }
},
{
  "type": "node",
  "id": 7029766441,
  "lat": 52.3943210,
  "lon": 5.2811059,
  "tags": {
    "amenity": "drinking_water"
  }
},
{
  "type": "node",
  "id": 7029766442,
  "lat": 52.3862210,
  "lon": 5.2797985,
  "tags": {
    "amenity": "drinking_water"
  }
},
{
  "type": "node",
  "id": 7029766443,
  "lat": 52.3582219,
  "lon": 5.2849514,
  "tags": {
    "amenity": "drinking_water",
    "man_made": "water_tap"
  }
},
{
  "type": "node",
  "id": 7029766444,
  "lat": 52.3359865,
  "lon": 5.2190847,
  "tags": {
    "amenity": "drinking_water"
  }
},
{
  "type": "node",
  "id": 7029766445,
  "lat": 52.3718953,
  "lon": 5.2206300,
  "tags": {
    "amenity": "drinking_water",
    "fountain": "bottle_refill",
    "wheelchair": "yes"
  }
},
{
  "type": "node",
  "id": 7253738700,
  "lat": 52.1404033,
  "lon": 5.5897289,
  "tags": {
    "amenity": "drinking_water"
  }
},
{
  "type": "node",
  "id": 7277804053,
  "lat": 52.0130555,
  "lon": 5.4711937,
  "tags": {
    "amenity": "drinking_water",
    "bottle": "yes",
    "drinking_water": "yes",
    "fee": "no",
    "operator": "MTB Heuvelrug",
    "wheelchair": "limited"
  }
},
{
  "type": "node",
  "id": 7418819449,
  "lat": 52.1638776,
  "lon": 5.3606977,
  "tags": {
    "access": "yes",
    "amenity": "drinking_water",
    "fee": "no",
    "operator": "Join the Pipe"
  }
},
{
  "type": "node",
  "id": 7439303391,
  "lat": 52.2378706,
  "lon": 5.1741138,
  "tags": {
    "amenity": "drinking_water",
    "operator": "NS"
  }
},
{
  "type": "node",
  "id": 7439303392,
  "lat": 52.2264119,
  "lon": 5.1812079,
  "tags": {
    "amenity": "drinking_water",
    "fountain": "bottle_refill",
    "operator": "NS",
    "operator:wikidata": "Q23076"
  }
},
{
  "type": "node",
  "id": 7439303393,
  "lat": 52.2160751,
  "lon": 5.1867656,
  "tags": {
    "amenity": "drinking_water",
    "fountain": "drinking",
    "operator": "Join The Pipe"
  }
},
{
  "type": "node",
  "id": 7540298546,
  "lat": 52.0828551,
  "lon": 5.6483090,
  "tags": {
    "amenity": "drinking_water",
    "bottle": "yes"
  }
},
{
  "type": "node",
  "id": 7549300887,
  "lat": 52.0222302,
  "lon": 5.2395745,
  "tags": {
    "amenity": "drinking_water"
  }
},
{
  "type": "node",
  "id": 7602556495,
  "lat": 52.2198142,
  "lon": 5.1662005,
  "tags": {
    "amenity": "drinking_water",
    "bottle": "yes",
    "operator": "Join The Pipe"
  }
},
{
  "type": "node",
  "id": 7616655285,
  "lat": 52.6653859,
  "lon": 5.0430896,
  "tags": {
    "access": "yes",
    "amenity": "drinking_water",
    "bottle": "yes",
    "drinking_water": "yes",
    "fee": "no",
    "indoor": "no",
    "wheelchair": "yes"
  }
},
{
  "type": "node",
  "id": 7629107892,
  "lat": 52.4590464,
  "lon": 5.0363693,
  "tags": {
    "access": "yes",
    "amenity": "drinking_water",
    "bottle": "yes",
    "description": "Public water tap",
    "fee": "no",
    "fountain": "bottle_refill",
    "note": "Visited june 17th, 2020",
    "operator": "PWN",
    "operator:short": "PWN",
    "operator:wikidata": "Q1968432",
    "source": "gps",
    "wheelchair": "yes"
  }
},
{
  "type": "node",
  "id": 7656852935,
  "lat": 52.3857221,
  "lon": 5.9912036,
  "tags": {
    "amenity": "drinking_water"
  }
},
{
  "type": "node",
  "id": 7781634564,
  "lat": 52.2641328,
  "lon": 5.0451286,
  "tags": {
    "access": "yes",
    "amenity": "drinking_water",
    "bottle": "yes",
    "fee": "no",
    "operator": "PWN",
    "operator:short": "PWN",
    "operator:wikidata": "Q1968432",
    "source": "gps",
    "wheelchair": "yes"
  }
},
{
  "type": "node",
  "id": 7781634565,
  "lat": 52.7837092,
  "lon": 5.9411260,
  "tags": {
    "access": "yes",
    "amenity": "drinking_water",
    "bottle": "yes",
    "fee": "no",
    "fountain": "drinking",
    "operator": "Join the Pipe",
    "wheelchair": "yes"
  }
},
{
  "type": "node",
  "id": 7803241408,
  "lat": 52.7702351,
  "lon": 5.1084293,
  "tags": {
    "access": "yes",
    "amenity": "drinking_water",
    "bottle": "yes",
    "fee": "no",
    "operator": "PWN",
    "operator:short": "PWN",
    "operator:wikidata": "Q1968432",
    "source": "gps",
    "wheelchair": "limited"
  }
},
{
  "type": "node",
  "id": 7803241409,
  "lat": 52.6952551,
  "lon": 5.2356850,
  "tags": {
    "access": "yes",
    "amenity": "drinking_water",
    "bottle": "yes",
    "fee": "no",
    "operator": "PWN",
    "operator:short": "PWN",
    "operator:wikidata": "Q1968432",
    "source": "gps",
    "wheelchair": "yes"
  }
},
{
  "type": "node",
  "id": 7803241410,
  "lat": 52.6961172,
  "lon": 5.2346457,
  "tags": {
    "access": "yes",
    "amenity": "drinking_water",
    "bottle": "yes",
    "fee": "no",
    "operator": "PWN",
    "operator:short": "PWN",
    "operator:wikidata": "Q1968432",
    "source": "gps",
    "wheelchair": "yes"
  }
},
{
  "type": "node",
  "id": 7806824480,
  "lat": 52.7666160,
  "lon": 5.1177180,
  "tags": {
    "access": "yes",
    "amenity": "drinking_water",
    "bottle": "yes",
    "drinking_water": "yes",
    "fee": "no",
    "operator": "PWN",
    "operator:short": "PWN",
    "operator:wikidata": "Q1968432",
    "source": "https://www.pwn.nl/zakelijk/pwn-watertap;gps",
    "wheelchair": "yes"
  }
},
{
  "type": "node",
  "id": 7837305247,
  "lat": 52.0980165,
  "lon": 5.8290579,
  "tags": {
    "access": "yes",
    "amenity": "toilets",
    "drinking_water": "yes",
    "fee": "no",
    "toilets:disposal": "flush"
  }
},
{
  "type": "node",
  "id": 7869676408,
  "lat": 52.0852974,
  "lon": 5.1186534,
  "tags": {
    "drinking_water": "yes",
    "drinking_water:legal": "yes",
    "image": "https://images.mapillary.com/PYfJVHZVRoSC4sTv5Vyiw4/thumb-2048.jpg",
    "man_made": "water_tap",
    "mapillary": "317610873270595"
  }
},
{
  "type": "node",
  "id": 7878638617,
  "lat": 52.1837814,
  "lon": 5.2999101,
  "tags": {
    "amenity": "drinking_water",
    "man_made": "water_tap"
  }
},
{
  "type": "node",
  "id": 7894696219,
  "lat": 52.2315200,
  "lon": 5.7511003,
  "tags": {
    "access": "customers",
    "amenity": "toilets",
    "drinking_water": "yes",
    "female": "yes",
    "male": "yes",
    "operator": "Camping Meerveld"
  }
},
{
  "type": "node",
  "id": 7900311736,
  "lat": 52.1104866,
  "lon": 5.1250951,
  "tags": {
    "amenity": "drinking_water"
  }
},
{
  "type": "node",
  "id": 7914059548,
  "lat": 52.2171010,
  "lon": 5.4441408,
  "tags": {
    "access": "customers",
    "amenity": "toilets",
    "drinking_water": "yes"
  }
},
{
  "type": "node",
  "id": 7917169263,
  "lat": 52.2397544,
  "lon": 5.1132188,
  "tags": {
    "amenity": "drinking_water",
    "bottle": "yes",
    "fee": "no",
    "operator": "PWN",
    "operator:short": "PWN",
    "operator:wikidata": "Q1968432",
    "source": "gps",
    "wheelchair": "yes"
  }
},
{
  "type": "node",
  "id": 7917169264,
  "lat": 52.2667790,
  "lon": 5.1569160,
  "tags": {
    "amenity": "drinking_water",
    "bottle": "yes",
    "fee": "no",
    "fountain": "bottle_refill",
    "operator": "N.V. PWN Waterleidingbedrijf Noord-Holland",
    "operator:short": "PWN",
    "operator:wikidata": "Q1968432",
    "source": "gps",
    "wheelchair": "yes"
  }
},
{
  "type": "node",
  "id": 7917169265,
  "lat": 52.2809386,
  "lon": 5.1581437,
  "tags": {
    "amenity": "drinking_water",
    "bottle": "yes",
    "fee": "no",
    "fountain": "bottle_refill",
    "operator": "N.V. PWN Waterleidingbedrijf Noord-Holland",
    "operator:short": "PWN",
    "operator:wikidata": "Q1968432",
    "source": "gps",
    "wheelchair": "yes"
  }
},
{
  "type": "node",
  "id": 7917169266,
  "lat": 52.3117197,
  "lon": 5.0439316,
  "tags": {
    "amenity": "drinking_water",
    "bottle": "yes",
    "fee": "no",
    "operator": "PWN",
    "operator:short": "PWN",
    "operator:wikidata": "Q1968432",
    "source": "gps",
    "wheelchair": "yes"
  }
},
{
  "type": "node",
  "id": 7917192087,
  "lat": 52.6535886,
  "lon": 5.0857205,
  "tags": {
    "amenity": "drinking_water",
    "bottle": "yes",
    "fee": "no",
    "operator": "PWN",
    "operator:short": "PWN",
    "operator:wikidata": "Q1968432",
    "source": "gps",
    "wheelchair": "yes"
  }
},
{
  "type": "node",
  "id": 7917192088,
  "lat": 52.6341483,
  "lon": 5.1223975,
  "tags": {
    "amenity": "drinking_water",
    "bottle": "yes",
    "fee": "no",
    "operator": "N.V. PWN Waterleidingbedrijf Noord-Holland",
    "operator:short": "PWN",
    "operator:wikidata": "Q1968432",
    "source": "gps",
    "wheelchair": "yes"
  }
},
{
  "type": "node",
  "id": 7917192089,
  "lat": 52.6623389,
  "lon": 5.1992943,
  "tags": {
    "amenity": "drinking_water",
    "bottle": "yes",
    "fee": "no",
    "operator": "N.V. PWN Waterleidingbedrijf Noord-Holland",
    "operator:short": "PWN",
    "operator:wikidata": "Q1968432",
    "source": "gps",
    "wheelchair": "yes"
  }
},
{
  "type": "node",
  "id": 7917192090,
  "lat": 52.6904847,
  "lon": 5.1822830,
  "tags": {
    "amenity": "drinking_water",
    "bottle": "yes",
    "fee": "no",
    "operator": "N.V. PWN Waterleidingbedrijf Noord-Holland",
    "operator:short": "PWN",
    "operator:wikidata": "Q1968432",
    "source": "gps",
    "wheelchair": "yes"
  }
},
{
  "type": "node",
  "id": 7917192091,
  "lat": 52.7108480,
  "lon": 5.2509521,
  "tags": {
    "amenity": "drinking_water",
    "bottle": "yes",
    "fee": "no",
    "fountain": "bottle_refill",
    "operator": "PWN",
    "operator:short": "PWN",
    "operator:wikidata": "Q1968432",
    "source": "gps",
    "wheelchair": "yes"
  }
},
{
  "type": "node",
  "id": 7917192092,
  "lat": 52.6997934,
  "lon": 5.2885238,
  "tags": {
    "amenity": "drinking_water",
    "bottle": "yes",
    "fee": "no",
    "fountain": "bottle_refill",
    "operator": "PWN",
    "operator:short": "PWN",
    "operator:wikidata": "Q1968432",
    "panoramax": "bea5b446-40f2-41da-a31b-0fded4aefaa4",
    "source": "gps",
    "wheelchair": "yes"
  }
},
{
  "type": "node",
  "id": 7917192093,
  "lat": 52.7375484,
  "lon": 5.1676561,
  "tags": {
    "amenity": "drinking_water",
    "bottle": "yes",
    "fee": "no",
    "operator": "N.V. PWN Waterleidingbedrijf Noord-Holland",
    "operator:short": "PWN",
    "operator:wikidata": "Q1968432",
    "source": "gps",
    "wheelchair": "yes"
  }
},
{
  "type": "node",
  "id": 7925068889,
  "lat": 52.0855615,
  "lon": 5.1769933,
  "tags": {
    "access": "yes",
    "amenity": "drinking_water",
    "drinking_water": "yes",
    "man_made": "water_tap",
    "operator": "Vitens",
    "operator:wikidata": "Q1943963"
  }
},
{
  "type": "node",
  "id": 7941519036,
  "lat": 52.6963328,
  "lon": 5.2518099,
  "tags": {
    "access": "permissive",
    "amenity": "drinking_water",
    "bottle": "yes",
    "fee": "no",
    "man_made": "water_tap"
  }
},
{
  "type": "node",
  "id": 7966707485,
  "lat": 52.1240682,
  "lon": 5.9995308,
  "tags": {
    "amenity": "drinking_water",
    "man_made": "water_well",
    "pump": "manual"
  }
},
{
  "type": "node",
  "id": 8018503773,
  "lat": 52.1008675,
  "lon": 5.2217819,
  "tags": {
    "access": "yes",
    "amenity": "drinking_water",
    "bottle": "yes",
    "fee": "no",
    "opening_hours": "24/7",
    "operator": "Vitens / Join the Pipe",
    "wheelchair": "yes"
  }
},
{
  "type": "node",
  "id": 8101070556,
  "lat": 52.3489132,
  "lon": 5.9856284,
  "tags": {
    "amenity": "drinking_water",
    "fee": "no"
  }
},
{
  "type": "node",
  "id": 8325386821,
  "lat": 52.3486262,
  "lon": 5.6478232,
  "tags": {
    "amenity": "drinking_water"
  }
},
{
  "type": "node",
  "id": 8325386823,
  "lat": 52.3476038,
  "lon": 5.6146399,
  "tags": {
    "amenity": "drinking_water"
  }
},
{
  "type": "node",
  "id": 8410225584,
  "lat": 52.0697965,
  "lon": 5.1349726,
  "tags": {
    "amenity": "drinking_water",
    "operator": "Join the pipe"
  }
},
{
  "type": "node",
  "id": 8638461727,
  "lat": 52.3515479,
  "lon": 5.6179433,
  "tags": {
    "amenity": "drinking_water",
    "man_made": "water_tap"
  }
},
{
  "type": "node",
  "id": 8638498754,
  "lat": 52.3486116,
  "lon": 5.6204616,
  "tags": {
    "amenity": "drinking_water",
    "man_made": "water_tap"
  }
},
{
  "type": "node",
  "id": 8693057279,
  "lat": 52.0054754,
  "lon": 5.7919854,
  "tags": {
    "access": "yes",
    "amenity": "drinking_water",
    "fee": "no",
    "wheelchair": "yes"
  }
},
{
  "type": "node",
  "id": 8711798855,
  "lat": 52.3093218,
  "lon": 5.2430081,
  "tags": {
    "amenity": "drinking_water"
  }
},
{
  "type": "node",
  "id": 8723130367,
  "lat": 52.0823475,
  "lon": 5.4147050,
  "tags": {
    "amenity": "drinking_water"
  }
},
{
  "type": "node",
  "id": 8725452675,
  "lat": 52.1197638,
  "lon": 5.5080886,
  "tags": {
    "amenity": "drinking_water"
  }
},
{
  "type": "node",
  "id": 8734933021,
  "lat": 52.1346435,
  "lon": 5.2701962,
  "tags": {
    "amenity": "drinking_water",
    "bottle": "yes",
    "fee": "no",
    "man_made": "water_tap",
    "name": "Join the Pipe"
  }
},
{
  "type": "node",
  "id": 8772526635,
  "lat": 52.1174791,
  "lon": 5.0900134,
  "tags": {
    "amenity": "drinking_water",
    "bottle": "yes",
    "fee": "no",
    "man_made": "water_tap",
    "opening_hours": "24/7",
    "seasonal": "no"
  }
},
{
  "type": "node",
  "id": 8825810164,
  "lat": 52.0622497,
  "lon": 5.7614827,
  "tags": {
    "amenity": "drinking_water"
  }
},
{
  "type": "node",
  "id": 8842510506,
  "lat": 52.0327442,
  "lon": 5.4176302,
  "tags": {
    "access": "yes",
    "amenity": "drinking_water",
    "bottle": "yes",
    "drinking_water": "yes",
    "fee": "no",
    "operator": "MTB Heuvelrug",
    "wheelchair": "yes"
  }
},
{
  "type": "node",
  "id": 8868831891,
  "lat": 52.0547271,
  "lon": 5.2781824,
  "tags": {
    "access": "yes",
    "amenity": "drinking_water",
    "bottle": "yes",
    "fee": "no",
    "man_made": "water_tap",
    "wheelchair": "yes"
  }
},
{
  "type": "node",
  "id": 8875011250,
  "lat": 52.2105563,
  "lon": 5.2915281,
  "tags": {
    "amenity": "drinking_water"
  }
},
{
  "type": "node",
  "id": 8920395605,
  "lat": 52.8545908,
  "lon": 5.5109216,
  "tags": {
    "amenity": "toilets",
    "drinking_water": "yes"
  }
},
{
  "type": "node",
  "id": 8930442167,
  "lat": 52.4474867,
  "lon": 5.8361675,
  "tags": {
    "access": "yes",
    "amenity": "drinking_water",
    "bottle": "yes",
    "fee": "no",
    "man_made": "water_tap",
    "panoramax": "1bd39ee9-b54a-4e21-b9e6-f41cba546e4a"
  }
},
{
  "type": "node",
  "id": 9007233035,
  "lat": 52.0460024,
  "lon": 5.5737720,
  "tags": {
    "amenity": "drinking_water",
    "fountain": "bottle_refill"
  }
},
{
  "type": "node",
  "id": 9017396905,
  "lat": 52.9348703,
  "lon": 5.9565916,
  "tags": {
    "amenity": "drinking_water",
    "bottle": "yes"
  }
},
{
  "type": "node",
  "id": 9018035464,
  "lat": 52.1306702,
  "lon": 5.2055453,
  "tags": {
    "access": "yes",
    "amenity": "drinking_water",
    "bottle": "yes",
    "fee": "no",
    "wheelchair": "yes"
  }
},
{
  "type": "node",
  "id": 9018153121,
  "lat": 52.0916407,
  "lon": 5.1383297,
  "tags": {
    "access": "yes",
    "amenity": "drinking_water",
    "bottle": "yes",
    "fee": "no",
    "operator": "Vitens",
    "operator:wikidata": "Q1943963",
    "operator:wikipedia": "nl:Vitens",
    "wheelchair": "yes"
  }
},
{
  "type": "node",
  "id": 9022985225,
  "lat": 52.0093593,
  "lon": 5.9116720,
  "tags": {
    "access": "customers",
    "amenity": "drinking_water",
    "bottle": "yes",
    "covered": "no",
    "fee": "no",
    "indoor": "no",
    "lit": "no",
    "man_made": "water_tap"
  }
},
{
  "type": "node",
  "id": 9032551564,
  "lat": 52.9360956,
  "lon": 5.8925340,
  "tags": {
    "amenity": "drinking_water",
    "bottle": "yes",
    "wheelchair": "yes"
  }
},
{
  "type": "node",
  "id": 9038999814,
  "lat": 52.0473535,
  "lon": 5.2349595,
  "tags": {
    "amenity": "drinking_water",
    "man_made": "water_tap"
  }
},
{
  "type": "node",
  "id": 9080835462,
  "lat": 52.3009059,
  "lon": 5.6290433,
  "tags": {
    "access": "yes",
    "amenity": "drinking_water",
    "bottle": "yes",
    "fee": "no",
    "man_made": "water_tap",
    "wheelchair": "yes"
  }
},
{
  "type": "node",
  "id": 9122012215,
  "lat": 52.2188824,
  "lon": 5.1365922,
  "tags": {
    "amenity": "drinking_water"
  }
},
{
  "type": "node",
  "id": 9204217983,
  "lat": 52.5599441,
  "lon": 5.9216479,
  "tags": {
    "amenity": "drinking_water",
    "bottle": "yes",
    "panoramax": "acf5aa7f-1170-4248-bee6-27dfa86b1497"
  }
},
{
  "type": "node",
  "id": 9239012136,
  "lat": 52.1779779,
  "lon": 5.1790717,
  "tags": {
    "access": "yes",
    "amenity": "drinking_water",
    "bottle": "yes",
    "fee": "no",
    "indoor": "no",
    "operator": "Nederlandse Spoorwegen",
    "wheelchair": "yes"
  }
},
{
  "type": "node",
  "id": 9241869314,
  "lat": 52.1579280,
  "lon": 5.0918140,
  "tags": {
    "access": "permissive",
    "amenity": "toilets",
    "drinking_water": "yes",
    "fee": "no",
    "toilets:disposal": "flush",
    "toilets:position": "seated",
    "unisex": "yes"
  }
},
{
  "type": "node",
  "id": 9402256542,
  "lat": 52.0504332,
  "lon": 5.6271323,
  "tags": {
    "access": "yes",
    "amenity": "drinking_water",
    "drinking_water": "yes",
    "man_made": "water_tap"
  }
},
{
  "type": "node",
  "id": 9469713421,
  "lat": 52.0365571,
  "lon": 5.7349024,
  "tags": {
    "access": "yes",
    "amenity": "drinking_water",
    "bottle": "yes",
    "drinking_water": "yes",
    "fee": "no",
    "man_made": "water_tap"
  }
},
{
  "type": "node",
  "id": 9469773384,
  "lat": 52.0173897,
  "lon": 5.7266587,
  "tags": {
    "access": "yes",
    "amenity": "drinking_water",
    "bottle": "yes",
    "drinking_water": "yes",
    "fee": "no"
  }
},
{
  "type": "node",
  "id": 9665957163,
  "lat": 52.9341119,
  "lon": 5.4058606,
  "tags": {
    "access": "customers",
    "amenity": "drinking_water",
    "drinking_water": "yes",
    "man_made": "water_tap"
  }
},
{
  "type": "node",
  "id": 9700173597,
  "lat": 52.0335676,
  "lon": 5.1538775,
  "tags": {
    "amenity": "drinking_water",
    "man_made": "water_tap"
  }
},
{
  "type": "node",
  "id": 9722460941,
  "lat": 52.0420928,
  "lon": 5.6688016,
  "tags": {
    "amenity": "drinking_water",
    "man_made": "water_tap"
  }
},
{
  "type": "node",
  "id": 9740081846,
  "lat": 52.2170764,
  "lon": 5.7938772,
  "tags": {
    "amenity": "drinking_water",
    "drinking_water": "yes",
    "man_made": "water_tap"
  }
},
{
  "type": "node",
  "id": 9775480892,
  "lat": 52.9085280,
  "lon": 5.9179489,
  "tags": {
    "amenity": "water_point",
    "drinking_water": "yes"
  }
},
{
  "type": "node",
  "id": 9789696669,
  "lat": 52.3305190,
  "lon": 5.5949726,
  "tags": {
    "amenity": "drinking_water"
  }
},
{
  "type": "node",
  "id": 9791213634,
  "lat": 52.0624672,
  "lon": 5.7613743,
  "tags": {
    "access": "yes",
    "amenity": "drinking_water",
    "drinking_water": "yes",
    "man_made": "water_tap"
  }
},
{
  "type": "node",
  "id": 9795755088,
  "lat": 52.7049301,
  "lon": 5.3036861,
  "tags": {
    "access": "yes",
    "drinking_water": "yes",
    "fee": "no",
    "operator": "Compagnieshaven"
  }
},
{
  "type": "node",
  "id": 9828682194,
  "lat": 52.6321431,
  "lon": 5.0116841,
  "tags": {
    "amenity": "water_point",
    "drinking_water": "yes"
  }
},
{
  "type": "node",
  "id": 9830628044,
  "lat": 52.0653388,
  "lon": 5.2606053,
  "tags": {
    "access": "yes",
    "amenity": "drinking_water",
    "fountain": "bottle_refill",
    "wheelchair": "yes"
  }
},
{
  "type": "node",
  "id": 9838441112,
  "lat": 52.0822154,
  "lon": 5.0176544,
  "tags": {
    "drinking_water": "yes",
    "drinking_water:legal": "yes",
    "man_made": "water_tap"
  }
},
{
  "type": "node",
  "id": 9862641341,
  "lat": 52.1184347,
  "lon": 5.8745033,
  "tags": {
    "amenity": "drinking_water",
    "note": "Public accessible water tap at the rear end of the parking lot.",
    "operator": "Brunch Hoenderloo"
  }
},
{
  "type": "node",
  "id": 9907706129,
  "lat": 52.3568897,
  "lon": 5.0160337,
  "tags": {
    "drinking_water": "yes",
    "man_made": "water_tap"
  }
},
{
  "type": "node",
  "id": 9908803806,
  "lat": 52.3587753,
  "lon": 5.0148217,
  "tags": {
    "amenity": "drinking_water",
    "man_made": "water_tap"
  }
},
{
  "type": "node",
  "id": 9908967316,
  "lat": 52.0875051,
  "lon": 5.1309971,
  "tags": {
    "amenity": "drinking_water",
    "bottle": "yes",
    "fountain": "bottle_refill",
    "operator": "Nederlandse Spoorwegen",
    "operator:wikidata": "Q23076",
    "panoramax": "033bbf55-92ba-427e-9784-337bfbc9265d"
  }
},
{
  "type": "node",
  "id": 9936620933,
  "lat": 52.9151873,
  "lon": 5.4506313,
  "tags": {
    "access": "yes",
    "amenity": "drinking_water",
    "bottle": "yes",
    "fee": "no",
    "man_made": "water_tap"
  }
},
{
  "type": "node",
  "id": 9952128673,
  "lat": 52.7373538,
  "lon": 5.9494736,
  "tags": {
    "access": "permissive",
    "amenity": "drinking_water",
    "bottle": "yes",
    "fee": "no",
    "man_made": "water_tap"
  }
},
{
  "type": "node",
  "id": 9952616148,
  "lat": 52.2951362,
  "lon": 5.1646455,
  "tags": {
    "access": "yes",
    "amenity": "drinking_water",
    "bottle": "yes",
    "fee": "no",
    "man_made": "water_tap",
    "operator": "N.V. PWN Waterleidingbedrijf Noord-Holland",
    "operator:short": "PWN",
    "operator:wikidata": "Q1968432",
    "wheelchair": "yes"
  }
},
{
  "type": "node",
  "id": 9971630517,
  "lat": 52.0897544,
  "lon": 5.1168416,
  "tags": {
    "drinking_water": "yes",
    "drinking_water:legal": "yes",
    "man_made": "water_tap"
  }
},
{
  "type": "node",
  "id": 10049144769,
  "lat": 52.0815904,
  "lon": 5.1242446,
  "tags": {
    "access": "yes",
    "amenity": "drinking_water",
    "bottle": "yes",
    "fee": "no",
    "man_made": "water_tap",
    "operator": "Vitens / Join the Pipe",
    "wheelchair": "yes"
  }
},
{
  "type": "node",
  "id": 10075556813,
  "lat": 52.2613959,
  "lon": 5.6071980,
  "tags": {
    "amenity": "drinking_water",
    "name": "Join the Pipe"
  }
},
{
  "type": "node",
  "id": 10129883390,
  "lat": 52.5333351,
  "lon": 5.9134509,
  "tags": {
    "amenity": "drinking_water"
  }
},
{
  "type": "node",
  "id": 10269902994,
  "lat": 52.0244895,
  "lon": 5.5572273,
  "tags": {
    "amenity": "drinking_water"
  }
},
{
  "type": "node",
  "id": 10814084926,
  "lat": 52.6374181,
  "lon": 5.0634218,
  "tags": {
    "drinking_water": "yes",
    "man_made": "water_tap"
  }
},
{
  "type": "node",
  "id": 10827221142,
  "lat": 52.5080194,
  "lon": 5.4730224,
  "tags": {
    "amenity": "drinking_water",
    "bottle": "yes",
    "panoramax": "d6fb1376-90a1-43c2-b429-6181dfeb3054"
  }
},
{
  "type": "node",
  "id": 10915742534,
  "lat": 52.3475625,
  "lon": 5.6181560,
  "tags": {
    "amenity": "drinking_water"
  }
},
{
  "type": "node",
  "id": 10916471717,
  "lat": 52.5684852,
  "lon": 5.6340697,
  "tags": {
    "amenity": "water_point",
    "drinking_water": "yes"
  }
},
{
  "type": "node",
  "id": 10973509043,
  "lat": 52.9606474,
  "lon": 5.9159549,
  "tags": {
    "amenity": "drinking_water",
    "bottle": "yes",
    "drinking_water": "yes",
    "fee": "no",
    "man_made": "water_tap",
    "opening_hours": "24/7",
    "panoramax": "5c07bd19-6e9d-4e51-8e2e-7414f7beb674",
    "seasonal": "no"
  }
},
{
  "type": "node",
  "id": 11003466657,
  "lat": 52.0522121,
  "lon": 5.3106651,
  "tags": {
    "amenity": "drinking_water",
    "bottle": "yes",
    "fee": "no"
  }
},
{
  "type": "node",
  "id": 11020066969,
  "lat": 52.1290446,
  "lon": 5.2801182,
  "tags": {
    "access": "yes",
    "amenity": "drinking_water",
    "bottle": "yes",
    "fee": "no",
    "survey:date": "2023-07-01"
  }
},
{
  "type": "node",
  "id": 11020746125,
  "lat": 52.1238922,
  "lon": 5.1260705,
  "tags": {
    "access": "yes",
    "drinking_water": "yes",
    "man_made": "water_tap"
  }
},
{
  "type": "node",
  "id": 11052841452,
  "lat": 52.2654123,
  "lon": 5.5759436,
  "tags": {
    "amenity": "drinking_water",
    "man_made": "water_tap",
    "opening_hours": "24/7",
    "operator": "NS",
    "operator:wikidata": "Q23076",
    "operator:wikipedia": "nl:Nederlandse Spoorwegen"
  }
},
{
  "type": "node",
  "id": 11082006672,
  "lat": 52.1785195,
  "lon": 5.3860293,
  "tags": {
    "amenity": "drinking_water",
    "fountain": "bottle_refill"
  }
},
{
  "type": "node",
  "id": 11139304869,
  "lat": 52.2855065,
  "lon": 5.2538334,
  "tags": {
    "amenity": "drinking_water"
  }
},
{
  "type": "node",
  "id": 11140524740,
  "lat": 52.3380756,
  "lon": 5.2214348,
  "tags": {
    "amenity": "drinking_water"
  }
},
{
  "type": "node",
  "id": 11140563245,
  "lat": 52.3678780,
  "lon": 5.1905371,
  "tags": {
    "amenity": "drinking_water"
  }
},
{
  "type": "node",
  "id": 11180462960,
  "lat": 52.2274526,
  "lon": 5.0876086,
  "tags": {
    "amenity": "drinking_water"
  }
},
{
  "type": "node",
  "id": 11193520280,
  "lat": 52.0878438,
  "lon": 5.1694240,
  "tags": {
    "amenity": "drinking_water",
    "fountain": "bottle_refill"
  }
},
{
  "type": "node",
  "id": 11234154338,
  "lat": 52.4479370,
  "lon": 5.8350334,
  "tags": {
    "amenity": "drinking_water"
  }
},
{
  "type": "node",
  "id": 11282142856,
  "lat": 52.3057450,
  "lon": 5.1914941,
  "tags": {
    "access": "customers",
    "amenity": "toilets",
    "changing_table": "yes",
    "drinking_water": "yes",
    "female": "yes",
    "male": "yes"
  }
},
{
  "type": "node",
  "id": 11302347808,
  "lat": 52.1532891,
  "lon": 5.3740455,
  "tags": {
    "access": "yes",
    "amenity": "drinking_water",
    "bottle": "yes",
    "fee": "no",
    "fountain": "bottle_refill",
    "indoor": "no",
    "operator": "Nederlandse Spoorwegen",
    "operator:wikidata": "Q23076",
    "wheelchair": "yes"
  }
},
{
  "type": "node",
  "id": 11630905497,
  "lat": 52.5611354,
  "lon": 5.9148166,
  "tags": {
    "amenity": "drinking_water",
    "fountain": "bottle_refill"
  }
},
{
  "type": "node",
  "id": 11740916444,
  "lat": 52.2565977,
  "lon": 5.2256223,
  "tags": {
    "amenity": "drinking_water",
    "man_made": "water_tap"
  }
},
{
  "type": "node",
  "id": 11760902079,
  "lat": 52.0126491,
  "lon": 5.9138305,
  "tags": {
    "access": "customers",
    "amenity": "drinking_water",
    "man_made": "water_tap"
  }
},
{
  "type": "node",
  "id": 11824814991,
  "lat": 52.2024847,
  "lon": 5.9565425,
  "tags": {
    "access": "yes",
    "amenity": "drinking_water",
    "bottle": "yes",
    "fee": "no",
    "man_made": "water_tap"
  }
},
{
  "type": "node",
  "id": 11868946413,
  "lat": 52.4153131,
  "lon": 5.8837257,
  "tags": {
    "amenity": "drinking_water"
  }
},
{
  "type": "node",
  "id": 11874090148,
  "lat": 52.6507947,
  "lon": 5.2219399,
  "tags": {
    "amenity": "drinking_water",
    "bottle": "yes"
  }
},
{
  "type": "node",
  "id": 11878466277,
  "lat": 52.7884851,
  "lon": 5.7981972,
  "tags": {
    "amenity": "drinking_water",
    "bottle": "yes",
    "covered": "yes",
    "indoor": "no"
  }
},
{
  "type": "node",
  "id": 11889548409,
  "lat": 52.0111128,
  "lon": 5.3848912,
  "tags": {
    "access": "customers",
    "drinking_water": "yes",
    "man_made": "water_tap"
  }
},
{
  "type": "node",
  "id": 11944553763,
  "lat": 52.5714840,
  "lon": 5.6429009,
  "tags": {
    "access": "yes",
    "amenity": "drinking_water",
    "drinking_water": "yes",
    "man_made": "water_tap"
  }
},
{
  "type": "node",
  "id": 11951803507,
  "lat": 52.5345871,
  "lon": 5.9311962,
  "tags": {
    "drinking_water": "yes",
    "man_made": "water_tap"
  }
},
{
  "type": "node",
  "id": 11959856873,
  "lat": 52.1322417,
  "lon": 5.2744701,
  "tags": {
    "amenity": "drinking_water",
    "bottle": "yes",
    "drinking_water": "yes",
    "drinking_water:legal": "yes",
    "drinking_water:refill": "yes",
    "man_made": "water_tap",
    "wheelchair": "yes"
  }
},
{
  "type": "node",
  "id": 11982584638,
  "lat": 52.0310142,
  "lon": 5.1434810,
  "tags": {
    "amenity": "drinking_water",
    "man_made": "water_tap"
  }
},
{
  "type": "node",
  "id": 11987670344,
  "lat": 52.1036129,
  "lon": 5.5393767,
  "tags": {
    "amenity": "drinking_water"
  }
},
{
  "type": "node",
  "id": 11987670345,
  "lat": 52.1038396,
  "lon": 5.5392966,
  "tags": {
    "amenity": "drinking_water"
  }
},
{
  "type": "node",
  "id": 11987670346,
  "lat": 52.1040871,
  "lon": 5.5391925,
  "tags": {
    "amenity": "drinking_water"
  }
},
{
  "type": "node",
  "id": 11987670347,
  "lat": 52.1037762,
  "lon": 5.5388578,
  "tags": {
    "amenity": "drinking_water"
  }
},
{
  "type": "node",
  "id": 11987670348,
  "lat": 52.1035448,
  "lon": 5.5389484,
  "tags": {
    "amenity": "drinking_water"
  }
},
{
  "type": "node",
  "id": 11987670349,
  "lat": 52.1034827,
  "lon": 5.5385111,
  "tags": {
    "amenity": "drinking_water"
  }
},
{
  "type": "node",
  "id": 11987670350,
  "lat": 52.1037127,
  "lon": 5.5384250,
  "tags": {
    "amenity": "drinking_water"
  }
},
{
  "type": "node",
  "id": 11987670351,
  "lat": 52.1040190,
  "lon": 5.5387650,
  "tags": {
    "amenity": "drinking_water"
  }
},
{
  "type": "node",
  "id": 11987670352,
  "lat": 52.1039519,
  "lon": 5.5383389,
  "tags": {
    "amenity": "drinking_water"
  }
},
{
  "type": "node",
  "id": 11994550605,
  "lat": 52.0960469,
  "lon": 5.0685515,
  "tags": {
    "access": "yes",
    "amenity": "drinking_water",
    "indoor": "no"
  }
},
{
  "type": "node",
  "id": 12006993838,
  "lat": 52.1558289,
  "lon": 5.3854334,
  "tags": {
    "access": "public",
    "drinking_water": "yes",
    "man_made": "water_tap"
  }
},
{
  "type": "node",
  "id": 12023709306,
  "lat": 52.3385958,
  "lon": 5.1364456,
  "tags": {
    "amenity": "drinking_water"
  }
},
{
  "type": "node",
  "id": 12023709314,
  "lat": 52.3291740,
  "lon": 5.1199947,
  "tags": {
    "amenity": "drinking_water"
  }
},
{
  "type": "node",
  "id": 12051715531,
  "lat": 52.1403113,
  "lon": 5.2423815,
  "tags": {
    "drinking_water": "yes",
    "man_made": "water_tap"
  }
},
{
  "type": "node",
  "id": 12068536884,
  "lat": 52.1476359,
  "lon": 5.9697268,
  "tags": {
    "access": "permissive",
    "amenity": "drinking_water",
    "bottle": "yes",
    "fee": "no",
    "man_made": "water_tap"
  }
},
{
  "type": "node",
  "id": 12077027769,
  "lat": 52.1649717,
  "lon": 5.3026352,
  "tags": {
    "amenity": "drinking_water"
  }
},
{
  "type": "node",
  "id": 12105817817,
  "lat": 52.1023202,
  "lon": 5.0941929,
  "tags": {
    "amenity": "drinking_water",
    "man_made": "water_tap"
  }
},
{
  "type": "node",
  "id": 12106137363,
  "lat": 52.2556387,
  "lon": 5.2635928,
  "tags": {
    "access": "yes",
    "amenity": "drinking_water",
    "drinking_water": "yes",
    "man_made": "water_tap",
    "operator": "Join The Pipe"
  }
},
{
  "type": "node",
  "id": 12107813967,
  "lat": 52.0198572,
  "lon": 5.5493437,
  "tags": {
    "access": "yes",
    "amenity": "drinking_water",
    "drinking_water": "yes",
    "fee": "no",
    "wheelchair": "yes"
  }
},
{
  "type": "node",
  "id": 12107964095,
  "lat": 52.0433060,
  "lon": 5.6683095,
  "tags": {
    "amenity": "drinking_water",
    "drinking_water": "yes",
    "fee": "no",
    "wheelchair": "yes"
  }
},
{
  "type": "node",
  "id": 12108574886,
  "lat": 52.0145921,
  "lon": 5.4260438,
  "tags": {
    "access": "yes",
    "amenity": "drinking_water",
    "drinking_water": "yes",
    "fee": "no",
    "wheelchair": "yes"
  }
},
{
  "type": "node",
  "id": 12110494253,
  "lat": 52.0212346,
  "lon": 5.5675540,
  "tags": {
    "access": "yes",
    "amenity": "drinking_water",
    "drinking_water": "yes",
    "fee": "no",
    "wheelchair": "yes"
  }
},
{
  "type": "node",
  "id": 12122492490,
  "lat": 52.0480439,
  "lon": 5.1875860,
  "tags": {
    "access": "customers",
    "amenity": "toilets",
    "changing_table": "no",
    "drinking_water": "yes",
    "fee": "no",
    "gender_segregated": "yes",
    "handwashing:hand_disinfection": "no",
    "handwashing:soap": "yes",
    "hot_water": "no",
    "male": "yes",
    "opening_hours": "24/7",
    "toilets:disposal": "flush",
    "toilets:hands_drying": "paper_towel",
    "toilets:handwashing": "yes",
    "toilets:menstrual_products": "no",
    "toilets:paper_supplied": "yes",
    "toilets:position": "seated;urinal"
  }
},
{
  "type": "node",
  "id": 12123894374,
  "lat": 52.0479637,
  "lon": 5.1875268,
  "tags": {
    "access": "customers",
    "amenity": "toilets",
    "changing_table": "yes",
    "child": "yes",
    "drinking_water": "yes",
    "fee": "no",
    "gender_segregated": "no",
    "handwashing:hand_disinfection": "no",
    "handwashing:soap": "yes",
    "hot_water": "yes",
    "shower": "yes",
    "toilets:disposal": "flush",
    "toilets:hands_drying": "paper_towel",
    "toilets:handwashing": "yes",
    "toilets:menstrual_products": "no",
    "toilets:paper_supplied": "yes",
    "toilets:position": "seated"
  }
},
{
  "type": "node",
  "id": 12123894375,
  "lat": 52.0479851,
  "lon": 5.1875425,
  "tags": {
    "access": "customers",
    "amenity": "toilets",
    "changing_table": "yes",
    "child": "yes",
    "drinking_water": "yes",
    "fee": "no",
    "gender_segregated": "no",
    "handwashing:hand_disinfection": "no",
    "handwashing:soap": "yes",
    "hot_water": "yes",
    "shower": "yes",
    "toilets:disposal": "flush",
    "toilets:hands_drying": "paper_towel",
    "toilets:handwashing": "yes",
    "toilets:menstrual_products": "no",
    "toilets:paper_supplied": "yes",
    "toilets:position": "seated"
  }
},
{
  "type": "node",
  "id": 12123939672,
  "lat": 52.0484206,
  "lon": 5.1878737,
  "tags": {
    "access": "customers",
    "amenity": "drinking_water",
    "drinking_water": "yes",
    "man_made": "water_tap"
  }
},
{
  "type": "node",
  "id": 12128314342,
  "lat": 52.0479317,
  "lon": 5.1877163,
  "tags": {
    "access": "customers",
    "amenity": "drinking_water",
    "drinking_water": "yes",
    "man_made": "water_tap"
  }
},
{
  "type": "node",
  "id": 12132022049,
  "lat": 52.0343628,
  "lon": 5.5275638,
  "tags": {
    "access": "yes",
    "amenity": "drinking_water",
    "fee": "no",
    "man_made": "water_tap",
    "wheelchair": "yes"
  }
},
{
  "type": "node",
  "id": 12143940788,
  "lat": 52.2150249,
  "lon": 5.4591333,
  "tags": {
    "access": "yes",
    "amenity": "drinking_water",
    "drinking_water": "yes",
    "man_made": "water_tap"
  }
},
{
  "type": "node",
  "id": 12149363585,
  "lat": 52.2082284,
  "lon": 5.2823572,
  "tags": {
    "access": "yes",
    "amenity": "drinking_water",
    "fee": "no",
    "wheelchair": "yes"
  }
},
{
  "type": "node",
  "id": 12149363586,
  "lat": 52.2188754,
  "lon": 5.2928803,
  "tags": {
    "access": "yes",
    "amenity": "drinking_water",
    "fee": "no",
    "wheelchair": "yes"
  }
},
{
  "type": "node",
  "id": 12149363587,
  "lat": 52.2202207,
  "lon": 5.2828666,
  "tags": {
    "access": "yes",
    "amenity": "drinking_water",
    "fee": "no",
    "fountain": "drinking",
    "wheelchair": "yes"
  }
},
{
  "type": "node",
  "id": 12149368374,
  "lat": 52.2219978,
  "lon": 5.4931067,
  "tags": {
    "access": "yes",
    "amenity": "drinking_water",
    "fee": "no",
    "wheelchair": "yes"
  }
},
{
  "type": "node",
  "id": 12149370283,
  "lat": 52.2239811,
  "lon": 5.4842705,
  "tags": {
    "access": "yes",
    "amenity": "drinking_water",
    "fee": "no",
    "wheelchair": "yes"
  }
},
{
  "type": "node",
  "id": 12149370284,
  "lat": 52.1399656,
  "lon": 5.5874529,
  "tags": {
    "access": "yes",
    "amenity": "drinking_water",
    "fee": "no",
    "wheelchair": "yes"
  }
},
{
  "type": "node",
  "id": 12149403232,
  "lat": 52.2527606,
  "lon": 5.3777736,
  "tags": {
    "access": "yes",
    "amenity": "drinking_water",
    "fee": "no",
    "wheelchair": "yes"
  }
},
{
  "type": "node",
  "id": 12149403233,
  "lat": 52.2464065,
  "lon": 5.3671481,
  "tags": {
    "access": "yes",
    "amenity": "drinking_water",
    "fee": "no",
    "wheelchair": "yes"
  }
},
{
  "type": "node",
  "id": 12164153071,
  "lat": 52.5253773,
  "lon": 5.7199822,
  "tags": {
    "amenity": "drinking_water",
    "fee": "no"
  }
},
{
  "type": "node",
  "id": 12168309802,
  "lat": 52.0333171,
  "lon": 5.3454132,
  "tags": {
    "access": "yes",
    "amenity": "drinking_water",
    "fee": "no",
    "wheelchair": "yes"
  }
},
{
  "type": "node",
  "id": 12168309803,
  "lat": 52.0239983,
  "lon": 5.2453016,
  "tags": {
    "access": "yes",
    "amenity": "drinking_water",
    "fee": "no",
    "wheelchair": "yes"
  }
},
{
  "type": "node",
  "id": 12177439649,
  "lat": 52.3761841,
  "lon": 5.7838169,
  "tags": {
    "amenity": "drinking_water"
  }
},
{
  "type": "node",
  "id": 12205093735,
  "lat": 52.1852178,
  "lon": 5.9332228,
  "tags": {
    "access": "yes",
    "amenity": "drinking_water",
    "bottle": "yes",
    "fee": "no",
    "indoor": "no",
    "operator": "Bronkerk Ugchelen",
    "start_date": "2024-09-11",
    "website": "https://www.bronkerk.nl/",
    "wheelchair": "yes"
  }
},
{
  "type": "node",
  "id": 12206772955,
  "lat": 52.1364058,
  "lon": 5.4298626,
  "tags": {
    "amenity": "drinking_water",
    "drinking_water": "yes",
    "fountain": "drinking",
    "man_made": "water_tap"
  }
},
{
  "type": "node",
  "id": 12246107092,
  "lat": 52.0900738,
  "lon": 5.1103947,
  "tags": {
    "amenity": "drinking_water",
    "bottle": "yes",
    "fee": "no",
    "fountain": "bottle_refill",
    "opening_hours": "24/7",
    "seasonal": "no"
  }
},
{
  "type": "node",
  "id": 12346422166,
  "lat": 52.0778653,
  "lon": 5.1179853,
  "tags": {
    "amenity": "drinking_water",
    "drinking_water": "yes",
    "man_made": "water_tap"
  }
},
{
  "type": "node",
  "id": 12385126987,
  "lat": 52.1186247,
  "lon": 5.4090209,
  "tags": {
    "access": "yes",
    "amenity": "drinking_water",
    "fee": "no",
    "fountain": "bottle_refill",
    "indoor": "no",
    "wheelchair": "yes"
  }
},
{
  "type": "node",
  "id": 12441510623,
  "lat": 52.0824103,
  "lon": 5.1180604,
  "tags": {
    "access": "yes",
    "amenity": "drinking_water",
    "bottle": "yes",
    "drinking_water": "yes",
    "fee": "no",
    "operator": "Join the Pipe",
    "wheelchair": "yes"
  }
},
{
  "type": "node",
  "id": 12475891266,
  "lat": 52.0657538,
  "lon": 5.3929992,
  "tags": {
    "access": "customers",
    "amenity": "drinking_water",
    "fee": "no"
  }
},
{
  "type": "node",
  "id": 12475891267,
  "lat": 52.0598054,
  "lon": 5.3948473,
  "tags": {
    "access": "customers",
    "amenity": "drinking_water",
    "fee": "no"
  }
},
{
  "type": "node",
  "id": 12475891268,
  "lat": 52.0620008,
  "lon": 5.4018907,
  "tags": {
    "access": "customers",
    "amenity": "drinking_water",
    "fee": "no"
  }
},
{
  "type": "node",
  "id": 12488897132,
  "lat": 52.3753999,
  "lon": 5.2596688,
  "tags": {
    "access": "private",
    "amenity": "drinking_water",
    "fee": "no",
    "wheelchair": "limited"
  }
},
{
  "type": "node",
  "id": 12505353954,
  "lat": 52.0809144,
  "lon": 5.5015012,
  "tags": {
    "access": "yes",
    "amenity": "drinking_water",
    "fee": "no"
  }
},
{
  "type": "node",
  "id": 12785923814,
  "lat": 52.6127320,
  "lon": 5.7436466,
  "tags": {
    "access": "yes",
    "amenity": "drinking_water",
    "fee": "no",
    "wheelchair": "limited"
  }
},
{
  "type": "node",
  "id": 12791877878,
  "lat": 52.2167529,
  "lon": 5.1872581,
  "tags": {
    "amenity": "drinking_water"
  }
},
{
  "type": "node",
  "id": 12834866666,
  "lat": 52.1743928,
  "lon": 5.8936268,
  "tags": {
    "access": "private",
    "drinking_water": "yes",
    "man_made": "water_well",
    "pump": "manual"
  }
},
{
  "type": "node",
  "id": 12853935853,
  "lat": 52.2169462,
  "lon": 5.7930661,
  "tags": {
    "amenity": "drinking_water",
    "drinking_water": "yes",
    "man_made": "water_tap"
  }
},
{
  "type": "node",
  "id": 12862082029,
  "lat": 52.1380650,
  "lon": 5.2920248,
  "tags": {
    "amenity": "drinking_water",
    "bottle": "yes",
    "drinking_water": "yes",
    "drinking_water:legal": "yes",
    "drinking_water:refill": "yes",
    "man_made": "water_tap",
    "wheelchair": "yes"
  }
},
{
  "type": "node",
  "id": 12876552575,
  "lat": 52.3253026,
  "lon": 5.6848279,
  "tags": {
    "access": "yes",
    "amenity": "drinking_water",
    "fee": "no",
    "wheelchair": "no"
  }
},
{
  "type": "node",
  "id": 12877009112,
  "lat": 52.5208007,
  "lon": 5.5004986,
  "tags": {
    "drinking_water": "yes",
    "waterway": "water_point"
  }
},
{
  "type": "node",
  "id": 12918927280,
  "lat": 52.1093183,
  "lon": 5.0315786,
  "tags": {
    "access": "yes",
    "amenity": "drinking_water",
    "bottle": "yes",
    "fee": "no",
    "operator": "Vitens/jointhepipe",
    "wheelchair": "yes"
  }
},
{
  "type": "node",
  "id": 12941256789,
  "lat": 52.0696012,
  "lon": 5.1043710,
  "tags": {
    "amenity": "drinking_water"
  }
},
{
  "type": "node",
  "id": 12970183310,
  "lat": 52.0610797,
  "lon": 5.8995236,
  "tags": {
    "access": "yes",
    "amenity": "drinking_water",
    "drinking_water": "yes",
    "man_made": "water_tap",
    "operator": "Rustpunt"
  }
},
{
  "type": "node",
  "id": 12996208786,
  "lat": 52.3527149,
  "lon": 5.6211748,
  "tags": {
    "access": "yes",
    "amenity": "drinking_water",
    "wheelchair": "yes"
  }
},
{
  "type": "node",
  "id": 13009068524,
  "lat": 52.2193693,
  "lon": 5.9848309,
  "tags": {
    "amenity": "drinking_water",
    "bottle": "yes",
    "cold_water": "no",
    "fee": "no",
    "fountain": "bottle_refill",
    "hot_water": "no",
    "iced_water": "no",
    "panoramax": "e4be2b8a-62fe-4c9f-b577-7741378936b2",
    "room_temperature_water": "yes",
    "warm_water": "no"
  }
},
{
  "type": "node",
  "id": 13019734711,
  "lat": 52.8866819,
  "lon": 5.3554118,
  "tags": {
    "amenity": "water_point",
    "drinking_water": "yes",
    "water_point": "yes"
  }
},
{
  "type": "node",
  "id": 13030300801,
  "lat": 52.5072560,
  "lon": 5.4761071,
  "tags": {
    "amenity": "drinking_water",
    "name": "Drinkwater",
    "operator": "jointhepipe"
  }
},
{
  "type": "node",
  "id": 13034082055,
  "lat": 52.0155528,
  "lon": 5.3293468,
  "tags": {
    "access": "yes",
    "amenity": "drinking_water",
    "fee": "no",
    "wheelchair": "yes"
  }
},
{
  "type": "node",
  "id": 13039782260,
  "lat": 52.0497976,
  "lon": 5.6449093,
  "tags": {
    "access": "yes",
    "amenity": "drinking_water",
    "fee": "no",
    "wheelchair": "limited"
  }
},
{
  "type": "node",
  "id": 13039852760,
  "lat": 52.0140924,
  "lon": 5.6687592,
  "tags": {
    "access": "unknown",
    "amenity": "drinking_water",
    "description": "Op het terrein van Atletiekvereniging Climax, toegang mogelijk beperkt",
    "fee": "no",
    "wheelchair": "yes"
  }
}

  ]
}
